SchoolTypeId;Name;Code;Address;ZipCode;City;Country;Website;E-Mail;Phone;Longitude;Latitude;IsActive;State;EmailSuffix
4;AHS Privatschule Waldorfschule Dreiklang;316631;Kreuttalstraße 107;2123;Unterolberndorf;Österreich;;admin@dreiklangschule.at;0680/3121747;16.4680604;48.4389661;1;NOE;0
4;BG Amstetten;305026;Anzengruberstraße 6;3300;Amstetten;Österreich;http://www.bgamstetten.ac.at;bg.amstetten@noeschule.at;07472/62903-0;14.8770699;48.1195;1;NOE;0
4;BG Baden, Biondekgasse;306016;Biondekgasse 6;2500;Baden;Österreich;http://www.brgbaden-biondek.ac.at;bg.baden-biondek@noeschule.at;02252/89787-0;16.2458066;48.0098962;1;NOE;0
4;BG Baden, Frauengasse;306026;Frauengasse 3-5;2500;Baden;Österreich;http://www.bgbaden-frauen.ac.at;bg.baden-frauen@noeschule.at;02252/44403-0;16.2344404;48.0068792;1;NOE;0
4;BG Berndorf;306036;Sportpromenade 19;2560;Berndorf;Österreich;http://www.bgberndorf.ac.at;bg.berndorf@noeschule.at;02672/82265-0;16.1023077;47.948464;1;NOE;0
4;BG Bruck/Leitha;307016;Fischamender Straße 23-25;2460;Bruck an der Leitha;Österreich;http://www.bgbruck-leitha.ac.at;bg.bruck-leitha@noeschule.at;02162/62432-0;16.7752274;48.0292534;1;NOE;0
4;BG Gänserndorf;308016;Gärtnergasse 5-7;2230;Gänserndorf;Österreich;http://www.klg.or.at;bg.gaenserndorf@noeschule.at;02282/2308;16.7219575;48.3421229;1;NOE;0
4;BG Gmünd;309016;Gymnasiumstraße 5;3950;Gmünd;Österreich;http://www.bggmuend.ac.at;bg.gmuend@noeschule.at;02852/52700-0;14.9889433;48.7696632;1;NOE;0
4;BG Hollabrunn;310016;Reucklstraße 9;2020;Hollabrunn;Österreich;http://www.bghollabrunn.ac.at;bg.hollabrunn@noeschule.at;02952/2628-0;16.0834158;48.5586447;1;NOE;0
4;BG Horn;311016;Puechhaimgasse 21;3580;Horn;Österreich;http://www.bghorn.ac.at;bg.horn@noeschule.at;02982/2347-0;15.6579927;48.6700199;1;NOE;0
4;BG Klosterneuburg;324016;Buchberggasse 31;3400;Klosterneuburg;Österreich;http://www.bgklosterneuburg.ac.at;bg.klosterneuburg@noeschule.at;02243/32155-0;16.319789;48.3038997;1;NOE;0
4;BG Krems, Rechte Kremszeile;301056;Rechte Kremszeile 54;3500;Krems an der Donau;Österreich;http://www.bg-kremszeile.ac.at;bg.krems-kremszeile@noeschule.at;02732/82471-0;15.6191647;48.409891;1;NOE;0
4;BG Krems, Piaristengasse;301016;Piaristengasse 2;3500;Krems an der Donau;Österreich;http://www.piakrems.ac.at;bg.krems-piaristen@noeschule.at;02732/83300-0;15.6008938;48.4127396;1;NOE;0
4;BG Laa/Thaya;316016;Martin Wachter-Platz 6;2136;Laa an der Thaya;Österreich;http://www.bglaa.ac.at;bg.laa-thaya@noeschule.at;02522/2401-0;16.3805644;48.7183828;1;NOE;0
4;BG Lilienfeld;314016;Klosterrotte 1;3180;Lilienfeld;Österreich;http://www.bglilienfeld.ac.at;bg.lilienfeld@noeschule.at;02762/52380-0;15.5985614;48.0130039;1;NOE;0
4;BG Mödling, Untere Bachgasse;317016;Untere Bachgasse 8;2340;Mödling;Österreich;http://www.bgmoedling-bach.ac.at;bg.moedling-bach@noeschule.at;02236/22511;16.2997042;48.0845834;1;NOE;0
4;BG Mödling, Keimgasse;317026;Franz Keim-Gasse 3;2340;Mödling;Österreich;http://www.bgmoedling-keim.ac.at;bg.moedling-keim@noeschule.at;02236/24244-0;16.2921048;48.0849999;1;NOE;0
4;BG Neunkirchen;318016;Otto Glöckel-Weg 2;2620;Neunkirchen;Österreich;http://www.bgneunkirchen.ac.at;bg.neunkirchen@noeschule.at;02635/62674-0;16.080588;47.7318113;1;NOE;0
4;BG Perchtoldsdorf;317036;Roseggergasse 2-4;2380;Perchtoldsdorf;Österreich;http://www.bgperchtoldsdorf.ac.at;bg.perchtoldsdorf@noeschule.at;01/8694728-0;16.2601461;48.120494;1;NOE;0
4;BG Schwechat;324036;Ehrenbrunngasse 6;2320;Schwechat;Österreich;http://www.bgschwechat.ac.at;bg.schwechat@noeschule.at;01/7078494-0;16.4790264;48.1399803;1;NOE;0
4;BG Stockerau;312016;Unter den Linden 16;2000;Stockerau;Österreich;http://www.bgstockerau.ac.at;bg.stockerau@noeschule.at;02266/62143-0;16.2027466;48.3885373;1;NOE;0
4;BG St. Pölten, Josefstrasse;302016;Josefstraße 84;3100;St. Pölten;Österreich;http://www.bgstpoelten.ac.at;bg.stpoelten@noeschule.at;02742/72959-0;15.6216909;48.1904251;1;NOE;0
4;BG Tulln;321016;Donaulände 72;3430;Tulln;Österreich;http://www.bgtulln.ac.at;bg.tulln@noeschule.at;02272/66227;16.0652402;48.3323751;1;NOE;0
4;BG Waidhofen/Thaya;322016;Gymnasiumstraße 1;3830;Waidhofen an der Thaya;Österreich;http://www.gymwt.at;bg.waidhofen-thaya@noeschule.at;02842/52554-0;15.2825988;48.8122221;1;NOE;0
4;BG Wieselburg;320026;Erlaufpromenade 1;3250;Wieselburg an der Erlauf;Österreich;http://www.bgwieselburg.ac.at;bg.wieselburg@noeschule.at;07416/52455-0;15.1478761;48.1320779;1;NOE;0
4;BG Wolkersdorf;316036;Withalmstraße 14;2120;Wolkersdorf;Österreich;http://www.ahs-wolkersdorf.at;bg.wolkersdorf@noeschule.at;02245/82555;16.5242079;48.3802961;1;NOE;0
4;BG Wr. Neustadt, Babenbergerring;304016;Babenbergerring 10;2700;Wiener Neustadt;Österreich;http://www.bg-bab.ac.at;bg.wr-neustadt-babenberger@noeschule.at;02622/22380;16.240059;47.8160508;1;NOE;0
4;BG Wr. Neustadt, Zehnergasse;304046;Zehnergasse 15;2700;Wiener Neustadt;Österreich;http://www.bgzehnwn.ac.at;bg.wr-neustadt-zehner@noeschule.at;02622/23136-0;16.2286704;47.8130102;1;NOE;0
4;BG Zwettl;325016;Gymnasiumstraße 1;3910;Zwettl;Österreich;http://www.gymnasium-zwettl.ac.at;bg.zwettl@noeschule.at;02822/52324-0;15.1577609;48.6044452;1;NOE;0
4;BORG Deutsch-Wagram;308026;Schulallee 4;2232;Deutsch-Wagram;Österreich;http://www.borgdw.at;borg.deutsch-wagram@noeschule.at;02247/65087;16.560346;48.2975187;1;NOE;0
4;BORG Krems;301026;Heinemannstraße 12;3500;Krems an der Donau;Österreich;http://www.borg-krems.ac.at;borg.krems@noeschule.at;02732/82313;15.5998308;48.4071993;1;NOE;0
4;BORG Mistelbach;316026;Brennerweg 8;2130;Mistelbach;Österreich;http://www.borgmistelbach.ac.at;borg.mistelbach@noeschule.at;02572/2341-29;16.5653001;48.571182;1;NOE;0
4;BORG Neulengbach;319026;Sindelarstraße 440;3040;Neulengbach;Österreich;http://www.borg-neulengbach.at;borg.neulengbach@noeschule.at;277 254 189;15.9020289;48.1962433;1;NOE;0
4;BORG Scheibbs;320016;Schacherlweg 1;3270;Scheibbs;Österreich;http://www.borgscheibbs.ac.at;borg.scheibbs@noeschule.at;07482/42570-0;15.1689203;48.0022748;1;NOE;0
4;BORG Wr. Neustadt;304036;Herzog Leopold-Straße 32;2700;Wiener Neustadt;Österreich;http://www.borgwr-neustadt.ac.at;borg.wr-neustadt@noeschule.at;02622/23116-0;16.2392657;47.8139972;1;NOE;0
4;BRG Krems, Ringstrasse;301036;Ringstraße 33;3500;Krems an der Donau;Österreich;http://www.brgkrems.ac.at;brg.krems@noeschule.at;02732/82082-0;15.6001945;48.4082828;1;NOE;0
4;BRG unter bes. Berücksichtigung d. sportlichen Ausbildung, Maria Enzersdorf;317046;Giesshübler Straße 37;2344;Maria Enzersdorf;Österreich;http://www.sportgymnasium.at;brg.maria-enzersdorf@noeschule.at;02236/46742-0;16.2718546;48.1003522;1;NOE;0
4;BRG und BORG St. Pölten, Schulring;302026;Schulring 16;3100;St. Pölten;Österreich;http://www.borgstpoelten.ac.at;brg.stpoelten@noeschule.at;02742/72055;15.6251851;48.2010335;1;NOE;0
4;BRG Waidhofen/Ybbs;303016;Schillerplatz 1;3340;Waidhofen an der Ybbs;Österreich;http://www.brgwaidhofen-ybbs.ac.at;brg.waidhofen-ybbs@noeschule.at;07442/52165-10;14.7742108;47.9583261;1;NOE;0
4;BRG Wr. Neustadt, Gröhrmühlgasse;304026;Gröhrmühlgasse 27;2700;Wiener Neustadt;Österreich;http://www.brg-wrn.ac.at;brg.wr-neustadt@noeschule.at;02622/23115-0;16.2372099;47.8181001;1;NOE;0
4;BORG und HASCH für Leistungssportler;302046;Bimbo Binder-Promenade 5;3100;St. Pölten;Österreich;http://www.borglsp-stpoelten.ac.at;dir.borgl.stpoelten@noeschule.at;02742/73453;15.6527827;48.2192736;1;NOE;0
4;Expositur AHS Groß-Enzersdorf des BG Gänserndorf;308036;Freiherr-von-Smola-Straße 3;2301;Groß-Enzersdorf;Österreich;;exp.bg.gaenserndorf@noeschule.at;02249 / 28451;16.548947;48.20645;1;NOE;0
4;Expositur AHS Bad Vöslau-Gainfarn;306056;Petzgasse 36;2540;Bad Vöslau;Österreich;http://www.gymnasium-badvoeslau.ac.at;gym.gainfarn-expositur@noeschule.at;02252/76287;16.2083904;47.9591599;1;NOE;0
4;AHS Hollabrunn;310026;Kirchenplatz 2;2020;Hollabrunn;Österreich;http://www.ebgymhollabrunn.ac.at;gym.hollabrunn@noeschule.at;02952/4421-0;16.0820896;48.5612479;1;NOE;0
4;AHS Klemens Maria Hofbauer, Katzelsdorf;323016;Eichbüchlerstraße 97;2801;Katzelsdorf;Österreich;http://gymkatzelsdorf.net/;gym.katzelsdorf@noeschule.at;02622/78 402-0;16.2733296;47.7685446;1;NOE;0
4;BG Korneuburg;312026;Liese-Prokop-Straße 1;2100;Korneuburg;Österreich;http://www.ahs-korneuburg.at/;gym.korneuburg@noeschule.at;02262/90400;16.3227326;48.3540359;1;NOE;0
4;MARY WARD Oberstufenrealgymnasium Krems;301046;Hoher Markt 1;3500;Krems an der Donau;Österreich;http://www.gymkrems.ac.at;gym.krems@noeschule.at;02732/82249-40;15.6018991;48.4128819;1;NOE;0
4;Liese Prokop Privatschule für Hochleistungssportler;317056;Liese Prokop Platz 1;2344;Maria Enzersdorf;Österreich;http://www.lpps.at;gym.maria-enzersdorf@noeschule.at;02236 / 26 833 - 601;16.3125767;48.0996028;1;NOE;0
4;AHS der Benediktiner, Melk;315016;Abt Berthold Dietmayr-Straße 1;3390;Melk;Österreich;http://www.gymmelk.ac.at;gym.melk@noeschule.at;02752/555-411;15.3351064;48.2281034;1;NOE;0
4;AHS des Institutes Sacre Coeur, Pressbaum;324026;Klostergasse 12;3021;Pressbaum;Österreich;http://www.sacre-coeur.org;gym.pressbaum@noeschule.at;02233/52427-210;16.0818497;48.1854255;1;NOE;0
4;BG Purkersdorf;324046;Herrengasse 4;3002;Purkersdorf;Österreich;http://www.gympurkersdorf.ac.at;gym.purkersdorf@noeschule.at;02231/61304-0;16.1795157;48.2082513;1;NOE;0
4;AHS Sachsenbrunn;318026;Außen 52;2880;Kirchberg am Wechsel;Österreich;http://www.sachsenbrunn.at;gym.sachsenbrunn@noeschule.at;02641/2202;16.0026436;47.6064326;1;NOE;0
4;AHS der Benediktiner, Seitenstetten;305016;Am Klosterberg 1;3353;Seitenstetten;Österreich;http://www.stiftsgymnasium.at;gym.seitenstetten@noeschule.at;07477/42300-317;14.6556809;48.0358577;1;NOE;0
4;MARY WARD AHS, St. Pölten;302036;Schneckgasse 3;3100;St. Pölten;Österreich;http://www.privatgymstpoelten.ac.at;gym.stpoelten@noeschule.at;02742/72656-0;15.6233433;48.2025654;1;NOE;0
4;BORG Ternitz;318036;Straße d. 12. Februar 23;2630;Ternitz;Österreich;http://www.orgternitz.at;gym.ternitz@noeschule.at;02630/35052;16.0318206;47.7185841;1;NOE;0
4;AHS des Schulvereins der Salesianer Don Boscos;306046;Don Bosco-Straße 20;2442;Unterwaltersdorf;Österreich;http://www.donbosco.at/unterwaltersdorf;gym.unterwaltersdorf@noeschule.at;02254/72313-0;16.4314112;47.9663664;1;NOE;0
4;Privates ORG der Marktgemeinde Guntramsdorf;317066;Sportplatzstraße 15;2353;Guntramsdorf;Österreich;http://www.org-guntramsdorf.at/;org.guntramsdorf@noeschule.at;6 644 136 009;16.3168366;48.051891;1;NOE;0
5;BAKIP Amstetten, Trägerverein Franziskanerinnen;305810;Rathausstraße 16;3300;Amstetten;Österreich;http://www.bakipamstetten.ac.at;bakip.amstetten@noeschule.at;07472/62577-21;14.8684913;48.1227024;1;NOE;0
5;BAKIP Mistelbach;316810;Brennerweg 8;2130;Mistelbach;Österreich;http://www.bakipmistelbach.ac.at;bakip.mistelbach@noeschule.at;02572/2950;16.5653001;48.571182;1;NOE;0
5;BAKIP Sacre Coeur Pressbaum;324810;Klostergasse 12;3021;Pressbaum;Österreich;http://schulen.asn-noe.ac.at/bakippressbaum/;bakip.pressbaum@noeschule.at;02233/52427-338;16.0818497;48.1854255;1;NOE;0
5;BAKIP St. Pölten;302820;Dr. Theodor-Körner-Straße 8;3100;St. Pölten;Österreich;http://www.bakipstpoelten.ac.at;bakip.stpoelten@noeschule.at;02742/74354;15.6246315;48.199437;1;NOE;0
5;BAKIP Wiener Neustadt;304820;Bräunlichgasse 1;2700;Wiener Neustadt;Österreich;http://www.bakip.wiener-neustadt.at/;bakip.wr-neustadt@noeschule.at;02622/85748;16.2345536;47.8080696;1;NOE;0
5;BAKIP Zwettl;325810;Klosterstraße 10;3910;Zwettl;Österreich;http://www.bakipamstetten.ac.at/;priv.bakip.zwettl@noeschule.at;07472/62577/21;15.1699414;48.6079497;1;NOE;0
1;SDV-Informatik-Schule;312418;Johann Pamer Straße 4;2100;Korneuburg;Österreich;http://www.private-academy.com/;dv.korneuburg@noeschule.at;02262/72545;16.3364913;48.3380843;1;NOE;0
1;Bundeshandelsschule Stockerau;312448;Schulgasse 4;2000;Stockerau;Österreich;http://www.hasstockerau.ac.at;has.stockerau@noeschule.at;02266/62025;16.2108418;48.3862888;1;NOE;0
6;LFS Warth;318720;Aichhof 1;2831;Warth;Österreich;http://www.lfs-warth.ac.at/;bildungszentrum@lfs-warth.ac.at;02629/2222;16.1204089;47.6519748;1;NOE;0
6;Höhere Bundeslehranstalt und Bundesamt für Wein- und Obstbau, Klosterneuburg;324710;Wienerstraße 74;3400;Klosterneuburg;Österreich;http://www.hblawo.bmlf.gv.at;direktion@hblawo.bmlfuw.gv.at;02243/37910-0;16.33198;48.3011292;1;NOE;0
6;HLFS Francisco Josephinum;320720;Schloß Weinzierl;3250;Wieselburg an der Erlauf;Österreich;http://www.josephinum.at;direktion@hblawsb.bmlfuw.gv.at;07416/52437-0;15.12672;48.1273995;1;NOE;0
6;Forstfachschule Waidhofen an der Ybbs;303720;Negelegasse 3;3340;Waidhofen an der Ybbs;Österreich;http://edu.waidhofen.at;forstfachschule@edu.waidhofen.at;07442/52223-0;14.7776502;47.9579869;1;NOE;0
6;LFS Krems;301710;Wiener Straße 101;3500;Krems an der Donau;Österreich;http://www.wbs-krems.at/;fs.krems@wbs-krems.at;02732/87516;15.6208646;48.4175849;1;NOE;0
6;LFS Tullnerbach;324720;Norbertinumstraße 9;3013;Tullnerbach-Lawies;Österreich;http://www.lfs-tullnerbach.ac.at/;fs.tullnerbach@asn.netway.at;02233/52173;16.1069799;48.1892333;1;NOE;0
6;Landwirtschaftliche Berufsschule Edelhof;325750;Edelhof 1a;3910;Zwettl;Österreich;http://www.bs-edelhof.ac.at/;office@bs.edelhof.at ;02822/54073;15.2231056;48.6062686;1;NOE;0
6;LFS Hollabrunn;310710;Sonnleitenweg 2;2020;Hollabrunn;Österreich;http://www.lfs-hollabrunn.ac.at/;office@diefachschule.at  ;02952/2133;16.0715947;48.5715135;1;NOE;0
6;LFS Edelhof;325710;Edelhof 1;3910;Zwettl;Österreich;http://www.lfs-edelhof.ac.at/;office@edelhof.at;02822/52402;15.2231056;48.6062686;1;NOE;0
6;LFS Langenlois;313710;Am Rosenhügel 15;3550;Langenlois;Österreich;http://www.gartenbauschule.at/;office@gartenbauschule.at;02734/2106;15.6725825;48.4690753;1;NOE;0
6;Landwirtschaftliche Berufsschule Langenlois;313730;Am Rosenhügel 15;3550;Langenlois;Österreich;http://www.gartenbauschule.at/;office@gartenbauschule.at;02734/2106;15.6725825;48.4690753;1;NOE;0
6;LFS Hohenlehen;305720;Garnberg 8;3343;Hollenstein an der Ybbs;Österreich;http://www.hohenlehen.at;office@hohenlehen.at;07445/225;14.7767157;47.8590488;1;NOE;0
6;LFS Pyhra;319710;Heuberg 16;3143;Pyhra;Österreich;http://www.lfs-pyhra.ac.at/;office@lfs-pyhra.ac.at ;02745/2393;15.6967364;48.1474846;1;NOE;0
6;LFS Tulln;321710;Frauentorgasse 72-74;3430;Tulln;Österreich;http://www.lfs-tulln.ac.at/;office@lfs-tulln.ac.at;02272/62515;16.0558349;48.318504;1;NOE;0
6;LFS Zwettl;325720;Edelhof 2;3910;Zwettl;Österreich;http://www.lfs-zwettl.ac.at/;office@lfs-zwettl.ac.at;02822/52684;15.2213899;48.6057868;1;NOE;0
6;LFS Gießhübl;305710;Gießhübl 7;3300;Amstetten;Österreich;http://www.lfs-giesshuebl.ac.at/;office@mostviertler-bildungshof.at;07472/62722;14.9013552;48.098102;1;NOE;0
6;LFS Unterleiten;305730;Unterleiten;3343;Hollenstein an der Ybbs;Österreich;http://www.lfs-unterleiten.ac.at/;office@unterleiten.at;07445/204;14.765378;47.783548;1;NOE;0
6;Höhere Bundeslehranstalt für Land- und Ernährungswirtschaft Sitzenberg;321730;Schlossbergstraße 4;3454;Reidling;Österreich;http://www.tullnerfeld.at/schulen/sitzenberg/;sitzenberg.d@hblasit.bmlfuw.gv.at;02276/2335-22;15.8072961;48.3220213;1;NOE;0
6;LFS Gaming;320760;Ötscherlandstraße 38;3292;Gaming;Österreich;http://www.lfs-gaming.ac.at/;office@lfs-gaming.ac.at;07485/97353;15.0769123;47.9197552;1;NOE;0
6;LFS Mistelbach;316710;Winzerschulgasse 50;2130;Mistelbach;Österreich;http://www.lfs-mistelbach.ac.at/;direktion@lfs-mistelbach.ac.at;02572/2421;16.5722363;48.5764618;1;NOE;0
6;LFS Obersiebenbrunn;308710;Feldhofgasse 6;2283;Obersiebenbrunn;Österreich;http://www.lfs-obersiebenbrunn.ac.at/;office@lfs-obersiebenbrunn.ac.at;02286/2202;16.6996568;48.2630744;1;NOE;0
6;LFS Ottenschlag;325760;Schloß 1;3631;Ottenschlag;Österreich;http://www.lfs-ottenschlag.ac.at/;direktion@lfs-ottenschlag.ac.at ;02827/7266;15.2194226;48.4245189;1;NOE;0
6;LFS Sooß;315710;Sooß 1;3382;Loosdorf;Österreich;http://www.lfs-sooss.ac.at/;office@lfs-sooss.ac.at;02754/6154;15.3736882;48.1731018;1;NOE;0
6;LFS Poysdorf;316730;Oberer Markt 7;2170;Poysdorf;Österreich;http://www.lfs-poysdorf.ac.at;martin.faber@lfs-poysdorf.ac.at;02552/2421;16.6279271;48.6680367;1;NOE;0
7;Höhere Lehranstalten Mödling;317489;Josef Hyrtl-Platz 3;2340;Mödling;Österreich;http://www.hla-moedling.at;hlm.moedling@noeschule.at;02236/22205;16.2990299;48.0859487;1;NOE;0
7;Fachschule für wirtschaftliche Berufe Pressbaum;324419;Fünkhgasse 45a;3021;Pressbaum;Österreich;http://www.hlwpressbaum.at;hlw.pressbaum@noeschule.at;02233/52230;16.0821315;48.1802861;1;NOE;0
7;HLWB Türnitz;314419;Auhofstrasse 41;3184;Türnitz;Österreich;http://www.hlwtuernitz.ac.at;hlw.tuernitz@noeschule.at;02769/8301-0;15.484731;47.9265433;1;NOE;0
7;HLWB Zwettl, Trägerverein Franziskanerinnen Amstetten;325419;Klosterstraße 10;3910;Zwettl;Österreich;http://www.hlwzwettl.ac.at;hlw.zwettl@noeschule.at;02822/52318-17;15.1699414;48.6079497;1;NOE;0
7;Höhere Bundeslehranstalt für Tourismus;318449;Hochstraße 32c;2680;Semmering;Österreich;http://www.tourismusschulen-semmering.at;hlt.semmering@noeschule.at;02664/8192-610;14.650181;48.0349884;1;NOE;0
7;Höhere Lehranstalt für Tourismus des WIFI, St. Pölten;302539;Mariazeller Straße 97;3100;St. Pölten;Österreich;http://www.wifi-tours.at;hlt.stpoelten@noeschule.at;02742/890-2301 ;15.6175254;48.1871353;1;NOE;0
7;Bundesfachschule für wirtschaftliche Berufe Gmünd;309429;Otto Glöckel-Straße 6;3950;Gmünd;Österreich;http://www.fwgmuend.ac.at;bfs.gmuend@noeschule.at;02852/52901;14.9795349;48.7661245;1;NOE;0
7;Fachschule für wirtschaftliche Berufe der Kongregation der Schulschwestern, Amstetten;305449;Rathausstraße 16;3300;Amstetten;Österreich;http://www.fwamstetten.ac.at;fs.amstetten@noeschule.at;07472/62577-25;14.8684913;48.1227024;1;NOE;0
7;Fachschule für wirtschaftliche Berufe der Marienschwestern vom Karmel, Klein Erla;305419;Klein Erla 1;4303;St. Pantaleon-Erla;Österreich;http://www.fachschulenerla.ac.at;fs.erla@noeschule.at;07435/7464;14.5691811;48.2107096;1;NOE;0
7;Fachschule für wirtschaftliche Berufe der Schulschwestern, Langenlois;313419;Anton-Zöhrer-Straße 3;3550;Langenlois;Österreich;http://www.fssblangenlois.ac.at;fs.langenlois@noeschule.at;02734/2368;15.689571;48.4747068;1;NOE;0
7;Höhere Lehranstalt für wirtschaftliche Berufe des Schulvereins Institut Sta. Christiana;323419;Frohsdorfer Hauptstraße 28;2821;Lanzenkirchen;Österreich;http://www.hlwfrohsdorf.ac.at;fs.lanzenkirchen@noeschule.at;02627/45235-16;16.2533195;47.7471622;1;NOE;0
3;HAK Amstetten;305428;Stefan Fadinger-Straße 36;3300;Amstetten;Österreich;http://www.hakamstetten.ac.at;hak.amstetten@noeschule.at;07472/62628;14.8787227;48.1183155;1;NOE;0
3;HAK Baden;306428;Mühlgasse 65;2500;Baden;Österreich;http://www.hak-baden.ac.at;hak.baden@noeschule.at;02252/88568-0;16.2530803;48.0084043;1;NOE;0
3;HAK Bruck/Leitha;307428;Fischamender Straße 23-25;2460;Bruck an der Leitha;Österreich;http://www.hakbruck-leitha.ac.at;hak.bruck-leitha@noeschule.at;02162/62723-0;16.7752274;48.0292534;1;NOE;0
3;HAK Gänserndorf;308418;Hans Kudlich-Gasse 30;2230;Gänserndorf;Österreich;http://www.hakgaenserndorf.ac.at;hak.gaenserndorf@noeschule.at;02282/2291;16.7181303;48.338676;1;NOE;0
3;HAK Gmünd;309418;Otto Glöckel-Straße 6;3950;Gmünd;Österreich;http://www.hakgmuend.ac.at;hak.gmuend@noeschule.at;02852/52901;14.9795349;48.7661245;1;NOE;0
3;HAK Hollabrunn;310438;Kirchenplatz 2;2020;Hollabrunn;Österreich;http://www.hakhollabrunn.ac.at;hak.hollabrunn@noeschule.at;02952/2223-0;16.0820896;48.5612479;1;NOE;0
3;HAK Horn;311418;Gartengasse 1;3580;Horn;Österreich;http://www.hakhorn.ac.at;hak.horn@noeschule.at;02982/2696-0;15.6571121;48.6710725;1;NOE;0
3;HAK Korneuburg;312438;Bankmannring 1;2100;Korneuburg;Österreich;http://www.hak-korneuburg.at;hak.korneuburg@noeschule.at;02262/72150-0;16.332316;48.347349;1;NOE;0
3;HAK Krems;301418;Langenloiser Straße 22;3500;Krems an der Donau;Österreich;http://www.hakkrems.ac.at;hak.krems@noeschule.at;02732/82121-0;15.6086567;48.4142315;1;NOE;0
3;HAK Laa/Thaya;316418;Anton-Bruckner-Straße 39;2136;Laa an der Thaya;Österreich;http://www.haklaa.ac.at;hak.laa-thaya@noeschule.at;02522/2297-0;16.401614;48.7232507;1;NOE;0
3;HAK für Hochleistungssportler, Maria Enzersdorf;317428;Johann-Steinböck-Straße 5;2344;Maria Enzersdorf;Österreich;http://www.oelsz.at/;hak.maria-enzersdorf@noeschule.at;02236 / 26 833 - 601;16.31418;48.0967;1;NOE;0
3;HAK Mistelbach;316448;Brennerweg 8;2130;Mistelbach;Österreich;http://www.hakmistelbach.ac.at;hak.mistelbach@noeschule.at;02572/2305;16.5653001;48.571182;1;NOE;0
3;HAK des Fonds der Wiener Kaufmannschaft, Mödling;317418;Maria Theresien-Gasse 25;2340;Mödling;Österreich;http://www.moedling.vbs.ac.at;hak.moedling@noeschule.at;02236/22289;16.3008484;48.0894613;1;NOE;0
3;HAK Neunkirchen;318418;Schillergasse 10;2620;Neunkirchen;Österreich;http://www.hakneunkirchen.schule.at;hak.neunkirchen@noeschule.at;02635/64110-0;16.0788851;47.7313165;1;NOE;0
3;HAK Retz;310418;Rupert Rockenbauer-Platz 2;2070;Retz;Österreich;http://www.hakretz.ac.at;hak.retz@noeschule.at;02942/20420-0;15.9563088;48.7589752;1;NOE;0
3;HAK St. Pölten;302418;Waldstraße 1,  Postfach 332;3100;St. Pölten;Österreich;http://www.hakstpoelten.ac.at;hak.stpoelten@noeschule.at;02742/71840;15.618235;48.2071205;1;NOE;0
3;HAK Waidhofen/Thaya;322428;Vitiser Straße 17;3830;Waidhofen an der Thaya;Österreich;http://www.hakwaidhofen-thaya.ac.at;hak.waidhofen-thaya@noeschule.at;02842/52303;15.2803493;48.8113438;1;NOE;0
3;HAK Waidhofen/Ybbs;303428;Pocksteinerstraße 3;3340;Waidhofen an der Ybbs;Österreich;http://www.hakwaidhofen-ybbs.ac.at;hak.waidhofen-ybbs@noeschule.at;07442/52142-0;14.775159;47.9588954;1;NOE;0
3;HAK Wr. Neustadt;304438;Ungargasse 29;2700;Wiener Neustadt;Österreich;http://www.hakwr-neustadt.ac.at;hak.wr-neustadt@noeschule.at;02622/23570-0;16.2501427;47.812392;1;NOE;0
3;HAK der Stadtgemeinde Ybbs/Donau;315428;Schulring 1;3370;Ybbs an der Donau;Österreich;http://www.sz-ybbs.ac.at;hak.ybbs@noeschule.at;07412/52575;15.081702;48.1771477;1;NOE;0
3;HAK Zwettl;325438;Hammerweg 1;3910;Zwettl;Österreich;http://www.bhak-bhas-zwettl.ac.at;hak.zwettl@noeschule.at;02822/52380-0;15.1609903;48.6070314;1;NOE;0
3;HAK der Stadtgemeinde Tulln;321418;Donaulände 64;3430;Tulln;Österreich;http://www.haktulln.ac.at;haktulln@haktulln.ac.at;02272/62572;16.0617595;48.3323313;1;NOE;0
7;HLWB des Zisterzienserstiftes, Ysper;315449;Schulstraße 13;3683;Yspertal;Österreich;http://www.hlaysper.ac.at;hla.ysper@noeschule.at;07415/7249-0;15.063013;48.2850933;1;NOE;0
7;Höhere Bundeslehranstalt für Tourismus Retz;310469;Seeweg 2;2070;Retz;Österreich;http://www.hltretz.ac.at;hlt.retz@noeschule.at;02942/20464;15.9566106;48.7505752;1;NOE;0
7;HLWB Amstetten;305469;Stefan Fadinger-Straße 36;3300;Amstetten;Österreich;http://www.hlwamstetten.ac.at;hlw.amstetten@noeschule.at;07472/68210-0;14.8787227;48.1183155;1;NOE;0
7;HLWB Baden;306419;Germergasse 5;2500;Baden;Österreich;http://www.hlabaden.at;hlw.baden@noeschule.at;02252/89151;16.2414341;48.0116665;1;NOE;0
7;HLWB Biedermannsdorf;317479;Perlasgasse 10;2362;Biedermannsdorf;Österreich;http://www.hlw-bmdf.ac.at;hlw.biedermannsdorf@noeschule.at;02236/71117-0;16.3462236;48.085326;1;NOE;0
7;HLWB Haag;305479;Wienerstraße 2;3350;Haag;Österreich;http://www.hlwhaag.ac.at;hlw.haag@noeschule.at;07434/43717-0;14.5679492;48.1110935;1;NOE;0
7;HLWB Hollabrunn;310429;Mühlgasse 35;2020;Hollabrunn;Österreich;http://www.hlwhollabrunn.ac.at;hlw.hollabrunn@noeschule.at;02952/2546-0;16.0851949;48.5660047;1;NOE;0
7;HLWB Horn;311429;Gartengasse 1;3580;Horn;Österreich;http://www.hlwhorn.ac.at;hlw.horn@noeschule.at;02982/2235;15.6571121;48.6710725;1;NOE;0
7;HLWB Mistelbach;316459;Brennerweg 8;2130;Mistelbach;Österreich;http://www.hlwmistelbach.ac.at;hlw.mistelbach@noeschule.at;02572/2950;16.5653001;48.571182;1;NOE;0
7;HLWB St. Pölten;302499;Eybnerstraße 23;3100;St. Pölten;Österreich;http://www.hlwstpoelten.ac.at;hlw.stpoelten@noeschule.at;02742/361515-0;15.631955;48.2116255;1;NOE;0
7;HLWB Tulln;321439;Donaulände 72;3430;Tulln;Österreich;http://www.hlwtulln.ac.at;hlw.tulln@noeschule.at;02272/64767-10 ;16.0652402;48.3323751;1;NOE;0
7;HLWB Wr. Neustadt;304449;Burgplatz 1;2700;Wiener Neustadt;Österreich;http://hla.wiener-neustadt.at;hlw.wr-neustadt@noeschule.at;02622/26570-11;16.2457073;47.8094901;1;NOE;0
10;HS I Waidhofen an der Thaya;322062;Bahnhofstraße 19;3830;Waidhofen an der Thaya;Österreich;http://www.hswaidhofen-thaya-1.ac.at/joomla-asn;322062@noeschule.at;02842/52539;15.2811864;48.8127577;1;NOE;0
10;HS Schwechat, Schmidgasse;324132;Schmidgasse 8;2320;Schwechat;Österreich;http://www.shs-schwechat.at;324132@noeschule.at;01/7077193;16.4753079;48.1443312;1;NOE;0
10;HS Wiener Neustadt, Europaallee 2;304062;Europaallee 2;2700;Wiener Neustadt;Österreich;http://www.bilingualeschule.at;bilinguale-hs-wrneustadt@noeschule.at;0676/883732377;16.2496459;47.8234568;1;NOE;0
10;HS Albrechtsberg an der Großen Krems;313012;Nr. 54;3613;Els;Österreich;http://www.hs-albrechtsberg.at;hs.albrechtsberg@noeschule.at;02876/372;15.3765822;48.4432986;1;NOE;0
10;HS Allentsteig;325012;Schulstraße 1;3804;Allentsteig;Österreich;http://www.hsallentsteig.ac.at;hs.allentsteig@noeschule.at;02824/2905;15.3236629;48.6983873;1;NOE;0
10;HS Amstetten, Kirchenstraße;305032;Kirchenstraße 18;3300;Amstetten;Österreich;http://www.hsamstetten-1.ac.at;hs.amstetten-kirchenstrasse@noeschule.at;07472/62547;14.8672433;48.1229168;1;NOE;0
10;HS Amstetten, Pestalozzistraße;305022;Pestalozzistraße 2;3300;Amstetten;Österreich;http://www.hs2-amstetten.at;hs.amstetten-pestalozzistrasse@noeschule.at;07472/62911;14.8758706;48.119292;1;NOE;0
10;HS Arbesbach;325022;Schulgasse 109;3925;Arbesbach;Österreich;http://www.hsarbesbach.ac.at;hs.arbesbach@noeschule.at;02813/7002;14.9541492;48.4929868;1;NOE;0
10;HS Aspang-Markt;318012;Roseggergasse 3;2870;Aspang-Markt;Österreich;http://www.hsaspang.ac.at;hs.aspang-markt@noeschule.at;02642/52397;16.0872784;47.5539677;1;NOE;0
10;HS Asparn an der Zaya;316012;Schulgasse 12;2151;Asparn an der Zaya;Österreich;http://www.hsasparn.ac.at;hs.asparn-zaya@noeschule.at;02577/8003;16.494134;48.5875;1;NOE;0
10;HS Auersthal;308012;Schulring 18;2214;Auersthal;Österreich;http://mhsauersthal.schulweb.at/;hs.auersthal@noeschule.at;02288/2305;16.6379637;48.3744744;1;NOE;0
10;HS Blindenmarkt;315022;Lindenstraße 18;3372;Blindenmarkt;Österreich;http://www.hsblindenmarkt.ac.at;hs.blindenmarkt@noeschule.at;07473/2359;14.9906585;48.1266814;1;NOE;0
10;HS Dobersberg;322012;Schulstraße 8;3843;Dobersberg;Österreich;http://www.hsdobersberg.ac.at;hs.dobersberg@noeschule.at;02843/2201;15.3196968;48.9135041;1;NOE;0
10;HS Edlitz;318022;Markt 12;2842;Edlitz;Österreich;http://www.members.aon.at/hs_edlitz;hs.edlitz@noeschule.at;02644/6011;16.1404308;47.5981726;1;NOE;0
10;HS Eggenburg;311022;Mozartstraße 10;3730;Eggenburg;Österreich;http://www.hseggenburg.ac.at;hs.eggenburg@noeschule.at;02984/2644;15.8163624;48.6475541;1;NOE;0
10;HS Euratsfeld;305072;Hoher Rain 6;3324;Euratsfeld;Österreich;http://www.hseuratsfeld.ac.at;hs.euratsfeld@noeschule.at;07474/259;14.9302008;48.0805592;1;NOE;0
10;HS Fischamend;324022;Enzersdorfer Straße 18;2401;Fischamend;Österreich;http://www.hsfischamend.ac.at/;hs.fischamend@noeschule.at;02232/76269;16.6133454;48.1163812;1;NOE;0
10;HS Furth bei Göttweig;313042;Linke Bachzeile 246;3511;Furth bei Göttweig;Österreich;http://www.furth.at/hs;hs.furth-goettweig@noeschule.at;02732/8464 0;15.6120626;48.377328;1;NOE;0
10;HS Gaming;320012;Schleierfallstraße 5;3292;Gaming;Österreich;http://www.hsgaming.ac.at;hs.gaming@noeschule.at;07485/98210;15.0939675;47.9250086;1;NOE;0
10;HS Gföhl;313052;Jaidhofer Gasse 18;3542;Gföhl;Österreich;http://www.hsgfoehl.ac.at/;hs.gfoehl@noeschule.at;02716/8639;15.4898495;48.5199452;1;NOE;0
10;HS Gloggnitz;318032;Schulgasse 1;2640;Gloggnitz;Österreich;http://www.shsgloggnitz.at;hs.gloggnitz@noeschule.at;02662/423970;15.9342337;47.6748065;1;NOE;0
10;HS I Gmünd;309012;Otto Glöckel-Straße 2;3950;Gmünd;Österreich;http://www.hsgmuend1.ac.at;hs.gmuend-1@noeschule.at;02852/52113-0;14.9793209;48.766543;1;NOE;0
10;HS II Gmünd;309022;Schulgasse 1;3950;Gmünd;Österreich;http://www.hsgmuend2.ac.at;hs.gmuend-2@noeschule.at;02852/52104;14.9857558;48.7696365;1;NOE;0
10;HS Göstling an der Ybbs;320022;Nr. 118;3345;Göstling an der Ybbs;Österreich;http://www.hsgoestling.at;hs.goestling@noeschule.at;07484/2295;14.931195;47.809169;1;NOE;0
10;HS Groß-Enzersdorf;308062;Schießstattring 2;2301;Groß-Enzersdorf;Österreich;http://www.hsgrossenzersdorf.ac.at;hs.gross-enzersdorf@noeschule.at;02249/23 46;16.5519801;48.199677;1;NOE;0
10;HS Groß Gerungs;325032;Arbesbacher Straße 224;3920;Groß Gerungs;Österreich;http://www.hs-gerungs.ac.at;hs.gross-gerungs@noeschule.at;02812/8282;14.9571097;48.572227;1;NOE;0
10;HS Großkrut;316042;Schulstraße 5;2143;Großkrut;Österreich;http://www.hsgrosskrut.ac.at/;hs.grosskrut@noeschule.at;02556/7254;16.7219776;48.6427753;1;NOE;0
10;HS Großweikersdorf;321022;Präsident List-Platz 2;3701;Großweikersdorf;Österreich;http://www.hsgw.at;hs.grossweikersdorf@noeschule.at;02955/70249;15.9854107;48.4708191;1;NOE;0
10;HS Grünau - Rabenstein an der Pielach;319032;Grünau, Kirchenplatz 5;3202;Hofstetten;Österreich;http://www.hs-gruenau-rabenstein.at;hs.gruenau-rabenstein@noeschule.at;02723/8233;15.5029477;48.0995148;1;NOE;0
10;HS Haag;305152;Höllriglstraße 17;3350;Haag;Österreich;http://www.hshaag.ac.at;hs.haag@noeschule.at;07434/42146;14.5701607;48.1121689;1;NOE;0
10;HS Hadres;310022;Nr. 80;2061;Hadres;Österreich;http://www.hshadres.ac.at;hs.hadres@noeschule.at;02943/2302;16.1370052;48.7083518;1;NOE;0
10;HS Hainfeld;314012;Schulgasse 7;3170;Hainfeld;Österreich;http://www.hshainfeld.ac.at;hs.hainfeld@noeschule.at;02764/2290;15.7710569;48.0346274;1;NOE;0
10;HS Harmannsdorf - Neue Modellschule;312022;Bahnstraße 1;2111;Harmannsdorf;Österreich;http://www.hsharmannsdorf.ac.at;hs.harmannsdorf@noeschule.at;02264/7314;16.3751636;48.3909496;1;NOE;0
10;HS Haugsdorf;310032;Hauptstraße 1;2054;Haugsdorf;Österreich;http://www.hshaugsdorf.ac.at;hs.haugsdorf@noeschule.at;02944/2205;16.0765254;48.7076612;1;NOE;0
10;HS Hausbrunn;316052;Gottfried von Preyer-Weg 22;2145;Hausbrunn;Österreich;http://hs-hausbrunn.at;hs.hausbrunn@noeschule.at;02533/808104;16.828285;48.6285138;1;NOE;0
10;HS Hausleiten;312032;Schulgasse 6;3464;Hausleiten;Österreich;http://www.hshausleiten.ac.at;hs.hausleiten@noeschule.at;02265/7248;16.0930851;48.3972682;1;NOE;0
10;HS Amstetten, Hausmening;305162;Winthalstraße 23;3363;Ulmerfeld-Hausmening;Österreich;http://nmshausmening.ac.at/;hs.hausmening@noeschule.at;07475/59025;14.8210907;48.0781808;1;NOE;0
10;HS Heidenreichstein;309042;Anton Ullrich-Gasse 7;3860;Heidenreichstein;Österreich;http://www.hsheidenreichstein.at/;hs.heidenreichstein@noeschule.at;02862/52169;15.1158149;48.8676757;1;NOE;0
10;HS Herzogenburg;319042;Schillerring 19;3130;Herzogenburg;Österreich;http://www.hsherzogenburg.ac.at;hs.herzogenburg@noeschule.at;02782/83395;15.6912846;48.2863776;1;NOE;0
10;HS Hirtenberg;306062;Leobersdorfer Straße 66;2552;Hirtenberg;Österreich;http://www.hshirtenberg.at;hs.hirtenberg@noeschule.at;02256/81131;16.1898298;47.9311655;1;NOE;0
10;HS Hochneukirchen - Gschaidt;323122;Schulgasse 3;2852;Hochneukirchen;Österreich;http://www.hshochneukirchen.ac.at;hs.hochneukirchen-gschaidt@noeschule.at;02648/245;16.2013894;47.4588734;1;NOE;0
10;HS Hohenruppersdorf;308092;Marktplatz 38;2223;Hohenruppersdorf;Österreich;http://www.hshohenruppersdorf.ac.at;hs.hohenruppersdorf@noeschule.at;02574/83 26;16.657186;48.4620018;1;NOE;0
10;HS Hollenstein an der Ybbs;305082;Dorf 31;3343;Hollenstein an der Ybbs;Österreich;http://community.schule.at;hs.hollenstein@noeschule.at;0664 83 39 237;14.7762902;47.8015084;1;NOE;0
10;HS Hürm;315142;Nr. 15;3383;Hürm;Österreich;http://www.hshuerm.ac.at;hs.huerm@noeschule.at;02754/8542;15.4118933;48.1559056;1;NOE;0
10;HS Irnfritz - Messern;311052;Hauptstraße 8;3754;Irnfritz;Österreich;http://www.nmsirnfritz.at/;hs.irnfritz@noeschule.at;02986/6229;15.53839;48.745405;1;NOE;0
10;HS Karlstetten;319172;Schlossplatz 4;3121;Karlstetten;Österreich;http://www.hskarlstetten.ac.at;hs.karlstetten@noeschule.at;02741/8650;15.5651707;48.2580813;1;NOE;0
10;HS Kautzen;322032;Waidhofner Straße 11;3851;Kautzen;Österreich;http://www.hskautzen.ac.at;hs.kautzen@noeschule.at;02864-2277;15.2418629;48.92851;1;NOE;0
10;HS Kirchberg an der Pielach;319052;Schulgasse 6;3204;Kirchberg an der Pielach;Österreich;http://www.hskirchberg-pielach.ac.at/;hs.kirchberg-pielach@noeschule.at;02722/7229;15.4318274;48.0262535;1;NOE;0
10;HS Kirchberg am Wagram;321042;Auf der Schanz 5;3470;Kirchberg am Wagram;Österreich;http://www.hskirchberg-wagram.ac.at;hs.kirchberg-wagram@noeschule.at;02279/23 62;15.9005131;48.4355334;1;NOE;0
10;HS Kirchberg am Wechsel;318152;Markt 106;2880;Kirchberg am Wechsel;Österreich;http://ms-kirchberg.at/;hs.kirchberg-wechsel@noeschule.at;02641/6100;15.9945215;47.6090924;1;NOE;0
10;HS I Laa an der Thaya;316062;Anton Bruckner-Straße 1-3;2136;Laa an der Thaya;Österreich;http://www.hslaa-thaya-1.ac.at;hs.laa-thaya-1@noeschule.at;02522/7000;16.3947932;48.7214446;1;NOE;0
10;HS II Laa an der Thaya;316072;Breitegasse 6;2136;Laa an der Thaya;Österreich;http://www.mhs-laa.at/;hs.laa-thaya-2@noeschule.at;02522/2272;16.3867627;48.723995;1;NOE;0
10;HS Langschlag;325042;Nr. 115;3921;Langschlag;Österreich;http://www.hs.langschlag.at;hs.langschlag@noeschule.at;02814/8267;14.8843506;48.5734934;1;NOE;0
10;HS Lassee;308102;Bahnstraße 68;2291;Lassee;Österreich;http://www.nmslassee.ac.at/;hs.lassee@noeschule.at;02213/22 23;16.8213712;48.2328415;1;NOE;0
10;HS Leopoldsdorf im Marchfelde;308112;Hauptstraße 2;2285;Leopoldsdorf im Marchfelde;Österreich;http://www.hsleopoldsdorf.ac.at;hs.leopoldsdorf@noeschule.at;02216/22 69;16.6905592;48.2243348;1;NOE;0
10;HS Lichtenegg;323142;Schulstraße 10;2813;Lichtenegg;Österreich;http://www.hslichtenegg.ac.at;hs.lichtenegg@noeschule.at;02643/2230;16.200012;47.5986958;1;NOE;0
10;HS Lichtenwörth;323072;Kirchenplatz 4;2493;Lichtenwörth;Österreich;http://hslichtenwoerth.ac.at/joomla-asn015;hs.lichtenwoerth@noeschule.at;02622/75576;16.2945451;47.8324076;1;NOE;0
10;HS Litschau;309052;Wiener Straße 3;3874;Litschau;Österreich;http://www.hslitschau.ac.at;hs.litschau@noeschule.at;02865/241;15.0499953;48.9451952;1;NOE;0
10;HS Lunz am See;320042;Schulstraße 5;3293;Lunz am See;Österreich;http://www.hslunz.ac.at;hs.lunz-see@noeschule.at;07486/20010;15.0287369;47.8620327;1;NOE;0
10;HS Mank;315062;Schulstraße 7;3240;Mank;Österreich;http://www.nms-mank.at;hs.mank@noeschule.at;02755/2335;15.3419642;48.1098219;1;NOE;0
10;HS Marchegg;308122;Fünfhaus 2;2293;Marchegg;Österreich;http://www.hs-marchegg.at;hs.marchegg@noeschule.at;02285/8375;16.9078779;48.2653043;1;NOE;0
10;HS Markt Piesting;323082;Herbert Seiser-Platz 1;2753;Markt Piesting;Österreich;http://www.hsmarktpiesting.ac.at;hs.markt-piesting@noeschule.at;02633/42254;16.1262197;47.8730999;1;NOE;0
10;HS Martinsberg;325122;Nr. 135;3664;Martinsberg;Österreich;http://www.hsmartinsberg.ac.at;hs.martinsberg@noeschule.at;02874/6454;15.1484833;48.3770884;1;NOE;0
10;HS Amstetten, Mauer;305242;Hausmeninger Straße 6;3362;Mauer bei Amstetten;Österreich;http://www.hsmauer.ac.at;hs.mauer@noeschule.at;07475/59064;14.798665;48.0925307;1;NOE;0
10;HS Mautern an der Donau;313072;Melker Straße 24;3512;Mautern an der Donau;Österreich;http://www.hsmautern.at;hs.mautern@noeschule.at;02732/84911;15.5730136;48.3923744;1;NOE;0
10;HS I Mistelbach;316082;Thomas-Freund-Gasse 3;2130;Mistelbach;Österreich;http://www.hsmistelbach-1.ac.at;hs.mistelbach-1@noeschule.at;02572/32236;16.5725852;48.5670515;1;NOE;0
10;Europa-HS II Mistelbach;316092;Thomas Freund-Gasse 3;2130;Mistelbach;Österreich;http://www.hsmistelbach-2.ac.at;hs.mistelbach-2@noeschule.at;02572/32237;16.5725852;48.5670515;1;NOE;0
10;HS Neuhofen an der Ybbs;305092;Hauptstraße 21;3364;Neuhofen an der Ybbs;Österreich;http://www.hsneuhofen.ac.at;hs.neuhofen@noeschule.at;07475/59048-33;14.8506413;48.0560363;1;NOE;0
10;HS Neunkirchen, Schoellerstraße;318072;Schoellerstraße 7;2620;Neunkirchen;Österreich;http://www.hsneunkirchen-schoeller.ac.at;hs.neunkirchen-schoellerstrasse@noeschule.at;02635/62668;16.0862839;47.7210676;1;NOE;0
10;HS Neusiedl an der Zaya;308142;Hauptschulstraße 18;2183;Neusiedl an der Zaya;Österreich; ;hs.neusiedl-zaya@noeschule.at;02533/89 264;16.7861072;48.5995621;1;NOE;0
10;HS Payerbach;318082;Schulgasse 11;2650;Payerbach;Österreich;http://www.hs-payerbach.at;hs.payerbach@noeschule.at;02666/52476;15.8676474;47.6943452;1;NOE;0
10;HS Pernitz;323092;Peter Rosegger-Straße 4;2763;Pernitz;Österreich;http://hspernitz.schulweb.at;hs.pernitz@noeschule.at;02632/72415;15.9564813;47.8985746;1;NOE;0
10;HS Persenbeug - Gottsdorf;315152;Schubertstraße 32;3680;Persenbeug;Österreich;http://www.hspersenbeug.ac.at;hs.persenbeug@noeschule.at;07412/58002;15.0904822;48.1870902;1;NOE;0
10;HS Pöggstall;315092;Schulstraße 3;3650;Pöggstall;Österreich;http://www.hspoeggstall.ac.at;hs.poeggstall@noeschule.at;02758/4004;15.2055658;48.3183729;1;NOE;0
10;HS Prinzersdorf;319102;Schulstraße 8;3385;Prinzersdorf;Österreich;http://www.hs-prinzersdorf.at;hs.prinzersdorf@noeschule.at;02749/2321;15.5207338;48.2039047;1;NOE;0
10;HS Ravelsbach;310072;Neugasse 3;3720;Ravelsbach;Österreich;http://www.hs-ravelsbach.at;hs.ravelsbach@noeschule.at;02958/82488;15.8523054;48.5533651;1;NOE;0
10;HS Reichenau an der Rax;318122;Herzog Otto-Straße 7;2651;Reichenau an der Rax;Österreich; ;hs.reichenau@noeschule.at;02666/52880;15.8224092;47.699423;1;NOE;0
10;HS Scheibbs;320082;Feldgasse 3;3270;Scheibbs;Österreich;http://www.hsscheibbs.ac.at;hs.scheibbs@noeschule.at;07482/42266-0;15.1640137;48.0088376;1;NOE;0
10;HS Schönbach;325072;Nr. 73;3633;Schönbach;Österreich;http://www.hsschoenbach.at;hs.schoenbach@noeschule.at;02827/7000;15.0367334;48.4545619;1;NOE;0
10;HS Schwarzau im Gebirge;318162;Markt 29;2662;Schwarzau im Gebirge;Österreich; ;hs.schwarzau-gebirge@noeschule.at;02667/249;15.7023824;47.8144507;1;NOE;0
10;HS Sitzendorf an der Schmida;310102;Hauptplatz 1;3714;Sitzendorf an der Schmida;Österreich;http://www.hssitzendorf.ac.at;hs.sitzendorf@noeschule.at;02959/2446;15.9424892;48.5993207;1;NOE;0
10;HS Spitz an der Donau;313092;Rote Torgasse 3;3620;Spitz an der Donau;Österreich;http://www.rhswachau.at;hs.spitz@noeschule.at;02713/2355;15.4123135;48.367296;1;NOE;0
10;HS St. Andrä - Wördern;321062;Greifensteiner Straße 33;3423;St. Andrä - Wördern;Österreich;http://www.hsstaw.at;hs.standrae-woerdern@noeschule.at;02242/3809010;16.2106009;48.3241874;1;NOE;0
10;HS Steinakirchen am Forst;320092;Schulstraße 1;3261;Steinakirchen am Forst;Österreich;http://hssteinakirchen.edupage.org;hs.steinakirchen@noeschule.at;07488/71324;15.0467418;48.0679962;1;NOE;0
10;HS Stift Zwettl;325112;Stift Zwettl 12;3910;Zwettl;Österreich;http://www.hs-stiftzwettl.ac.at;hs.stift-zwettl@noeschule.at;02822/52214;15.1983722;48.6169738;1;NOE;0
10;HS St. Leonhard am Forst;315102;Manker Straße 1;3243;St. Leonhard am Forst;Österreich;http://www.hsstleonhard-forst.ac.at;hs.stleonhard-forst@noeschule.at;02756/2261;15.2884563;48.1400082;1;NOE;0
10;HS St. Pölten, Pottenbrunn;302092;Weiglstraße 8;3140;Pottenbrunn;Österreich;http://www.hspottenbrunn.ac.at;hs.stpoelten-pottenbrunn@noeschule.at;02742/32313;15.6892283;48.2380136;1;NOE;0
10;HS Stronsdorf;316122;Nr. 3;2153;Stronsdorf;Österreich;http://members.nanet.at/hs.stronsdorf;hs.stronsdorf@noeschule.at;02526/7326;16.298556;48.6507211;1;NOE;0
10;HS I Tulln;321082;Konrad von Tulln-Gasse 2;3430;Tulln;Österreich;http://www.mhs1-tulln.at;hs.tulln-1@noeschule.at;02272/62462;16.0483222;48.3303067;1;NOE;0
10;HS Waidhofen an der Thaya;322082;Bahnhofstraße 19;3830;Waidhofen an der Thaya;Österreich;http://www.hswaidhofen-thaya-2.ac.at;hs.waidhofen-thaya-2@noeschule.at;02842/52900;15.2811864;48.8127577;1;NOE;0
10;WirtschaftsHS Waidhofen an der Ybbs, Pocksteinerstraße;303012;Pocksteinerstraße 4;3340;Waidhofen an der Ybbs;Österreich;http://hswaidhofen-ybbs-1.ac.at;hs.waidhofen-ybbs-1@noeschule.at;07442/90512;14.7747631;47.9583081;1;NOE;0
10;HS II Waidhofen an der Ybbs, Zell;303022;Zell, Hauptplatz 17a;3340;Waidhofen an der Ybbs;Österreich;http://shs.waidhofen.at;hs.waidhofen-ybbs-2@noeschule.at;07442/90510;14.7806097;47.9583811;1;NOE;0
10;HS Weissenbach an der Triesting;306122;Hollergasse 46;2564;Weissenbach an der Triesting;Österreich;http://www.hsweissenbach.at;hs.weissenbach@noeschule.at;02674/87381;16.0390061;47.9763728;1;NOE;0
10;HS Wieselburg;320102;Karl-Hager-Platz 2;3250;Wieselburg an der Erlauf;Österreich;http://www.hswieselburg.ac.at;hs.wieselburg@noeschule.at;07416/52452;15.1364778;48.125767;1;NOE;0
10;HS Wiesmath;323102;Schulstraße 7;2811;Wiesmath;Österreich;http://www.hswiesmath.ac.at;hs.wiesmath@noeschule.at;02645/2250;16.290004;47.6169804;1;NOE;0
10;HS Wölbling;319082;Oberer Markt 15;3124;Oberwölbling;Österreich;http://www.hswoelbling.ac.at;hs.woelbling@noeschule.at;02786/2245;15.5907531;48.3200708;1;NOE;0
10;HS Wiener Neustadt, Primelgasse;304012;Primelgasse 12;2700;Wiener Neustadt;Österreich;http://www.shs-wn.at;hs.wr-neustadt@noeschule.at;0676-883732375;16.2100905;47.8098714;1;NOE;0
10;HS Wullersdorf;310112;Schulstraße 243;2041;Wullersdorf;Österreich;http://www.hswullersdorf.at;hs.wullersdorf@noeschule.at;02951/8428;16.0975469;48.627193;1;NOE;0
10;HS Ybbs an der Donau;315112;Schulring 7;3370;Ybbs an der Donau;Österreich;http://www.shsybbs.ac.at;hs.ybbs@noeschule.at;07412/52491;15.0825706;48.1779934;1;NOE;0
10;HS Yspertal;315012;Schulstraße 11;3683;Yspertal;Österreich;http://www.hs.yspertal.com;hs.yspertal@noeschule.at;07415/7346;15.063013;48.2850933;1;NOE;0
10;HS Zellerndorf;310122;Nr. 269;2051;Zellerndorf;Österreich;http://www.hszellerndorf.ac.at;hs.zellerndorf@noeschule.at;02945/2500;15.961558;48.6950199;1;NOE;0
10;HS Ziersdorf;310132;Hollabrunner Straße 24;3710;Ziersdorf;Österreich;http://www.hsz.at;hs.ziersdorf@noeschule.at;02956/2258;15.9316116;48.5295284;1;NOE;0
10;HS Zistersdorf;308162;Kirchengasse 1;2225;Zistersdorf;Österreich;http://www.hauptschule-zistersdorf.at;hs.zistersdorf@noeschule.at;02532/22 46;16.7614777;48.5443254;1;NOE;0
10;HS Zöbern;318172;Schulstraße 1;2871;Zöbern;Österreich;http://www.hszoebern.ac.at;hs.zoebern@noeschule.at;02642/8247;16.1294493;47.5136941;1;NOE;0
10;HS Zwentendorf an der Donau;321092;Goetheplatz 1;3435;Zwentendorf an der Donau;Österreich;http://www.hszwentendorf.ac.at;hs.zwentendorf@noeschule.at;02277/2230 11;15.9112153;48.3452192;1;NOE;0
10;Private HS Amstetten der Kongregation der Schwestern vom 3.Orden des Hl. Franziskus;305202;Rathausstraße 16;3300;Amstetten;Österreich;http://www.phsamstetten.ac.at;phs.amstetten@noeschule.at;07472/62577-18;14.8684913;48.1227024;1;NOE;0
10;Mary Ward PrivatHS Krems, Vereinigung von Ordensschulen;301042;Hoher Markt 1;3500;Krems an der Donau;Österreich;http://www.marywardschulen.com/kremsphs/;phs.krems@noeschule.at;02732/82249-42;15.6018991;48.4128819;1;NOE;0
10;Libo-Montessori-Schule 10-15 jährige;317132;Barmhartstalweg 13;2344;Maria Enzersdorf;Österreich;http://www.noe-bildungsatlas.at/;phs.moedling-libo-montessori@noeschule.at;0664/3325314;16.2639799;48.103489;1;NOE;0
10;MARY WARD PrivatHS;302082;Schneckgasse 3;3100;St. Pölten;Österreich;http://www.englischefraeulein.ac.at;phs.stpoelten@noeschule.at;02742/352173-400;15.6233433;48.2025654;1;NOE;0
10;PAN - Freilandschule für 6-15- jährige;309082;Harmannstein 2;3922;Großschönau;Österreich;http://www.pan.at/;phs.gross-schoenau@noeschule.at;02815/6651;14.908958;48.6416945;1;NOE;0
10;Privatschule Evangelische Schule Maria Enzersdorf;317122;Grenzgasse 111, Objekt 9/3;2340;Mödling;Österreich;http://www.erlebnisschule.net;phs.moedling-erlebnisschule@noeschule.at;02236 / 205811;16.2993177;48.0945589;1;NOE;0
10;Sekundarschule Integratives Montessori Atelier;302112;Herzogenburgerstrasse 68;3100;St. Pölten;Österreich;http://www.ima-montessori-schule.at;r.pachler@pgv.at;02742/21618;15.6363596;48.2137266;1;NOE;0
1;Private Höhere Lehranstalt für Informationstechnologie und Kolleg für Informationstechnologie Schwechat;324417;Am Concorde Park 2,Gebäude F;2320;Schwechat;Österreich; ;hlt.schwechat@noeschule.at;01/8901524-11;16.4912796;48.1373238;1;NOE;0
1;Priv. HTL für Lebensmitteltechnologie Hollabrunn;310457;Anton Ehrenfriedstraße 10;2020;Hollabrunn;Österreich;http://www.htllt-hollabrunn.ac.at/phpwcms/;htl-lt.hollabrunn@noeschule.at;02952/3361-200;16.0693974;48.5599043;1;NOE;0
1;HTL Hollabrunn;310447;Anton Ehrenfriedstraße 10;2020;Hollabrunn;Österreich;http://www.htl-hl.ac.at;htl.hollabrunn@noeschule.at;02952/3361-0;16.0693974;48.5599043;1;NOE;0
1;HTL Karlstein;322417;Raabser Straße 23;3822;Karlstein;Österreich;http://www.htl-karlstein.ac.at;htl.karlstein@noeschule.at;02844/202;15.4106291;48.8812845;1;NOE;0
1;HTL Krems;301447;Alauntalstraße 29;3500;Krems an der Donau;Österreich;http://www.htlkrems.ac.at;htl.krems@noeschule.at;02732/83190-0;15.5928733;48.4111787;1;NOE;0
1;HTL für Elektronik Mistelbach;316417;Karl Katschthaler-Str. 2;2130;Mistelbach;Österreich;http://www.htlmistelbach.ac.at;htl.mistelbach@noeschule.at;02572/32036;16.5734867;48.5761345;1;NOE;0
1;Höhere technische Bundeslehr- und Versuchsanstalt Mödling;317437;Technikerstraße 1-5;2340;Mödling;Österreich;http://htl.moedling.at;htl.moedling@noeschule.at;02236/408-0;16.2891099;48.0736406;1;NOE;0
1;Höhere technische Bundeslehr- und Versuchsanstalt St. Pölten;302467;Waldstraße 3;3100;St. Pölten;Österreich;http://www.htlstp.ac.at;htl.stpoelten@noeschule.at;02742/75051-0;15.6184883;48.2067959;1;NOE;0
1;Höhere technische Bundeslehr- und Versuchsanstalt Waidhofen/Ybbs;303417;Im Vogelsang 8;3340;Waidhofen an der Ybbs;Österreich;http://www.htlwy.ac.at;htl.waidhofen-ybbs@noeschule.at;07442/52590-0;14.7867846;47.9505574;1;NOE;0
1;Höhere technische Bundeslehr- und Versuchsanstalt Wr. Neustadt;304417;Dr. Eckener Gasse 2;2700;Wiener Neustadt;Österreich;http://www.htlwrn.ac.at;htl.wr-neustadt@noeschule.at;02622/27871;16.2349873;47.8229388;1;NOE;0
1;HTL der Stadtgemeinde Ybbs/Donau;315467;Schulring 6;3370;Ybbs an der Donau;Österreich;http://www.sz-ybbs.ac.at;htl.ybbs@noeschule.at;07412/52575-511;15.082726;48.177684;1;NOE;0
1;HTL Baden, Malerschule Leesdorf;306437;Leesdorfer Hauptstraße 69;2500;Baden;Österreich;http://www.malerschule-baden.ac.at;ms.baden@noeschule.at;02252/80250;16.2504006;48.0048302;1;NOE;0
9;PraxisHS der pädagogischen Hochschule N…;306022;Pelzgasse 17;2500;Baden;Österreich;http://www.praxishsbaden.ac.at;306022@noeschule.at;02252/44480;16.2269466;48.0088102;1;NOE;0
9;NMS Gumpoldskirchen;317022;Jubiläumstraße 23;2352;Gumpoldskirchen;Österreich;http://www.hsgumpoldskirchen.ac.at;317022@noeschule.at;02252/62152;16.2799145;48.0457945;1;NOE;0
9;NMS Hinterbrühl;317042;Gaadner Straße 36a;2371;Hinterbrühl;Österreich;http://www.ims-hinterbruehl.at;317042@noeschule.at;02236/26363;16.2313755;48.081497;1;NOE;0
9;NMS Mödling, Jakob Thoma-Straße;317072;Jakob Thoma-Straße 20;2340;Mödling;Österreich;http://www.nms-thoma.ac.at;317072@noeschule.at;02236/22543-1;16.290428;48.0887147;1;NOE;0
9;NMS Perchtoldsdorf;317082;Roseggergasse 2 - 6;2380;Perchtoldsdorf;Österreich;http://www.mittelschule-perchtoldsdorf.at;317082@noeschule.at;01/869 04 73;16.2601461;48.120494;1;NOE;0
9;NMS Gerasdorf bei Wien;324032;Bahnstraße 26;2201;Gerasdorf bei Wien;Österreich;http://www.hsgerasdorf.ac.at;324032@noeschule.at;02246/2270;15.6775282;48.7968318;1;NOE;0
9;NMS Klosterneuburg, Hermannstraße;324062;Hermannstraße 11;3400;Klosterneuburg;Österreich;http://www.hsklosterneuburg-hermann.ac.at;324062@noeschule.at;02243/444323;16.3234666;48.3036158;1;NOE;0
9;NMS Pressbaum;324092;Fünkhgasse 45a;3021;Pressbaum;Österreich;http://www.nmspressbaum.at;direktion@nmspressbaum.at;02233/52866;16.0821315;48.1802861;1;NOE;0
9;NMS Alland;306012;Nr. 303;2534;Alland;Österreich;http://www.hs-alland.at;hs.alland@noeschule.at;02258/2340;16.078083;48.059028;1;NOE;0
9;NMS Altlengbach;319152;Linden 3;3033;Altlengbach;Österreich;http://www.hslaabental.ac.at;hs.altlengbach-laabental@noeschule.at;02774/2400;15.9094122;48.1437711;1;NOE;0
9;NMS Atzenbrugg;321032;St. Pöltner Straße 8;3452;Atzenbrugg;Österreich;http://www.hsatzenbrugg.ac.at;hs.atzenbrugg@noeschule.at;02275/5252;15.8928358;48.2983922;1;NOE;0
9;NMS Baden;306032;Pelzgasse 13;2500;Baden;Österreich;http://www.whsbaden.at;hs.baden@noeschule.at;02252/44480;16.2269466;48.0088102;1;NOE;0
9;NMS Bad Großpertholz;309032;Nr. 180;3972;Bad Großpertholz;Österreich;http://www.hsbad-grosspertholz.ac.at;hs.badgrosspertholz@noeschule.at;02857/2202;14.8207253;48.6285709;1;NOE;0
9;NMS Bad Vöslau;306132;Raulestraße 9;2540;Bad Vöslau;Österreich;http://www.sms-badvoeslau.at;hs.badvoeslau@noeschule.at;02252/76181;16.2165693;47.9703068;1;NOE;0
9;NMS Berndorf I;306042;Margaretenplatz 2;2560;Berndorf;Österreich;http://www.whs1berndorf.at;hs.berndorf-1@noeschule.at;6,77E+11;16.1026831;47.9420038;1;NOE;0
9;NMS Berndorf II;306052;Margaretenplatz 2;2560;Berndorf;Österreich;http://nmsberndorf.ac.at;hs.berndorf-2@noeschule.at;676 848 225 394;16.1026831;47.9420038;1;NOE;0
9;NMS Böheimkirchen;319012;Hochfeldstraße 5;3071;Böheimkirchen;Österreich;http://www.hsboeheimkirchen.ac.at;hs.boeheimkirchen@noeschule.at;02743/2421;15.7609109;48.1963184;1;NOE;0
9;NMS Bruck an der Leitha I;307012;Lagerhausstraße 1;2460;Bruck an der Leitha;Österreich;http://hsbruck-leitha-1.ac.at;hs.bruck-leitha-1@noeschule.at;02162/62566;16.7751525;48.0262493;1;NOE;0
9;NMS Bruck an der Leitha II;307022;Raiffeisengürtel 35;2460;Bruck an der Leitha;Österreich;http://www.hsbruck-leitha2.ac.at;hs.bruck-leitha-2@noeschule.at;02162/62348;16.7752162;48.0253161;1;NOE;0
9;NMS Brunn am Gebirge-Maria Enzersdorf;317012;Jubiläumstraße 1-5;2345;Brunn am Gebirge;Österreich;http://www.edvhsbrunn.at;hs.brunn-gebirge@noeschule.at;02236/31388;16.2817176;48.1045048;1;NOE;0
9;NMS Deutsch-Wagram;308022;Friedhofallee 8;2232;Deutsch-Wagram;Österreich;http://www.hsdeutschwagram.ac.at;hs.deutsch-wagram@noeschule.at;02247/24 91;16.5595022;48.2980407;1;NOE;0
9;NMS Drosendorf - Zissersdorf;311012;Hornerstraße 24;2095;Drosendorf;Österreich;http://hsdrosendorf-zissersdorf.ac.at;hs.drosendorf-zissersdorf@noeschule.at;02915/2253;15.6222067;48.8647157;1;NOE;0
9;NMS Dürnkrut;308032;Hauptstraße 8;2263;Dürnkrut;Österreich;http://www.hsduernkrut.ac.at;hs.duernkrut@noeschule.at;02538/80840;15.5733651;48.4650433;1;NOE;0
9;NMS Ebenfurth;323012;Hauptstraße 1;2490;Ebenfurth;Österreich;http://www.hsebenfurth.ac.at/;hs.ebenfurth@noeschule.at;02624/52257;16.3686703;47.8783897;1;NOE;0
9;NMS Ebergassing;324012;Himberger Straße 1;2435;Ebergassing;Österreich;http://www.hsebergassing.ac.at;hs.ebergassing@noeschule.at;02234/73422;16.5175182;48.0456363;1;NOE;0
9;NMS Ebreichsdorf;306142;Schulgasse 6;2483;Ebreichsdorf;Österreich;http://www.ebreichsdorf.at;hs.ebreichsdorf@noeschule.at;02254/72239;16.4056511;47.9625249;1;NOE;0
9;NMS Eichgraben;319022;Hauptstraße 44;3032;Eichgraben;Österreich;http://www.mittelschule.eichgraben.info/;hs.eichgraben@noeschule.at;02773/46313;15.986174;48.1742051;1;NOE;0
9;NMS Emmersdorf an der Donau;315132;Schulgasse 2;3644;Emmersdorf an der Donau;Österreich;http://www.nms-emmersdorf.at;hs.emmersdorf@noeschule.at;02752/70039;15.3358223;48.2432498;1;NOE;0
9;NMS Bad Erlach;323022;Altagasse 6;2822;Bad Erlach;Österreich;http://www.hsbaderlach.ac.at;hs.erlach@noeschule.at;02627/48427;16.211695;47.7300951;1;NOE;0
9;NMS Ernstbrunn;312012;Laaer Straße 1;2115;Ernstbrunn;Österreich;http://www.hsernstbrunn.ac.at;hs.ernstbrunn@noeschule.at;02576/2252;16.3601785;48.5292365;1;NOE;0
9;NMS Felixdorf;323032;Schulstraße 3;2603;Felixdorf;Österreich;http://www.hsfelixdorf.ac.at;hs.felixdorf@noeschule.at;02628/62300;16.2429;47.8812547;1;NOE;0
9;NMS Fels-Grafenwörth;321012;Schulplatz 1;3481;Fels am Wagram;Österreich;http://www.hsfels.ac.at;hs.fels-wagram@noeschule.at;02738/2284;15.8196576;48.4400801;1;NOE;0
9;NMS Frankenfels;319162;Markt 13;3213;Frankenfels;Österreich;http://www.nms-frankenfels.edupage.org;hs.frankenfels@noeschule.at;02725/296;15.3235405;47.9812803;1;NOE;0
9;NMS Gänserndorf;308042;Eichamtstraße 4;2230;Gänserndorf;Österreich;http://www.hsgaenserndorf-1.ac.at;hs.gaenserndorf@noeschule.at;02282/23 40;16.7187918;48.3390882;1;NOE;0
9;NMS Gars am Kamp;311032;Haanstrasse 450;3571;Gars am Kamp;Österreich;http://www.shs-gars.at;hs.gars-kamp@noeschule.at;02985/2224;15.6671484;48.5958858;1;NOE;0
9;NMS Gaweinstal;316032;Schulstraße 2;2191;Gaweinstal;Österreich;http://www.hs-gaweinstal.schulweb.at;hs.gaweinstal@noeschule.at;257 429 500;16.5841373;48.4796192;1;NOE;0
9;NMS Göllersdorf;310012;Schulgasse 273;2013;Göllersdorf;Österreich;http://nmsgoellersdorf.ac.at/;hs.goellersdorf@noeschule.at;02954/2275;16.122839;48.4912983;1;NOE;0
9;NMS Grafenegg;313032;Hauptstraße 29;3492;Etsdorf am Kamp;Österreich;http://www.hs-grafenegg.at;hs.grafenegg@noeschule.at;02735/5454;15.741557;48.4444016;1;NOE;0
9;NMS Gramatneusiedl;324042;Wiener Straße 2;2440;Gramatneusiedl;Österreich;http://www.hsgramatneusiedl.ac.at;hs.gramatneusiedl@noeschule.at;02234/73411;16.4895465;48.029531;1;NOE;0
9;NMS Gresten;320032;Schulstraße 18;3264;Gresten;Österreich;http://www.hsgresten.ac.at;hs.gresten@noeschule.at;07487/4041;15.0257272;47.9861109;1;NOE;0
9;NMS Groß-Siegharts;322022;Hamerlingstraße 32;3812;Groß-Siegharts;Österreich;http://thsgrs.schulweb.at;hs.gross-siegharts@noeschule.at;02847/2223;15.4098316;48.7923996;1;NOE;0
9;NMS Grünbach am Schneeberg;318042;Schulgasse 12;2733;Grünbach am Schneeberg;Österreich;http://www.ems-gruenbach.at;hs.gruenbach-schneeberg@noeschule.at;02637/2269-20;15.9846788;47.7978233;1;NOE;0
9;NMS Guntramsdorf;317032;Sportplatzstraße 15;2353;Guntramsdorf;Österreich;http://www.ms-guntramsdorf.at;hs.guntramsdorf@noeschule.at;02236/52504 150;16.3168366;48.051891;1;NOE;0
9;NMS Hainburg an der Donau;307032;Babenbergerstraße 27;2410;Hainburg an der Donau;Österreich;http://www.hs-hainburg.at;hs.hainburg@noeschule.at;02165/62175;16.9435674;48.1444274;1;NOE;0
9;NMS Himberg;324052;Kirchenplatz 2;2325;Himberg;Österreich;http://www.hauptschule-himberg.at;hs.himberg@noeschule.at;02235/86306;16.4369751;48.0810357;1;NOE;0
9;NMS Hohenau an der March I;308072;Hauptstraße 27;2273;Hohenau an der March;Österreich; ;hs.hohenau-1@noeschule.at;02535/2334;16.9091415;48.6092634;1;NOE;0
9;NMS Hohenberg;314022;Obere Hauptstraße 5;3192;Hohenberg;Österreich;http://www.hshohenberg.ac.at;hs.hohenberg@noeschule.at;02767/8278;15.619889;47.9066159;1;NOE;0
9;NMS Hollabrunn;310052;Kornhergasse 4;2020;Hollabrunn;Österreich;http://www.hshollabrunn.ac.at;hs.hollabrunn@noeschule.at;02952/2444;16.076704;48.5601659;1;NOE;0
9;NMS Horn;311042;Robert Hamerling-Straße 1;3580;Horn;Österreich;http://www.hshorn.at/;hs.horn@noeschule.at;02982/2414;15.6568173;48.6662563;1;NOE;0
9;NMS Kilb;315032;Kohlenbergstraße 3;3233;Kilb;Österreich;http://www.hs.kilb.at;hs.kilb@noeschule.at;02748/7209;15.4133449;48.1004714;1;NOE;0
9;NMS Kirchschlag in der Buckligen Welt;323042;Am Reissenbach 8;2860;Kirchschlag in der Buckligen Welt;Österreich;http://www.hskirchschlag.ac.at;hs.kirchschlag-bucklige-welt@noeschule.at;02646/2229;16.2974486;47.5071876;1;NOE;0
9;NMS Klosterneuburg, Langstögergasse;324072;Langstögergasse 15;3400;Klosterneuburg;Österreich;http://www.hsklosterneuburg-langstoeger.ac.at;hs.klosterneuburg-langstoegergasse@noeschule.at;02243/444322;16.3206292;48.3104825;1;NOE;0
9;NMS Korneuburg I;312042;Windmühlgasse 3;2100;Korneuburg;Österreich;http://www.mhskorneuburg.ac.at;hs.korneuburg-1@noeschule.at;02262/74510474;16.3367643;48.3460019;1;NOE;0
9;NMS Korneuburg-Sport-und Kreative Modellschule II;312052;Windmühlgasse 1-3;2100;Korneuburg;Österreich;http://www.hskorneuburg-2.ac.at;hs.korneuburg-2@noeschule.at;02262/74510-475;16.3367401;48.3463989;1;NOE;0
9;NMS Krems;301052;Edmund-Hofbauer-Straße 9;3500;Krems;Österreich;http://www.hskrems.ac.at;hs.krems@noeschule.at;02732/73910-10;15.6008609;48.4076162;1;NOE;0
9;NMS Krumbach;323052;Schulgasse 3;2851;Krumbach;Österreich;http://www.hskrumbach.ac.at;hs.krumbach@noeschule.at;02647/42350;16.1921788;47.5216208;1;NOE;0
9;NMS Krummnussbaum;315042;Rathausstraße 10;3375;Krummnussbaum;Österreich;http://www.hskrummnussbaum.ac.at;hs.krummnussbaum@noeschule.at;02757/2424;15.16591;48.2074879;1;NOE;0
9;NMS Langenlois;313062;Kaserngasse 2;3550;Langenlois;Österreich;http://www.hslangenlois.at;hs.langenlois@noeschule.at;02734/7016;15.6747188;48.4730444;1;NOE;0
9;NMS Langenzersdorf;312062;Klosterneuburger Straße 12;2103;Langenzersdorf;Österreich;http://www.hs.langenzersdorf.ac.at;hs.langenzersdorf@noeschule.at;02244/2312-10;16.3553334;48.3083772;1;NOE;0
9;NMS Lanzendorf;324082;Obere Hauptstraße 48;2326;Lanzendorf;Österreich;http://www.imslanzendorf.at;hs.lanzendorf@noeschule.at;02235/42228;16.4290408;48.1021371;1;NOE;0
9;NMS Lanzenkirchen;323062;Schulgasse 100;2821;Lanzenkirchen;Österreich;http://www.hslanzenkirchen.ac.at;hs.lanzenkirchen@noeschule.at;02627/45409;16.2387132;47.7445544;1;NOE;0
9;NMS Leobersdorf;306072;Schulgasse 5;2544;Leobersdorf;Österreich;http://www.hsleobersdorf.ac.at;hs.leobersdorf@noeschule.at;02256/62110;16.215991;47.9319815;1;NOE;0
9;NMS Lilienfeld, SchiHS;314032;Castellistraße 8;3180;Lilienfeld;Österreich;http://nmslilienfeld.ac.at/;hs.lilienfeld@noeschule.at;02762/52432;15.5889253;48.0138919;1;NOE;0
9;NMS Loosdorf;315052;Otto Glöckel-Straße 6-8;3382;Loosdorf;Österreich;http://www.hsloosdorf.ac.at;hs.loosdorf@noeschule.at;02754/6282;15.3989971;48.1996332;1;NOE;0
9;NMS Mannersdorf am Leithagebirge;307052;Fleischgasse 3;2452;Mannersdorf am Leithagebirge;Österreich;http://www.hsmannersdorf.at;hs.mannersdorf-leithagebirge@noeschule.at;02168/62358;16.6042196;47.9737399;1;NOE;0
9;NMS Matzen - Raggendorf;308132;Jubiläumsplatz 10;2243;Matzen;Österreich;http://shsmatzen.ac.at;hs.matzen-raggendorf@noeschule.at;02289/22 19;16.696169;48.3991725;1;NOE;0
9;NMS Melk;315072;Abt Karl Straße 41;3390;Melk;Österreich;http://www.hsmelk.at;hs.melk@noeschule.at;02752/52512;15.3391902;48.2250341;1;NOE;0
9;NMS Mödling, Lerchengasse;317062;Lerchengasse 18;2340;Mödling;Österreich;http://www.esm-mödling.at;hs.moedling-lerchengasse@noeschule.at;02236/23514-10;16.2868649;48.0874451;1;NOE;0
9;NMS Neulengbach;319062;Marktfeldstraße 310;3040;Neulengbach;Österreich;http://hsneulengbach.ac.at;hs.neulengbach@noeschule.at;02772/53300;15.9040119;48.1997787;1;NOE;0
9;NMS Neunkirchen, Augasse;318062;Augasse 7;2620;Neunkirchen;Österreich;http://members.aon.at/hauptschule-augasse;hs.neunkirchen-augasse@noeschule.at;02635/62357;16.0863127;47.7211107;1;NOE;0
9;NMS Ober-Grafendorf;319072;Schulstraße 6;3200;Ober-Grafendorf;Österreich;http://hsober-grafendorf.ac.at/;hs.ober-grafendorf@noeschule.at;02747/2331;15.5445565;48.1512875;1;NOE;0
9;NMS Oberndorf an der Melk;320052;Schulstraße 5;3281;Oberndorf an der Melk;Österreich;http://www.nmsoberndorfandermelk.at;hs.oberndorf@noeschule.at;07483/7028;15.2222108;48.0637841;1;NOE;0
9;NMS Oberwaltersdorf;306082;Badener Straße 26;2522;Oberwaltersdorf;Österreich;http://www.hs-oberwaltersdorf.at;hs.oberwaltersdorf@noeschule.at;02253/61000-222;16.3204131;47.9786712;1;NOE;0
9;NMS Orth an der Donau;308152;Schlossplatz 4;2304;Orth an der Donau;Österreich;http://hs-orth.schulweb.at;hs.orth@noeschule.at;02212/23 95;16.7002656;48.1457689;1;NOE;0
9;NMS Ottenschlag;325052;Michael Jank-Gasse 6;3631;Ottenschlag;Österreich;http://www.hs.ottenschlag.com;hs.ottenschlag@noeschule.at;02872/7268;15.2209478;48.4220895;1;NOE;0
9;NMS Pitten;318092;Auf der Schmelz 62;2823;Pitten;Österreich;http://nms-pitten.ac.at;hs.pitten@noeschule.at;02627/85195;16.186438;47.7182357;1;NOE;0
9;NMS Pöchlarn;315082;Nibelungenstraße 5;3380;Pöchlarn;Österreich;http://hspoechlarn.ac.at/;hs.poechlarn@noeschule.at;02757/2317;15.2133068;48.2106187;1;NOE;0
9;NMS Pottendorf;306092;Johannes Heigl-Gasse 2;2486;Pottendorf;Österreich;http://www.nms-pottendorf.at/;hs.pottendorf@noeschule.at;02623/722381;16.390175;47.9049603;1;NOE;0
9;NMS Ternitz, Pottschach;318102;Pottschach, Franz Samwald-Straße 25;2630;Ternitz;Österreich;http://www.nms-pottschach.com;hs.pottschach@noeschule.at;02630/37307;16.0112493;47.7007866;1;NOE;0
9;NMS Poysdorf I;316102;Hindenburgstraße 34;2170;Poysdorf;Österreich;http://www.hspoysdorf1.ac.at;hs.poysdorf-1@noeschule.at;02552/2446;16.6325321;48.664749;1;NOE;0
9;NMS Poysdorf II;316112;Wiener Straße 5;2170;Poysdorf;Österreich;http://www.hspoysdorf-2.ac.at;hs.poysdorf-2@noeschule.at;02552/2522;16.6284202;48.6663521;1;NOE;0
9;NMS Puchberg am Schneeberg;318112;Burggasse 13;2734;Puchberg am Schneeberg;Österreich;http://www.hspuchberg.ac.at;hs.puchberg-schneeberg@noeschule.at;02636/3110;15.9141846;47.7857216;1;NOE;0
9;NMS Pulkau;310062;Retzer Weg 4;3741;Pulkau;Österreich;http://www.hspulkau.ac.at;hs.pulkau@noeschule.at;02946/2244;15.8667444;48.705109;1;NOE;0
9;NMS Purgstall an der Erlauf;320062;Schulgasse 13;3251;Purgstall an der Erlauf;Österreich;http://www.hspurgstall.ac.at;hs.purgstall@noeschule.at;07489/888012;15.1349358;48.0595161;1;NOE;0
9;NMS Purkersdorf;324102;Alois Mayer-Gasse 4;3002;Purkersdorf;Österreich;http://www.schoeffelschule.at;hs.purkersdorf@noeschule.at;02231/63601-551;16.1744461;48.2065815;1;NOE;0
9;NMS Pyhra;319112;Hauptstraße 15;3143;Pyhra;Österreich;http://hspyhra.ac.at/;hs.pyhra@noeschule.at;02745/22171;15.6861235;48.1584565;1;NOE;0
9;NMS Raabs an der Thaya;322042;Puchheimstraße 25;3820;Raabs an der Thaya;Österreich;http://hsraabs-thaya.ac.at;hs.raabs-thaya@noeschule.at;02846/325;15.490491;48.8488066;1;NOE;0
9;NMS Randegg;320072;Taborweg 2;3263;Randegg;Österreich;http://www.hsrandegg.ac.at;hs.randegg@noeschule.at;07487/6218;14.9714522;48.0121032;1;NOE;0
9;NMS Rappottenstein;325062;Nr. 10;3911;Rappottenstein;Österreich;http://www.hs.rappottenstein.at;hs.rappottenstein@noeschule.at;02828/8302;15.078792;48.520513;1;NOE;0
9;NMS Rastenfeld;313082;Nr. 88;3532;Rastenfeld;Österreich;http://school4you.schulweb.at/3532/rastenfeld;hs.rastenfeld@noeschule.at;02826/285;15.3312625;48.571919;1;NOE;0
9;NMS Retz;310082;Rupert Rockenbauer-Platz 1;2070;Retz;Österreich;http://www.hsretz.ac.at;hs.retz@noeschule.at;02942/2332;15.9556806;48.7591339;1;NOE;0
9;NMS Scheiblingkirchen - Thernberg;318132;Schulgasse 100;2831;Scheiblingkirchen;Österreich;http://hs.scheiblingkirchen.at;hs.scheiblingkirchen@noeschule.at;02629/2308;16.1322947;47.6561595;1;NOE;0
9;NMS Schwadorf;324112;Obere Umfahrungsstraße 16;2432;Schwadorf bei Wien;Österreich;http://www.ehsschwadorf.at;hs.schwadorf@noeschule.at;02230/228811;16.5796637;48.0711093;1;NOE;0
9;NMS Schwechat, Rannersdorf;324122;Europaplatz 1;2320;Schwechat;Österreich;http://www.hsschwechat-rannersdorf.ac.at;hs.schwechat-rannersdorf@noeschule.at;DION:01/7077353-11;16.4656013;48.133813;1;NOE;0
9;NMS Schweiggers;325082;Am Schulberg 5;3931;Schweiggers;Österreich;http://www.hsschweiggers.ac.at;hs.schweiggers@noeschule.at;02829/8320;15.065687;48.6683588;1;NOE;0
9;NMS Sieghartskirchen;321052;Tullner Straße 1;3443;Sieghartskirchen;Österreich;http://www.hssieghartskirchen.ac.at;hs.sieghartskirchen@noeschule.at;02274/2292;16.0103926;48.2556204;1;NOE;0
9;NMS St. Aegyd am Neuwalde;314042;Pfarrsiedlung 1;3193;St. Aegyd am Neuwalde;Österreich;http://hsstaegyd.ac.at/joomla-asn1515/;hs.staegyd@noeschule.at;02768/6101;15.5619831;47.8515282;1;NOE;0
9;NMS Stockerau - Ost;312072;Schulweg 1;2000;Stockerau;Österreich;http://www.infhs-stockerau.ac.at;hs.stockerau-ost@noeschule.at;02266/62228-11;16.2117022;48.3878919;1;NOE;0
9;NMS Stockerau - West;312082;Judithastraße 1;2000;Stockerau;Österreich;http://www.hsstockerau-west.ac.at;hs.stockerau-west@noeschule.at;02266/62248-17;16.2109161;48.3875256;1;NOE;0
9;NMS St. Pölten, Dr. Theodor Körner I;302012;Johann Gasser-Straße 7;3100;St. Pölten;Österreich;http://www.shsstpoelten.ac.at;hs.stpoelten-koerner-1@noeschule.at;02742/3231411;15.6281339;48.2004111;1;NOE;0
9;NMS St. Pölten, Dr. Theodor Körner II;302032;Johann Gasser-Straße 7;3100;St. Pölten;Österreich;http://www.musik-hs.schulweb.at;hs.stpoelten-koerner-2@noeschule.at;02742/32314-21;15.6281339;48.2004111;1;NOE;0
9;NMS St. Pölten, Dr. Theodor Körner III;302042;Hans Schickelgruber-Straße 4;3100;St. Pölten;Österreich;http://www.hs3online.com;hs.stpoelten-koerner-3@noeschule.at;02742/32314-31;15.6281557;48.200731;1;NOE;0
9;NMS St. Pölten, Dr. Theodor Körner IV;302052;Hans Schickelgruber-Straße 4;3100;St. Pölten;Österreich;http://www.hsstpoelten-koerner4.ac.at;hs.stpoelten-koerner-4@noeschule.at;02742/32314-41;15.6281557;48.200731;1;NOE;0
9;NMS St. Pölten, St. Georgen am Steinfelde;302102;Kirchengasse 1a;3151;St. Georgen am Steinfelde;Österreich;http://www.hsstpoelten-stgeorgen.ac.at/;hs.stpoelten-stgeorgen@noeschule.at;02742/32315;15.6118196;48.1389276;1;NOE;0
9;NMS St. Pölten, Viehofen;302062;Austinstraße 27;3107;St. Pölten - Traisenpark;Österreich;http://www.hsstpoelten-viehofen.ac.at;hs.stpoelten-viehofen@noeschule.at;02742/32311-31;15.6405068;48.2281684;1;NOE;0
9;NMS St. Pölten, Wagram;302072;Kudlichstraße 29;3108;St. Pölten - Wagram;Österreich;http://www.ibmswagram.at;hs.stpoelten-wagram@noeschule.at;02742/32316-31;15.650568;48.205702;1;NOE;0
9;NMS Strasshof an der Nordbahn;308172;Schulstraße 13;2231;Strasshof an der Nordbahn;Österreich;http://www.emsstrasshof.at;hs.strasshof@noeschule.at;02287/212501;16.6396799;48.315425;1;NOE;0
9;NMS St. Veit an der Gölsen;314062;Bahnstraße 3;3161;St. Veit an der Gölsen;Österreich;http://www.hsstveit-goelsen.ac.at;hs.stveit-goelsen@noeschule.at;02763/2454;15.6684163;48.0442062;1;NOE;0
9;NMS Teesdorf;306102;Schulstraße 5;2524;Teesdorf;Österreich;http://www.nms-teesdorf.at/;hs.teesdorf@noeschule.at;02253/81650/100;16.2826745;47.9496713;1;NOE;0
9;NMS Ternitz;318142;Friedrich Lichtenwörther-Gasse 1;2630;Ternitz;Österreich;http://www.hsternitz.ac.at;hs.ternitz@noeschule.at;02630/38718;16.0324938;47.7178135;1;NOE;0
9;NMS Traisen;314052;Hainfelder Straße 2;3160;Traisen;Österreich;http://www.hstraisen.ac.at/;hs.traisen@noeschule.at;02762/62397;15.6121074;48.0394109;1;NOE;0
9;NMS Traiskirchen;306112;Johann Wolfgang von Goethe-Straße 6-8;2514;Traiskirchen;Österreich;http://www.hstraiskirchen.at;hs.traiskirchen@noeschule.at;02252/52644;16.289776;48.017714;1;NOE;0
9;NMS Traismauer;319132;Bahnhofstraße 10;3133;Traismauer;Österreich;http://www.nnoems-traismauer.at/home.html;hs.traismauer@noeschule.at;02783/6333;15.7443784;48.3483835;1;NOE;0
9;NMS Marc Aurel;321072;Wiener Straße 23;3430;Tulln;Österreich;http://www.hstulln-2.ac.at;hs.tulln-2@noeschule.at;02272/62633;16.0574691;48.3321424;1;NOE;0
9;NMS Tulln;321102;Kirchengasse 32a;3430;Tulln;Österreich;http://www.isms-tulln.at;hs.tulln-sport@noeschule.at;02272/64734-10;16.0578158;48.3315505;1;NOE;0
9;NMS Vitis;322052;Zwettler Straße 5;3902;Vitis;Österreich;http://www.hsvitis.ac.at;hs.vitis@noeschule.at;02841/8250;15.18677;48.7569226;1;NOE;0
9;NMS Weitersfeld;311062;Nr. 154;2084;Weitersfeld;Österreich;http://www.hsweitersfeld.ac.at;hs.weitersfeld@noeschule.at;02948/8240;15.8103261;48.784083;1;NOE;0
9;NMS Weitra;309072;Karl-Egon-Straße 200;3970;Weitra;Österreich;http://www.hsweitra.ac.at;hs.weitra@noeschule.at;02856/2421;14.8954686;48.7038298;1;NOE;0
9;NMS Wilhelmsburg;319142;Penknergasse 3;3150;Wilhelmsburg;Österreich;http://www.hswilhelmsburg.ac.at;hs.wilhelmsburg@noeschule.at;02746/2552-11;15.6031496;48.104871;1;NOE;0
9;NMS Winzendorf - Muthmannsdorf;323112;Hauptstraße 258;2722;Winzendorf;Österreich;http://www.nms-wimu.at;hs.winzendorf-muthmannsdorf@noeschule.at;02638/22349-10;16.1122799;47.8075;1;NOE;0
9;NMS Wolkersdorf I;316132;Withalmstraße 4;2120;Wolkersdorf im Weinviertel;Österreich;http://www.sps1wolkersdorf.at;hs.wolkersdorf-1@noeschule.at;02245/2363;16.5204921;48.3817006;1;NOE;0
9;NMSWolkersdorf II;316142;Kirchenplatz 7;2120;Wolkersdorf im Weinviertel;Österreich;http://www.hswolkersdorf2.ac.at;hs.wolkersdorf-2@noeschule.at;02245 / 2677;16.5194058;48.3818819;1;NOE;0
9;NMS Wiener Neustadt, Europaallee 1;304022;Europa-Allee 1;2700;Wiener Neustadt;Österreich;http://www.nms-europaschule.at;hs.wr-neustadt-europa@noeschule.at;0676/883732370;16.2515323;47.8237598;1;NOE;0
9;NMS Wiener Neustadt, Burgplatz;304032;Burgplatz 1;2700;Wiener Neustadt;Österreich;http://www.musikhauptschule.com;hs.wr-neustadt-musik@noeschule.at;676 883 732 379;16.2457073;47.8094901;1;NOE;0
9;NMS Wiener Neustadt, Fischauergasse;304042;Fischauer Gasse 109;2700;Wiener Neustadt;Österreich;http://www.neuemittelschule-wirtschaft-technik.at;hs.wr-neustadt-west@noeschule.at;0676/883732373;16.2342759;47.8210919;1;NOE;0
9;NMS Zwettl;325092;Schulgasse 24;3910;Zwettl;Österreich;http://www.hs.zwettl.at;hs.zwettl@noeschule.at;02822/52326;15.1693207;48.6063503;1;NOE;0
9;NMS Allhartsberg;305012;Markt 50;3365;Allhartsberg;Österreich;http://www.hsallhartsberg.ac.at;nms.allhartsberg@noeschule.at;07448/3896;14.7932229;48.0265724;1;NOE;0
9;NMS Ardagger;305042;Am Weinberg 1;3321;Ardagger Stift;Österreich;http://www.hsardagger.ac.at;nms.ardagger@noeschule.at;07479/7364;14.8411453;48.1706061;1;NOE;0
9;NMS Aschbach-Markt;305052;Schulstraße 2;3361;Aschbach-Markt;Österreich;http://www.hauptschule-aschbach.at/;nms.aschbach-markt@noeschule.at;07476/7733011;14.7507216;48.0712011;1;NOE;0
9;NMS Ertl;305062;Schulstraße 1;3355;Ertl;Österreich;http://www.hsertl.ac.at/joomla/;nms.ertl@noeschule.at;07477/7319-40;14.6303459;47.9788;1;NOE;0
9;NMS Haidershofen;305222;Nr. 100;4431;Haidershofen;Österreich;http://hshaidershofen.ac.at;nms.haidershofen@noeschule.at;07252/37849;14.4602122;48.0774112;1;NOE;0
9;NMS Neustadtl an der Donau;305102;Feldgasse 5;3323;Neustadtl an der Donau;Österreich;http://www.hsneustadtl.ac.at;nms.neustadtl@noeschule.at;07471/7003;14.9069909;48.1932418;1;NOE;0
9;NMS Schrems;309062;Stadtpark 1;3943;Schrems;Österreich;http://www.hsschrems.ac.at;nms.schrems@noeschule.at;02853/77350;15.064488;48.7905491;1;NOE;0
9;NMS Seitenstetten;305142;Amstettner Straße 29;3353;Seitenstetten;Österreich;http://www.hsseitenstetten.ac.at/;nms.seitenstetten@noeschule.at;07477/42359;14.6591163;48.0394978;1;NOE;0
9;NMS Sonntagberg;305112;Schulstraße 9;3332;Rosenau, Sonntagberg;Österreich;http://www.hsrosenau.ac.at;nms.sonntagberg-rosenau@noeschule.at;07448/2303;14.737064;48.0046333;1;NOE;0
9;NMS St. Peter in der Au, Ramingtal;305262;Ramingtal 30;4442;Kleinraming;Österreich;http://nmsramingtal.ac.at/;nms.stpeter-au-ramingtal@noeschule.at;07252/30155;14.4914015;48.007856;1;NOE;0
9;NMS St. Peter in der Au;305122;Vogelhändlerplatz 4;3352;St. Peter in der Au;Österreich;http://www.hauptschule.at.hm;nms.stpeter-au@noeschule.at;07477/44000-40;14.6203876;48.0452386;1;NOE;0
9;NMS Strengberg;305252;Schulplatz 5;3314;Strengberg;Österreich;http://hsstrengberg.comteam.at;nms.strengberg@noeschule.at;07432/2336-1;14.6494149;48.1435882;1;NOE;0
9;NMS St. Valentin, Langenhart;305232;Schulstraße 1;4300;St. Valentin;Österreich;http://www.hsstvalentin-2.ac.at;nms.stvalentin-langenhart@noeschule.at;07435/53590;14.5121561;48.1688424;1;NOE;0
9;NMS St. Valentin, Schubertviertel, Interessens- und Begabungsorientierte Mittelschule;305132;Schubertviertel 50;4300;St. Valentin;Österreich;http://www.schulen.eduhi.at/hs1shs-st.valentin/deutsch.htm;nms.stvalentin-schubertviertel@noeschule.at;07435/52439;14.5265773;48.1734442;1;NOE;0
9;NMS Wallsee-Sindelburg;305172;St. Severinstraße 17;3313;Wallsee;Österreich;http://www.hswallsee.ac.at;nms.wallsee-sindelburg@noeschule.at;07433/2708;14.7158654;48.1631591;1;NOE;0
9;NMS Wolfsbach;305182;Schulstraße 2;3354;Wolfsbach;Österreich;http://hs-wolfsbach.schulweb.at;nms.wolfsbach@noeschule.at;07477/8274;14.670443;48.0769873;1;NOE;0
9;NMS Ybbsitz;305192;Maisbergstraße 13;3341;Ybbsitz;Österreich;http://www.hsybbsitz.ac.at/;nms.ybbsitz@noeschule.at;07443/86240;14.8914118;47.9463433;1;NOE;0
9;Private HS Lanzenkirchen, Frohsdorf des Institutes Sta.Christiana;323132;Frohsdorf 28;2821;Lanzenkirchen;Österreich;http://www.stachristiana.at;phs.lanzenkirchen-frohsdorf@noeschule.at;02627/45235-13;16.2542096;47.7403248;1;NOE;0
9;NMS des Institutes Sacre Coeur Pressbaum;324142;Klostergasse 12;3021;Pressbaum;Österreich;http://scp.ac.at/;phs.pressbaum@noeschule.at;02233/52427-675;16.0818497;48.1854255;1;NOE;0
9;Private HS Rosenau - Sonntagberg der Kongregation der Schwestern vom göttlichen Erlöser;305212;Gleiss, Waidhofner Straße 22;3332;Rosenau, Sonntagberg;Österreich;http://www.phsgleiss.ac.at;phs.rosenau-sonntagberg@noeschule.at;07448/2316-14;14.746704;48.0144402;1;NOE;0
9;Private HS Wiener Neustadt des Schulvereines Institut Sta. Christiana;304052;Wiener Straße 65;2700;Wiener Neustadt;Österreich;http://www.stachristiana.at;phs.wr-neustadt@noeschule.at;02622/22387-12;16.2448637;47.8196217;1;NOE;0
9;Private HS Zwettl des Trägervereines der Franziskanerinnen Amstetten;325102;Klosterstraße 10;3910;Zwettl;Österreich;http://www.phszwettl.ac.at;phs.zwettl@noeschule.at;02822/52318-15;15.1699414;48.6079497;1;NOE;0
9;Private Neue Mittelschule Wolfpassing;320112;Wolfpassing 1;3261;Steinakirchen;Österreich;http://www.pvs-wolfpassing.at/wir/mittelschule.php;pnms.wolfpassing@noeschule.at;0699-16161687;15.065379;48.0781163;1;NOE;0
11;PS Mödling;317014;Dr. Hanns Schürff-Gasse 51;2340;Mödling;Österreich;http://www.pts-moedling.at/;317014@noeschule.at;02236/24673-20;16.2903021;48.0899101;1;NOE;0
11;PS Amstetten;305014;Siedlungsstraße 2;3300;Amstetten;Österreich;http://www.ptsamstetten.ac.at;pts.amstetten@noeschule.at;07472/68464;14.8693555;48.1202684;1;NOE;0
11;PS Baden;306024;Hildegardgasse 8;2500;Baden;Österreich;http://www.polybaden.at;pts.baden@noeschule.at;02252/46310;16.2388043;48.006055;1;NOE;0
11;PS Bruck an der Leitha;307064;Stefaniegasse 5;2460;Bruck an der Leitha;Österreich;http://pts-bruckleitha.at/;pts.bruck-leitha@noeschule.at;02162/63831;16.7802506;48.025942;1;NOE;0
11;PS Gänserndorf;308024;Kirchenplatz 9;2230;Gänserndorf;Österreich;http://www.ptsgaenserndorf.ac.at;pts.gaenserndorf@noeschule.at;02282/25 82;16.7207332;48.3427886;1;NOE;0
11;PS Gmünd;309054;Otto Glöckel-Straße 4;3950;Gmünd;Österreich;http://www.ptsgmuend.ac.at;pts.gmuend@noeschule.at;02852/52342;14.9793809;48.7664221;1;NOE;0
11;PS Groß-Enzersdorf;308104;Schießstattring 2;2301;Groß-Enzersdorf;Österreich;http://www.pts-grossenzersdorf.ac.at;pts.gross-enzersdorf@noeschule.at;02249/23 95;16.5519801;48.199677;1;NOE;0
11;PS Groß Gerungs;325074;Griesbach 46;3920;Groß Gerungs;Österreich;http://www.ptsgrossgerungs.ac.at;pts.gross-gerungs@noeschule.at;02813/461;14.9478616;48.5256777;1;NOE;0
11;PS Herzogenburg;319044;Schillerring 19;3130;Herzogenburg;Österreich;http://www.ptsherzogenburg.ac.at;pts.herzogenburg@noeschule.at;02782/84071;15.6912846;48.2863776;1;NOE;0
11;PS Himberg;324074;Erberpromenade 29;2325;Himberg;Österreich;http://www.poly-himberg.at;pts.himberg@noeschule.at;02235-87914;16.4369751;48.0810357;1;NOE;0
11;PS Hollabrunn;310014;Kornhergasse 1;2020;Hollabrunn;Österreich;http://www.ptshollabrunn.ac.at;pts.hollabrunn@noeschule.at;02952/2572;16.077651;48.5601659;1;NOE;0
11;PS Horn;311014;Ferdinand-Kurz-Gasse 26;3580;Horn;Österreich;http://www.ptshorn.ac.at;pts.horn@noeschule.at;02982/30058;15.6560222;48.6717357;1;NOE;0
11;PS Kirchberg an der Pielach;319074;Schulgasse 6;3204;Kirchberg an der Pielach;Österreich;http://www.ptskirchberg-pielach.ac.at;pts.kirchberg-pielach@noeschule.at;02722/7349;15.4318274;48.0262535;1;NOE;0
11;PS Korneuburg;312034;Windmühlgasse 1;2100;Korneuburg;Österreich;http://www.polykorneuburg.at;pts.korneuburg@noeschule.at;02262/72982;16.3367401;48.3463989;1;NOE;0
11;PS Kottingbrunn;306054;Renngasse 18;2542;Kottingbrunn;Österreich;http://www.ptskottingbrunn.at;pts.kottingbrunn@noeschule.at;02252/76334;16.2299041;47.9496927;1;NOE;0
11;PS Krems an der Donau;301014;Edmund-Hofbauer-Straße 9;3500;Krems an der Donau;Österreich;http://www.ptskrems.ac.at;pts.krems@noeschule.at;02732/73920;15.6008609;48.4076162;1;NOE;0
11;PS Laa an der Thaya;316034;Burgplatz 3;2136;Laa an der Thaya;Österreich;http://www.pts-laa.at/;pts.laa-thaya@noeschule.at;6 641 045 506;16.3867627;48.723995;1;NOE;0
11;PS Mank Melk;315014;Schulstraße 7;3240;Mank;Österreich;http://www.poly-mank-melk.at;pts.mank@noeschule.at;02755/2424;15.3419642;48.1098219;1;NOE;0
11;PS Mistelbach;316084;Conrad Hötzendorf-Platz 2;2130;Mistelbach;Österreich;http://www.pts-mistelbach.at;pts.mistelbach@noeschule.at;02572/32238-11;16.5700907;48.5677522;1;NOE;0
11;PS Münichreith - Laimbach;315134;Nr. 102;3663;Laimbach am Ostrong;Österreich;http://www.ptslaimbach.ac.at;pts.muenichreith-laimbach@noeschule.at;02758/5251;15.1235265;48.3173433;1;NOE;0
11;PS Neulengbach;319014;Marktfeldstraße 310;3040;Neulengbach;Österreich;http://www.ptsneulengbach.ac.at;pts.neulengbach@noeschule.at;02772/53902;15.9040119;48.1997787;1;NOE;0
11;PS Pottenstein;306044;Hainfelder Straße 24;2563;Pottenstein;Österreich;http://www.poly-pottenstein.at;pts.pottenstein@noeschule.at;02672/87275-21;16.094294;47.9611222;1;NOE;0
11;PS Scheibbs;320104;Gürtel 13;3270;Scheibbs;Österreich;http://www.polyscheibbs.at;pts.scheibbs@noeschule.at;07482/43134;15.1685598;48.0065094;1;NOE;0
11;PS Stockerau;312014;Judithastraße 3;2000;Stockerau;Österreich;http://www.polystockerau.ac.at;pts.stockerau@noeschule.at;02266/63942;16.2117022;48.3878919;1;NOE;0
11;PS St. Peter in der Au;305084;Vogelhändlerplatz 4;3352;St. Peter in der Au;Österreich;http://www.ptsstpeter-au.ac.at;pts.stpeter-au@noeschule.at;07477/44000-30;14.6203876;48.0452386;1;NOE;0
11;PS St. Pölten;302014;Hans-Schickelgruber-Straße 7;3100;St. Pölten;Österreich;http://www.ptsstpoelten.ac.at;pts.stpoelten@noeschule.at;02742 32 314-50;15.6293317;48.2010722;1;NOE;0
11;PS St. Valentin;305074;Schubertviertel 50;4300;St. Valentin;Österreich;http://www.ptsstvalentin.ac.at;pts.stvalentin@noeschule.at;07435/52987;14.5265773;48.1734442;1;NOE;0
11;PS Ternitz;318024;Forstnerweg 10;2630;Ternitz;Österreich;http://www.pts.ternitz.at;pts.ternitz@noeschule.at;02630/38179;16.0319362;47.718047;1;NOE;0
11;PS Tulln;321014;Michael - Schwanzer - Weg 12;3430;Tulln;Österreich;http://www.ptstulln.ac.at;pts.tulln@noeschule.at;02272/62694;16.060209;48.3287584;1;NOE;0
11;PS Waidhofen an der Thaya;322034;Gymnasiumstraße 4;3830;Waidhofen an der Thaya;Österreich;http://www.ptswaidhofen-thaya.ac.at;pts.waidhofen-thaya@noeschule.at;02842-52447;15.2841428;48.8129455;1;NOE;0
11;PS Waidhofen an der Ybbs;303014;Pocksteinerstr. 27a;3340;Waidhofen an der Ybbs;Österreich;http://www.polyeisenstrasse.at;pts.waidhofen-ybbs@noeschule.at;07442/53220-561;14.7774194;47.9569102;1;NOE;0
11;PS Wolkersdorf im Weinviertel;316094;Obersdorf, Hauptstraße 54;2120;Wolkersdorf im Weinviertel;Österreich;http://www.pts-wolkersdorf.at;pts.wolkersdorf@noeschule.at;02245/83577;16.523462;48.3704308;1;NOE;0
11;PS Wiener Neustadt;304014;Burgplatz 1;2700;Wiener Neustadt;Österreich;http://www.poly-wienerneustadt.at;pts.wr-neustadt@noeschule.at;0676/883732366;16.2457073;47.8094901;1;NOE;0
11;PS Zistersdorf;308054;Grillparzergasse 1A;2225;Zistersdorf;Österreich;http://www.tszistersdorf.ac.at;pts.zistersdorf@noeschule.at;02532/83 34;16.754167;48.5444257;1;NOE;0
11;PS Zwettl;325054;Gerungser Straße 32;3910;Zwettl;Österreich;http://www.poly.zwettl.at;pts.zwettl@noeschule.at;02822/53511;15.1595203;48.6032372;1;NOE;0
8;Dorfschule Montessorihaus  d. Vereins Spielräume;322271;Klein Eberharts 31;3830;Waidhofen an der Thaya;Österreich; ; ;02842/5396;15.2940933;48.8302572;1;NOE;0
8;VS Poysdorf;316431;Wiener Straße 3;2170;Poysdorf;Österreich;http://www.vspoysdorf.ac.at;316431@noeschule.at;02552/2580;16.6283854;48.6668091;1;NOE;0
8;VS Achau;317011;Schulweg 1;2481;Achau;Österreich;http://www.vsachau.ac.at;317011@noeschule.at;02236/722 20;16.3873716;48.07977;1;NOE;0
8;VS Biedermannsdorf;317021;Schulweg 5;2362;Biedermannsdorf;Österreich;http://www.vsbiedermannsdorf.ac.at;317021@noeschule.at;02236/71331;16.3445493;48.0816046;1;NOE;0
8;VS Breitenfurt bei Wien;317031;Schulgasse 1;2384;Breitenfurt bei Wien;Österreich;http://www.vsbreitenfurt.ac.at;317031@noeschule.at;02239/4201;16.194974;48.1321284;1;NOE;0
8;VS Gaaden;317051;Schulgasse 1;2531;Gaaden bei Mödling;Österreich;http://www.vsgaaden.ac.at;317051@noeschule.at;02237/833 3;16.206009;48.0535481;1;NOE;0
8;VS Guntramsdorf, Hauptstraße;317081;Hauptstraße 35;2353;Guntramsdorf;Österreich;http://www.vsguntramsdorf-hauptstr.ac.at;317081@noeschule.at;02236/ 506 0 13-141;16.3117492;48.049316;1;NOE;0
8;VS Mödling, Babenbergergasse;317161;Babenbergergasse 18-20;2340;Mödling;Österreich;http://www.vsmoedling-babenberger.ac.at;317161@noeschule.at;02236/22114-30;16.2853476;48.0835762;1;NOE;0
8;VS Perchtoldsdorf, Sebastian Kneipp-Gasse;317251;Sebastian Kneipp-Gasse 20-26;2380;Perchtoldsdorf;Österreich;http://www.vsperchtoldsdorf.ac.at;317251@noeschule.at;01/869 23 10;16.2601461;48.120494;1;NOE;0
8;VS Gerasdorf bei Wien;324041;Schulgasse 10;2201;Gerasdorf bei Wien;Österreich;http://www.volksschule-gerasdorf.at;324041@noeschule.at;02246/3960;16.4586304;48.2969464;1;NOE;0
8;VS Klosterneuburg, Kierling;324081;Hauptstraße 150 - 152;3400;Klosterneuburg - Kierling;Österreich;http://www.vsklosterneuburg-kierling.ac.at;324081@noeschule.at;02243/444320;16.2734326;48.3092396;1;NOE;0
8;VS Klosterneuburg, Albrechtstraße;324101;Albrechtstraße 59;3400;Klosterneuburg;Österreich;http://www.vsklosterneuburg-albrecht.ac.at;324101@noeschule.at;02243/444321;16.319662;48.3104601;1;NOE;0
8;VS Klosterneuburg, Hermannstraße;324121;Hermannstraße 11;3400;Klosterneuburg;Österreich;http://www.vsklosterneuburg-hermann.ac.at;324121@noeschule.at;02243/444318;16.3234666;48.3036158;1;NOE;0
8;VS Klosterneuburg, Kritzendorf;324131;Hauptstraße 63;3420;Klosterneuburg - Kritzendorf;Österreich;http://www.vskritzendorf.ac.at;324131@noeschule.at;02243/444319;16.3006697;48.3280352;1;NOE;0
8;VS II Schwechat;324251;Ehrenbrunngasse 8;2320;Schwechat;Österreich;http://www.vs-schwechat.at;324251@noeschule.at;01/7071963;16.4785805;48.1394784;1;NOE;0
8;VS Klosterneuburg, Weidling;324271;Löblichgasse 1;3400;Klosterneuburg - Weidling;Österreich;http://www.vsweidling.ac.at;324271@noeschule.at;02243/444-316;16.3093652;48.2911385;1;NOE;0
8;PVS Kritzendorf des Schulverbundes SSND;324301;Hauptstraße 22;3420;Klosterneuburg - Kritzendorf;Österreich;http://www.pvskritzendorf.ac.at;324301@noeschule.at;02243/24878;16.3033538;48.3263097;1;NOE;0
8;Privatschule School4kids;306541;Rollettgasse 2;2500;Baden;Österreich;http://www.iap.or.at/;iap.schulbuero@gmail.com;0676-9061829;16.2291035;48.0071848;1;NOE;0
8;Privatschule Haus der Sonne;317341;Badener Straße 11;2352;Gumpoldskirchen;Österreich;http://www.haus-der-sonne.at;info@haus-der-sonne.at;0650 / 71 00 637;16.2764722;48.0441535;1;NOE;0
8;Ganzheitliche Schule für individuelles Lernen;319411;Hauptstraße 16;3200;Ober-Grafendorf;Österreich;http://www.privatschulefil.at;leitung@privatschulefil.at;0699/11883578;15.5470255;48.1499054;1;NOE;0
8;Privatschule MOKIWE-Schule;317351;Liechtensteinstraße 25;2345;Brunn am Gebirge;Österreich;http://www.mokiwe.at/;office@mokiwe.at;0676 76 45 109;16.2793625;48.1044303;1;NOE;0
8;Privatschule Ich bin Ich Heiligeneich;321371;Wiener Landstraße 5;3452;Heiligeneich;Österreich;http://www.ichbinich.org/;privatschule.heiligeneich@noeschule.at;0699/10183644;15.8944518;48.299266;1;NOE;0
8;Privatschule für ganzheitliches Lernen nach Maria Montessor’;324351;Aufeldgasse 27A;3400;Klosterneuburg;Österreich;http://www.galemo.at;ps.klosterneuburg-galemo@noeschule.at;02243/21947;16.3351678;48.2976289;1;NOE;0
8;PVS Krems der Hochschulstiftung der Erzdiözese Wien;301071;Dr. Gschmeidler-Straße 22-30;3500;Krems an der Donau;Österreich;http://pvs.krems.kphvie.ac.at/;pvs-krems@kphvie.ac.at;02732/83591;15.6178991;48.4097606;1;NOE;0
8;PVS Amstetten ;305581;Rathausstraße 16;3300;Amstetten;Österreich;http://www.pvsamstetten.ac.at;pvs.amstetten@noeschule.at;07472/62577-49;14.8684913;48.1227024;1;NOE;0
8;Mostviertler Montessorischule Aschbach-Markt;305631;Gunnersdorf 5;3361;Aschbach-Markt;Österreich;http://www.mostviertler-montessorischule.at/;pvs.aschbach@noeschule.at;07476/77824;14.7795042;48.0739194;1;NOE;0
8;PVS Badener Regenbogen;306501;Trostgasse 17;2500;Baden;Österreich;http://www.regenbogenschule.at/;pvs.baden-vanicek@noeschule.at;02252/42300;16.2395907;48.0128806;1;NOE;0
8;Schulzentrum für ganzheitliches Lernen von der 1.-9. Schulstufe;306491;Schlossstraße 34;2551;Enzesfeld;Österreich;http://www.szgl.at/;pvs.enzesfeld@noeschule.at;02256/824713;16.1792037;47.9210363;1;NOE;0
8;PVS Schule für ganzheitliches Lernen Korneuburg;312261;Dammstraße 9;2100;Korneuburg;Österreich;http://www.schulele.at;pvs.korneuburg@noeschule.at;02262/71908;16.3295233;48.3398602;1;NOE;0
8;Mary Ward PVS Krems, ;301081;Hoher Markt 1;3500;Krems an der Donau;Österreich;http://www.pvskrems.ac.at;pvs.krems@noeschule.at;02732/82249/31;15.6018991;48.4128819;1;NOE;0
8;Freiraum-Schule, Kritzendorf;324311;Herzogenburgergasse 13;3420;Klosterneuburg - Kritzendorf;Österreich;http://www.freiraumschule.at;pvs.kritzendorf-freiraum-schule@noeschule.at;02243/22960;16.2912013;48.3427468;1;NOE;0
8;PVS Lanzenkirchen, Frohsdorf des Institutes Sta. Christiana;323491;Frohsdorf 28;2821;Lanzenkirchen;Österreich;http://www.stachristiana.at;pvs.lanzenkirchen-frohsdorf@noeschule.at;02627/45235-12;16.2542096;47.7403248;1;NOE;0
8;Niederhofschule des Vereins Lebensraum Niederhof Lilienfeld;314241;Zögersbachstraße 26;3180;Lilienfeld;Österreich;http://www.niederhof.org;pvs.lilienfeld@noeschule.at;02762/5509933;15.545628;47.9933357;1;NOE;0
8;PVS Mailberg;310391;Nr. 17;2024;Mailberg;Österreich; ;pvs.mailberg@noeschule.at;02943/30070;16.1828232;48.6722878;1;NOE;0
8;PVS Maria Enzersdorf der Erzdiözese Wien;317261;Gießhübler Straße 41;2344;Maria Enzersdorf;Österreich;http://www.sme.ac.at;pvs.maria-enzersdorf@noeschule.at;02236/26122;16.2692515;48.0988115;1;NOE;0
8;VS Erlebnisschule des Evangelischen Schulwerks A.B. Wien;317321;Grenzgasse 111, Objekt 9/3;2340;Mödling;Österreich;http://www.erlebnisschule.net;pvs.moedling-erlebnisschule@noeschule.at;02236 /205 8 11;16.2993177;48.0945589;1;NOE;0
8;PVS des gemeinnützigen Vereins Libo-Montessori-Schule;317331;Barmhartstalweg 13;2344;Maria Enzersdorf;Österreich; ;pvs.moedling-libo-montessori@noeschule.at;0664/3325314;16.2639799;48.103489;1;NOE;0
8;PVS Lernwerkstatt im Wasserschloss;302181;Josef Trauttmannsdorf-Straße 10;3140;Pottenbrunn;Österreich;http://www.lernwerkstatt.at/;pvs.pottenbrunn@noeschule.at;02742/43550;15.6963458;48.2391885;1;NOE;0
8;PVS Pressbaum des Institutes Sacre Coeur d. Erzdiözese Wien;324321;Klostergasse 12;3021;Pressbaum;Österreich;http://www.sacre-coeur.org;pvs.pressbaum@noeschule.at;02233/52427-482;16.0818497;48.1854255;1;NOE;0
8;Privatschule Schule am Orthof des Montessori Vereins;318541;Speckbacherstrasse 1;2673;Breitenstein;Österreich;http://www.schule-am-orthof.blogspot.com;pvs.rax-payerbach@noeschule.at;0664/73652554;15.7919832;47.6635548;1;NOE;0
8;PVS Rosenau - Sonntagberg der Kongregation der Schwestern vom göttlichen Erlöser;305591;Gleiss, Waidhofner Straße 22;3332;Rosenau, Sonntagberg;Österreich;http://www.pvsgleiss.ac.at;pvs.rosenau-sonntagberg@noeschule.at;07448/231618;14.746704;48.0144402;1;NOE;0
8;Rudolf Steiner Landschule Schönau - Freie Waldschule;306481;Kirchengasse 22;2525;Schönau an der Triesting;Österreich;http://www.waldorf-schoenau.at;pvs.schoenau@noeschule.at;02256/62181;16.2523866;47.9387071;1;NOE;0
8;Privatschule KreaMont Kreativer Lernen nach Maria Motessori;321361;Greifensteiner Straße 31;3423;St. Andrä - Wördern;Österreich;http://www.kreamont.at;pvs.standrae-woerdern@noeschule.at;02242/31060;16.2108271;48.3237569;1;NOE;0
8;PVS International School St. Pölten;302201;Dr. Karl Renner Promenade 8;3100;St. Pölten;Österreich;http://www.international-school.at;pvs.stpoelten-international-school@noeschule.at;0676/9600093;15.6238287;48.2019125;1;NOE;0
8;PVS des Vereins Integratives Montessori Atelier;302191;Herzogenburgerstr. 68;3100;St. Pölten;Österreich;http://www.ima-montessori-schule.at;pvs.stpoelten-montessori-atelier@noeschule.at;02742/21618;15.6363596;48.2137266;1;NOE;0
8;MARY WARD  PrivatVS;302111;Schneckgasse 3;3100;St. Pölten;Österreich;http://www.pvsenglischefraeulein.at;pvs.stpoelten@noeschule.at;02742/355285;15.6233433;48.2025654;1;NOE;0
8;PVS Wolfpassing;320261;Wolfpassing 1;3261;Steinakirchen;Österreich;http://www.pvs-wolfpassing.at;pvs.wolfpassing@noeschule.at;748 871 202;15.065379;48.0781163;1;NOE;0
8;PVS Wiener Neustadt des Institutes Sta. Christiana;304111;Wiener Straße 65;2700;Wiener Neustadt;Österreich;http://www.wiener-neustadt.at/schulen/;pvs.wr-neustadt-sta-christiana@noeschule.at;02622/22387-16;16.2448637;47.8196217;1;NOE;0
8;Privatschule Montessorischule;306521;Kaiser Franz Josef Ring 1;2500;Baden;Österreich;http://www.montessori-in-baden.at;pvs.zak-baden@noeschule.at;6 645 711 722;16.2395098;48.0039206;1;NOE;0
8;PVS Zwettl;325601;Klosterstraße 10;3910;Zwettl;Österreich;http://www.pvszwettl.ac.at;pvs.zwettl@noeschule.at;02822/52318-31;15.1699414;48.6079497;1;NOE;0
8;PraxisVS der Pädagogischen Hochschule für Niederösterreich;306471;Mühlgasse 67;2500;Baden;Österreich;http://praxisvs.ph-noe.ac.at;uevs.baden@noeschule.at;02252/88570-141;16.2551941;48.0092623;1;NOE;0
8;UNITAS - Lernwerkstatt;304141;Zulingergasse 6;2700;Wr. Neustadt;Österreich;http://www.unitas.at/;unitas.lernwerkstatt.wr.neustadt@noeschule.at;0650/3712447;16.2301074;47.8064111;1;NOE;0
8;VS Absdorf;321011;Schulstraße 1;3462;Absdorf;Österreich;http://www.vsabsdorf.ac.at;vs.absdorf@noeschule.at;02278/2477;15.982143;48.3999004;1;NOE;0
8;VS Aggsbach;313011;Nr. 12;3641;Aggsbach Markt;Österreich;http://vsaggsbach-markt.ac.at/;vs.aggsbach-markt@noeschule.at;02712/512;15.4015994;48.2941782;1;NOE;0
8;VS Alberndorf im Pulkautal;310011;Schulgasse 129;2054;Alberndorf im Pulkautal;Österreich;http://vsalberndorf.schulweb.at/;vs.alberndorf-pulkautal@noeschule.at;02944/27722;16.0990118;48.7030213;1;NOE;0
8;VS Albrechtsberg an der Großen Krems;313021;Nr. 62;3613;Albrechtsberg an der Großen Krems;Österreich;http://vs-albrechtsberg.schulweb.at/;vs.albrechtsberg@noeschule.at;02876/317;15.3688596;48.4621011;1;NOE;0
8;VS Alland;306011;Heiligenkreuzer Straße 151;2534;Alland;Österreich;http://www.vs-alland.at/;vs.alland@noeschule.at;02258/2407;16.0829139;48.0582536;1;NOE;0
8;VS Allentsteig;325011;Schulstraße 1;3804;Allentsteig;Österreich;http://www.allentsteig.gv.at/;vs.allentsteig@noeschule.at;02824/2232;15.3236629;48.6983873;1;NOE;0
8;VS Allhartsberg;305011;Markt 50;3365;Allhartsberg;Österreich;http://www.vsfarbengarten.at;vs.allhartsberg@noeschule.at;07448/3895;14.7932229;48.0265724;1;NOE;0
8;VS Altenburg;311011;Pflieglerstraße 13;3591;Altenburg;Österreich;http://www.vsaltenburg.ac.at;vs.altenburg@noeschule.at;02982/35685;15.5905425;48.6470935;1;NOE;0
8;VS Altenmarkt an der Triesting;306021;Hainfelder Straße 12;2571;Altenmarkt an der Triesting;Österreich; ;vs.altenmarkt-triesting@noeschule.at;02673/2733;16.0185535;48.0046687;1;NOE;0
8;VS Altlengbach;319011;Schulgasse 3;3033;Altlengbach;Österreich;http://www.vsaltlengbach.ac.at;vs.altlengbach@noeschule.at;02774/2372;15.93023;48.15184;1;NOE;0
8;VS Altlichtenwarth;316011;Hauptstraße 430;2144;Altlichtenwarth;Österreich;http://www.altlichtenwarth.at/;vs.altlichtenwarth@noeschule.at;02533/801109;16.7994518;48.6446699;1;NOE;0
8;VS Altmelon;325021;Nr. 49;3925;Altmelon;Österreich;http://vsaltmelon.jimdo.com/;vs.altmelon@noeschule.at;02813/328;14.9658963;48.4607366;1;NOE;0
8;VS Brand - Nagelberg, Altnagelberg;309011;Hauptstraße 82;3871;Altnagelberg;Österreich;http://www.brand-nagelberg.at/main.php?menue=gemeinde&volksschule;vs.altnagelberg@noeschule.at;02859/7216;14.9943988;48.839481;1;NOE;0
8;VS Pölla, Altpölla;325031;Nr. 50;3593;Altpölla;Österreich;http://vsaltpoella.jimdo.com/;vs.altpoella@noeschule.at;02988/6361;15.302084;48.873326;1;NOE;0
8;VS Amaliendorf - Aalfang;309021;Hauptstraße 159;3872;Amaliendorf;Österreich;http://www.vsamaliendorf-aalfang.ac.at;vs.amaliendorf-aalfang@noeschule.at;02862/53498;15.0902464;48.8312742;1;NOE;0
8;VS Amstetten, Allersdorferstraße;305031;Allersdorfer Straße 1;3300;Amstetten;Österreich;http://www.vsamstetten-allersdorf.ac.at;vs.amstetten-allersdorferstrasse@noeschule.at;07472/68512;14.8689741;48.1098521;1;NOE;0
8;VS Amstetten, Elsa Brandström-Straße;305621;Elsa Brandström-Straße 5;3300;Amstetten;Österreich;http://www.vsamstetten-brandstroemstrasse.ac.at;vs.amstetten-brandstroemstrasse@noeschule.at;07472/61630;14.8643954;48.1289494;1;NOE;0
8;VS Amstetten, Preinsbacherstraße;305021;Preinsbacher Straße 17;3300;Amstetten;Österreich;http://www.vsamstetten-preinsbacherstrasse.ac.at;vs.amstetten-preinsbacherstrasse@noeschule.at;07472/62227;14.8763297;48.1246465;1;NOE;0
8;VS Angern an der March;308011;Schulgasse 2;2261;Angern an der March;Österreich;http://www.vsangern.ac.at/;vs.angern@noeschule.at;02283/28 00;16.8287519;48.3780623;1;NOE;0
8;VS Annaberg;314011;Annarotte 10;3222;Annaberg;Österreich;http://www.vs-annaberg.salzburg.at/;vs.annaberg@noeschule.at;02728/8470;15.3772025;47.8716704;1;NOE;0
8;VS Arbesbach;325041;Nr. 152;3925;Arbesbach;Österreich;http://www.vsarbesbach.ac.at;vs.arbesbach@noeschule.at;02813/7224;14.9553311;48.4922214;1;NOE;0
8;VS Ardagger;305041;Am Weinberg 1;3321;Ardagger Stift;Österreich;http://vsardagger.ac.at/;vs.ardagger@noeschule.at;07479/7316;14.8411453;48.1706061;1;NOE;0
8;VS Artstetten - Pöbring;315031;Schulstr. 1;3661;Artstetten;Österreich;http://www.artstetten.at/index.php/de/schule-a-bildung/volksschule;vs.artstetten-poebring@noeschule.at;07413/8520;15.2073831;48.2408401;1;NOE;0
8;VS Aschbach-Markt;305061;Schulstraße 2;3361;Aschbach-Markt;Österreich;http://www.volksschule-aschbach.at;vs.aschbach-markt@noeschule.at;07476/773303;14.7507216;48.0712011;1;NOE;0
8;VS Asparn an der Zaya;316041;Schulgasse 10;2151;Asparn an der Zaya;Österreich;http://www.asparn.at/system/web/gelbeseite.aspx?detailonr=217397714;vs.asparn-zaya@noeschule.at;02577/8205;16.493945;48.58756;1;NOE;0
8;VS Asperhofen;319021;Kirchenplatz 5;3041;Asperhofen;Österreich;http://www.vsasperhofen.at/;vs.asperhofen@noeschule.at;02772/58264;15.9254141;48.2443055;1;NOE;0
8;VS Atzenbrugg;321131;St. Pöltner Straße 10;3452;Atzenbrugg;Österreich;http://www.vsatzenbrugg.ac.at;vs.atzenbrugg-heiligeneich@noeschule.at;02275/5390;15.8923042;48.2982243;1;NOE;0
8;VS Au am Leithaberge;307011;Hauptplatz 6;2451;Au am Leithaberge;Österreich;http://www.au-leithaberge.gv.at/;vs.au-leithaberge@noeschule.at;02168/8235;16.5571001;47.925546;1;NOE;0
8;VS Auersthal;308021;Schulring 18;2214;Auersthal;Österreich;http://vsauersthal.schulweb.at;vs.auersthal@noeschule.at;02288/23 01;16.6379637;48.3744744;1;NOE;0
8;VS Bad Traunstein;325551;Schulgasse 4;3632;Bad Traunstein;Österreich;http://www.traunstein.gv.at;vs.bad-traunstein@noeschule.at;02878/6705;15.1149104;48.4360565;1;NOE;0
8;VS Bad Deutsch-Altenburg;307021;Neustiftgasse 23;2405;Bad Deutsch-Altenburg;Österreich;http://www.vsbaddeutschaltenburg.ac.at;vs.baddeutsch-altenburg@noeschule.at;02165/64073;16.9078783;48.1330315;1;NOE;0
8;VS I Baden;306031;Pfarrplatz 1-3;2500;Baden;Österreich;http://www.vs2-baden.at;vs.baden-1@noeschule.at;02252/209226;16.2358248;48.0097592;1;NOE;0
8;VS II Baden;306041;Pfarrplatz 1-3;2500;Baden;Österreich;http://www.vs2-baden.at;vs.baden-2@noeschule.at;02252/209226;16.2358248;48.0097592;1;NOE;0
8;VS Baden, Radetzkystraße;306051;Radetzkystraße 14;2500;Baden;Österreich;http://www.vsbaden-radetzkystrasse.ac.at/;vs.baden-radetzkystrasse@noeschule.at;02252/86800-630;16.2182976;48.002005;1;NOE;0
8;VS Baden, Uetzgasse;306061;Uetzgasse 12;2500;Baden;Österreich;http://www.vs-uetzgasse.at;vs.baden-uetzgasse@noeschule.at;02252/86800-640;16.2346612;48.0011628;1;NOE;0
8;VS Bad Fischau - Brunn;323021;Schulgasse 2;2721;Bad Fischau;Österreich;http://www.vsbadfischau.ac.at;vs.badfischau-brunn@noeschule.at;02639/2400;16.1637185;47.8300374;1;NOE;0
8;VS Bad Großpertholz;309121;Nr. 180;3972;Bad Großpertholz;Österreich;http://www.vsbad-grosspertholz.ac.at;vs.badgrosspertholz@noeschule.at;02857/2338;14.8207253;48.6285709;1;NOE;0
8;VS Bad Pirawarth;308031;Kirchengasse 6;2222;Bad Pirawarth;Österreich;http://vs-bad-pirawarth.schulweb.at/;vs.badpirawarth@noeschule.at;02574/37 75;16.5991628;48.4550772;1;NOE;0
8;VS Bad Schönau;323031;Hauptstraße 28;2853;Bad Schönau;Österreich;http://www.vsbadschoenau.ac.at;vs.badschoenau@noeschule.at;02646/8445;16.2349783;47.4937313;1;NOE;0
8;VS Bad Vöslau, Gainfarn;306151;Hauptstraße 54-56;2541;Bad Vöslau;Österreich;http://www.vsgainfarn.ac.at;vs.badvoeslau-gainfarn@noeschule.at;02252/70465;16.1952514;47.9632198;1;NOE;0
8;VS Bad Vöslau;306071;Raulestraße 6;2540;Bad Vöslau;Österreich;http://www.vsbadvoeslau.ac.at;vs.badvoeslau@noeschule.at;02252/71970;16.2163508;47.9697092;1;NOE;0
8;VS Bärnkopf;325051;Nr. 2;3665;Bärnkopf;Österreich;http://www.school4you.at/3665/vs-baernkopf/;vs.baernkopf@noeschule.at;02874/8205;15.0063183;48.3908239;1;NOE;0
8;VS Behamberg;305071;Nr. 38;4441;Behamberg;Österreich;http://www.vsbehamberg.ac.at;vs.behamberg@noeschule.at;07252/32003-11;14.4965414;48.0346552;1;NOE;0
8;VS Bergern im Dunkelsteinerwald;313561;Nr. 45;3512;Unterbergern;Österreich;http://vs-bergern.schulweb.at/;vs.bergern@noeschule.at;02714/7230;15.5476358;48.3764366;1;NOE;0
8;VS I Berndorf;306081;Margaretenplatz 5;2560;Berndorf;Österreich;http://www.vsberndorf.at/;vs.berndorf-1@noeschule.at;0676 / 84 8225 362;16.1023169;47.9427581;1;NOE;0
8;VS II Berndorf;306091;Margaretenplatz 5;2560;Berndorf;Österreich; ;vs.berndorf-2@noeschule.at;0676/84 8225 362;16.1023169;47.9427581;1;NOE;0
8;VS Berndorf, St. Veit;306101;St. Veit, Hauptplatz 2;2560;Berndorf;Österreich; ;vs.berndorf-stveit@noeschule.at;0676/84 8225-364;16.1559143;47.9393892;1;NOE;0
8;VS Bernhardsthal;316051;Schulstraße 19;2275;Bernhardsthal;Österreich;http://www.bernhardsthal.gv.at/;vs.bernhardsthal@noeschule.at;02557/8824;16.8696996;48.6929434;1;NOE;0
8;VS Biberbach;305081;Im Ort 8;3353;Biberbach;Österreich;http://www.biberbach.de/html/user_de_VolksschuleBiberbach.html;vs.biberbach@noeschule.at;07476/8218;14.7089331;48.0288096;1;NOE;0
8;VS Bisamberg;312011;Hauptstraße 30;2102;Bisamberg;Österreich;http://www.vs-bisamberg.at/;vs.bisamberg@noeschule.at;02262/62 080;16.3809474;48.348429;1;NOE;0
8;VS Bischofstetten;315041;Kirchenplatz 5;3232;Bischofstetten;Österreich;http://vskilb.ac.at/;vs.bischofstetten@noeschule.at;02748/8250;15.4709105;48.1236793;1;NOE;0
8;VS Blindenmarkt;315051;Lindenstraße 18;3372;Blindenmarkt;Österreich;http://www.vsblindenmarkt.at;vs.blindenmarkt@noeschule.at;07473/2373;14.9906585;48.1266814;1;NOE;0
8;VS Bockfließ;316061;Hauptstraße 56;2213;Bockfließ;Österreich;http://www.bockfliess.com/volksschule/;vs.bockfliess@noeschule.at;02288/6525;16.6035926;48.359712;1;NOE;0
8;VS Böheimkirchen;319031;Am Berg 4;3071;Böheimkirchen;Österreich;http://www.vsboeheimkirchen.ac.at;vs.boeheimkirchen@noeschule.at;02743/2404-11;15.7614425;48.1971843;1;NOE;0
8;VS Sonntagberg, Böhlerwerk;305091;Waidhofner Straße 42;3333;Böhlerwerk;Österreich;http://www.vsboehlerwerk.ac.at/;vs.boehlerwerk@noeschule.at;07442/62770;14.7490129;47.9849492;1;NOE;0
8;VS Brand - Laaben;319041;Nr. 66;3053;Laaben;Österreich;http://www.vsbrand-laaben.ac.at;vs.brand-laaben@noeschule.at;02774/8350;15.8812906;48.107931;1;NOE;0
8;VS Breitenau am Steinfelde;318011;Kirchenplatz 9;2624;Breitenau am Steinfelde;Österreich;http://www.school4you.at/2624/vsbreitenau;vs.breitenau@noeschule.at;02635/63253;16.1397024;47.73317;1;NOE;0
8;VS Bromberg;323041;Hauptstraße 14;2833;Bromberg;Österreich;http://www.vsbromberg.ac.at/;vs.bromberg@noeschule.at;02629/8261;16.2079135;47.6664087;1;NOE;0
8;VS Bruck an der Leitha, Fischamender Straße;307031;Fischamender Straße 48;2460;Bruck an der Leitha;Österreich;http://www.vsbruckf.at/;vs.bruck-leitha-fischamenderstrasse@noeschule.at;02162/62347;16.7704079;48.0314256;1;NOE;0
8;VS Bruck an der Leitha, Hauptplatz;307041;Hauptplatz 8;2460;Bruck an der Leitha;Österreich;http://www.vsbruck-leitha-hauptplatz.ac.at;vs.bruck-leitha-hauptplatz@noeschule.at;02162/62569;16.778312;48.0261086;1;NOE;0
8;VS Brunn am Gebirge;317041;Wiener Straße 23;2345;Brunn am Gebirge;Österreich;http://www.vsbrunn-gebirge.ac.at/;vs.brunn-gebirge@noeschule.at;02236/32960;16.2856995;48.107491;1;NOE;0
8;VS Brunn an der Wild;311021;Schulstraße 2;3595;Brunn an der Wild;Österreich;http://www.brunn-wild.gv.at/;vs.brunn-wild@noeschule.at;02989/2210;15.5198766;48.6936922;1;NOE;0
8;VS Burgschleinitz - Kühnring, Reinprechtspölla;311191;Nr. 65;3713;Reinprechtspölla;Österreich;http://vs311191.jimdo.com/;vs.burgschleinitz-kuehnring@noeschule.at;02984/8256;15.7579803;48.6120426;1;NOE;0
8;VS Deutsch-Wagram;308041;Schulallee 11;2232;Deutsch-Wagram;Österreich;http://www.vsdeutsch-wagram.ac.at;vs.deutsch-wagram@noeschule.at;02247/24 90;16.560346;48.2975187;1;NOE;0
8;VS Dietmanns;322041;Hauptstraße 92;3813;Dietmanns;Österreich;http://www.vsdietmanns.ac.at;vs.dietmanns@noeschule.at;02847/4666;15.3811125;48.7934965;1;NOE;0
8;VS Dobersberg;322051;Schulstraße 8;3843;Dobersberg;Österreich;http://www.vsdobersberg.ac.at;vs.dobersberg@noeschule.at;02843/2448;15.3196968;48.9135041;1;NOE;0
8;VS Dorfstetten;315071;Forstamt 8;4392;Dorfstetten;Österreich;http://www.dorfstetten.at/gemeinde/gde-schule.html;vs.dorfstetten@noeschule.at;07260/8209;14.9826421;48.3261089;1;NOE;0
8;VS Drasenhofen;316071;Nr. 178;2165;Drasenhofen;Österreich;http://www.vsdrasenhofen.schulweb.at/;vs.drasenhofen@noeschule.at;02554/6382;16.6481863;48.7547085;1;NOE;0
8;VS Drösing;308051;Schulgasse 2;2265;Drösing;Österreich;http://www.vsdroesing.schulweb.at/;vs.droesing@noeschule.at;02536/72 86;16.9030659;48.5404226;1;NOE;0
8;VS Drosendorf - Zissersdorf;311051;Horner Straße 24;2095;Drosendorf;Österreich;http://vsdrosendorf.jimdo.com/;vs.drosendorf-zissersdorf@noeschule.at;02915/2300;15.6222067;48.8647157;1;NOE;0
8;VS Droß;313071;Kirchenplatz 82;3552;Droß;Österreich;http://www.dross.gv.at/system/web/zusatzseite.aspx?detailonr=221384601;vs.dross@noeschule.at;02719/2282;15.5733651;48.4650433;1;NOE;0
8;VS Dürnkrut;308061;Hauptstraße 8;2263;Dürnkrut;Österreich; ;vs.duernkrut@noeschule.at;02538/80 740;15.5733651;48.4650433;1;NOE;0
8;VS Dürnstein;313081;Nr. 1;3601;Dürnstein;Österreich;http://duernstein.jimdo.com/;vs.duernstein@noeschule.at;02711/202;15.5195005;48.3955332;1;NOE;0
8;VS Ebenfurth;323051;Hauptstraße 1;2490;Ebenfurth;Österreich;http://vs-ebenfurth.schulweb.at;vs.ebenfurth@noeschule.at;02624/52696;16.3686703;47.8783897;1;NOE;0
8;VS Ebenthal;308071;Am Schulplatz 1;2251;Ebenthal;Österreich;http://www.vsebenthal.ac.at/;vs.ebenthal@noeschule.at;02538/8570 05;16.7929666;48.4378945;1;NOE;0
8;VS Ebergassing;324011;Himberger Straße 3;2435;Ebergassing;Österreich;http://ebergassing.deltatown.to;vs.ebergassing@noeschule.at;02234/73421;16.5176899;48.0461517;1;NOE;0
8;VS Ebreichsdorf;306431;Schulgasse 2;2483;Ebreichsdorf;Österreich;http://vsebreichsdorf.schulweb.at;vs.ebreichsdorf@noeschule.at;02254/72528;16.4049106;47.9628859;1;NOE;0
8;Schulwerkstatt Ebreichsdorf;306531;Wienerstrasse 25a;2483;Ebreichsdorf;Österreich;http://www.schul-werkstatt.at/;vs.ebreichsdorf2@noeschule.at;0664/2346148;16.401527;47.9670416;1;NOE;0
8;VS Echsenbach;325071;Kirchenberg 2;3903;Echsenbach;Österreich;http://www.echsenbach.gv.at/;vs.echsenbach@noeschule.at;02849/8242;15.2180352;48.7205476;1;NOE;0
8;VS Edlitz;318031;Markt 12;2842;Edlitz;Österreich;http://www.edlitz.at/;vs.edlitz@noeschule.at;02644/7245;16.1404308;47.5981726;1;NOE;0
8;VS Eggenburg;311061;Mozartstraße 12;3730;Eggenburg;Österreich;http://www.vseggenburg.ac.at;vs.eggenburg@noeschule.at;02984/3511;15.8153028;48.6477111;1;NOE;0
8;VS Hollabrunn, Eggendorf im Thale;310041;Nr. 15;2031;Eggendorf im Thale;Österreich;http://www.hollabrunn.gv.at/;vs.eggendorf-thale@noeschule.at;02953/8340;16.17098;48.5833195;1;NOE;0
8;VS Eggendorf;323061;Hauptstraße 72;2492;Eggendorf;Österreich;http://www.vseggendorf.ac.at;vs.eggendorf@noeschule.at;02622/73237;16.3173373;47.8559967;1;NOE;0
8;VS Eggern;309051;Litschauer Straße 8;3861;Eggern;Österreich;http://www.vseggern.ac.at;vs.eggern@noeschule.at;02863/298;15.1456703;48.908784;1;NOE;0
8;VS Eichgraben;319051;Hauptstraße 44;3032;Eichgraben;Österreich;http://www.vs-eichgraben.at/;vs.eichgraben@noeschule.at;02773/42460;15.986174;48.1742051;1;NOE;0
8;Privatschule Neue Schule Eichgraben;319091;Klostergasse 8;3032;Eichgraben;Österreich;http://www.neueschule.at;vs.eichgraben@noeschule.at;02773/46133;15.977977;48.1833764;1;NOE;0
8;VS Eisgarn;309071;Nr. 100;3862;Eisgarn;Österreich;http://www.markteisgarn.at/;vs.eisgarn@noeschule.at;02863/212;15.0818662;48.9199492;1;NOE;0
8;VS Emmersdorf an der Donau;315541;Schulgasse 1;3644;Emmersdorf an der Donau;Österreich;http://www.vsemmersdorf.ac.at;vs.emmersdorf@noeschule.at;02752/71410;15.335106;48.2429746;1;NOE;0
8;VS Engelhartstetten;308081;Untere Hauptstraße 16;2292;Engelhartstetten;Österreich;http://www.vsengelhartstetten.at/;vs.engelhartstetten@noeschule.at;02214/23 51;16.8833427;48.1819142;1;NOE;0
8;VS Ennsdorf;305611;Ziegelgasse 4b;4482;Ennsdorf;Österreich;http://vsennsdorf.ac.at;vs.ennsdorf@noeschule.at;07223/82860;14.4941351;48.2081338;1;NOE;0
8;VS Enzenreith, Wörth;318491;Wörth 18;2640;Enzenreith;Österreich;http://www.gemeinde-enzenreith.at/;vs.enzenreith-woerth@noeschule.at;02662/42430;16.170678;47.717898;1;NOE;0
8;VS Enzersdorf an der Fischa;307051;Schlossstraße 4;2431;Enzersdorf an der Fischa;Österreich;http://vs-enzersdorf-fischa.at/;vs.enzersdorf@noeschule.at;02230/867920;16.6050563;48.0838516;1;NOE;0
8;VS Enzersfeld;312021;Schulgasse 30;2202;Enzersfeld;Österreich;http://www.vs-enzesfeld-lindabrunn.at/;vs.enzersfeld@noeschule.at;02262/67 31 67;16.4286615;48.3574998;1;NOE;0
8;VS Enzesfeld - Lindabrunn;306131;Schulgasse 2;2551;Enzesfeld - Lindabrunn;Österreich;http://www.vs-enzesfeld-lindabrunn.at;vs.enzesfeld-lindabrunn@noeschule.at;02256/81090;16.1844767;47.9207027;1;NOE;0
8;VS Erlach;323071;Hauptstraße 13;2822;Bad Erlach;Österreich;http://www.vserlach.ac.at/;vs.erlach@noeschule.at;02627/48320;16.2169092;47.7272028;1;NOE;0
8;VS Erlauf;315091;Schulstraße 17;3253;Erlauf;Österreich;http://www.friedensgemeinde.at/;vs.erlauf@noeschule.at;02757/6279;15.1835942;48.1855615;1;NOE;0
8;VS Ernstbrunn;312031;Laaer Straße 1;2115;Ernstbrunn;Österreich;http://vs-ernstbrunn.jimdo.com/;vs.ernstbrunn@noeschule.at;02576/2460-30;16.3601785;48.5292365;1;NOE;0
8;VS Ernsthofen;305111;Hauptstraße 19;4432;Ernsthofen;Österreich;http://www.ernsthofen.gv.at/content.php?pageId=3824;vs.ernsthofen@noeschule.at;07435/8450-22;14.4828262;48.1266698;1;NOE;0
8;VS Ertl;305121;Schulstraße 1;3355;Ertl;Österreich;http://www.vsertl.ac.at;vs.ertl@noeschule.at;07477/731920;14.6303459;47.9788;1;NOE;0
8;VS Eschenau;314021;Schulgasse 3;3153;Eschenau;Österreich;http://vseschenau.ac.at/;vs.eschenau@noeschule.at;02762/67225;15.5660882;48.0489988;1;NOE;0
8;VS Grafenegg, Etsdorf;313131;Hauptstraße 31;3492;Etsdorf am Kamp;Österreich;http://www.vs-etsdorf.schulweb.at/;vs.etsdorf@noeschule.at;02735/2592;15.7415681;48.4443864;1;NOE;0
8;VS Groß Gerungs, Etzen;325081;Etzen 22;3920;Groß Gerungs;Österreich; ;vs.etzen@noeschule.at;02812/8319;15.0365896;48.5584051;1;NOE;0
8;VS Euratsfeld;305131;Hauptstraße 8;3324;Euratsfeld;Österreich;http://www.vseuratsfeld.ac.at/;vs.euratsfeld@noeschule.at;07474/6585;14.9312424;48.0837916;1;NOE;0
8;VS Kasten bei Böheimkirchen, Fahrafeld;319061;Nr. 32;3071;Fahrafeld bei Kasten;Österreich;http://www.gde-kasten.at/;vs.fahrafeld@noeschule.at;02744/5618;15.747929;48.142179;1;NOE;0
8;VS Fallbach, Hagenberg;316191;Hagenberg 75;2133;Loosdorf;Österreich;http://vsfallbach-hagenberg.schulweb.at/;vs.fallbach-hagenberg@noeschule.at;02524/8597;16.4503466;48.6343618;1;NOE;0
8;VS Feistritz am Wechsel;318041;Nr. 125;2873;Feistritz am Wechsel;Österreich;http://www.feistritz-wechsel.gv.at/;vs.feistritz-wechsel@noeschule.at;02641/2167;16.0699733;47.6157477;1;NOE;0
8;VS Felixdorf;323081;Siedlergasse 6;2603;Felixdorf;Österreich;http://vs-felixdorf.schulweb.at;vs.felixdorf@noeschule.at;02628/62666;16.2394268;47.8790704;1;NOE;0
8;VS Fels am Wagram;321061;Schulplatz 1;3481;Fels am Wagram;Österreich;http://www.vsfels-wagram.ac.at;vs.fels-wagram@noeschule.at;02738/2340;15.8196576;48.4400801;1;NOE;0
8;VS Ferschnitz;305141;Schulstraße 7;3325;Ferschnitz;Österreich;http://www.vsferschnitz.ac.at;vs.ferschnitz@noeschule.at;07473/8387;14.9837704;48.0936814;1;NOE;0
8;VS Fischamend;324021;Springholzgasse 4;2401;Fischamend;Österreich;http://www.vs-fischamend.at;vs.fischamend@noeschule.at;02232/76376;16.6135604;48.1135832;1;NOE;0
8;VS Frankenfels;319071;Markt 13;3213;Frankenfels;Österreich; ;vs.frankenfels@noeschule.at;02725/295;15.3235405;47.9812803;1;NOE;0
8;VS Furth bei Göttweig;313161;Kirchengasse 51;3511;Furth bei Göttweig;Österreich;http://www.vsfurth.ac.at/;vs.furth-goettweig@noeschule.at;02732/84606;15.6123678;48.3740114;1;NOE;0
8;VS Furth an der Triesting;306141;Nr. 2;2564;Furth an der Triesting;Österreich;http://www.furth-triesting.at/;vs.furth@noeschule.at;02674/88290;15.9520699;47.96441;1;NOE;0
8;VS Gablitz;324031;Ferdinand Ebner-Gasse 6;3003;Gablitz;Österreich;http://www.vsgablitz.ac.at/;vs.gablitz@noeschule.at;02231/63882;16.152813;48.2286842;1;NOE;0
8;VS Gänserndorf;308091;Siebenbrunnerstraße 7;2230;Gänserndorf;Österreich;http://www.volksschule.gaenserndorf.at;vs.gaenserndorf@noeschule.at;02282/60536-10;16.719451;48.3356153;1;NOE;0
8;VS Gaming;320021;Schleierfallstraße 6;3292;Gaming;Österreich;http://www.gaming.gv.at/;vs.gaming@noeschule.at;07485/97335;15.0939675;47.9250086;1;NOE;0
8;VS Dunkelsteinerwald, Gansbach;315101;Marktplatz 15;3122;Gansbach;Österreich;http://www.vsgansbach.ac.at;vs.gansbach@noeschule.at;02753/364;15.4720108;48.3065085;1;NOE;0
8;VS Gars am Kamp;311091;Spitalgasse 500;3571;Gars am Kamp;Österreich;http://www.ktv-gars.at/vs-gars;vs.gars-kamp@noeschule.at;02985/2292;15.6703577;48.5962458;1;NOE;0
8;VS Gastern;322081;Hauptstraße 4;3852;Gastern;Österreich;http://www.vsgastern.ac.at;vs.gastern@noeschule.at;02864/2323;15.2224107;48.8931166;1;NOE;0
8;VS Gaubitsch;316531;Nr. 125;2154;Gaubitsch;Österreich;http://www.vsgaubitsch.ac.at/;vs.gaubitsch@noeschule.at;02522/88501;16.3796919;48.6574775;1;NOE;0
8;VS Gaweinstal;316131;Schulstraße 4;2191;Gaweinstal;Österreich;http://www.schoolweb.vsgaweinstal.at;vs.gaweinstal@noeschule.at;257 429 400;16.5850656;48.4792185;1;NOE;0
8;VS Gedersdorf;313041;Schulsiedlung 1;3494;Brunn im Felde;Österreich;http://www.vsgedersdorf.at;vs.gedersdorf@noeschule.at;4 327 358 870;15.7007147;48.4243431;1;NOE;0
8;VS Traismauer, Gemeinlebarn;319081;Schulstraße 7;3133;Gemeinlebarn;Österreich; ;vs.gemeinlebarn@noeschule.at;02276/2315;15.802879;48.3410641;1;NOE;0
8;VS Geras;311101;Hauptstraße 15;2093;Geras;Österreich;http://www.vsgeras.ac.at;vs.geras@noeschule.at;02912/249;15.6775282;48.7968318;1;NOE;0
8;VS Gerersdorf;319631;Florianiplatz 1;3385;Gerersdorf;Österreich;http://www.vs-gerersdorf.at/;vs.gerersdorf@noeschule.at;02749/2602;15.5542657;48.1992677;1;NOE;0
8;VS Dunkelsteinerwald, Gerolding;315111;Dorfplatz 1;3392;Gerolding;Österreich;http://www.vsgerolding.at;vs.gerolding@noeschule.at;02752/8649;15.4227441;48.2514501;1;NOE;0
8;VS Inzersdorf - Getzersdorf, Getzersdorf;319101;Schulgasse 2;3131;Getzersdorf;Österreich;http://www.inzersdorf-getzersdorf.at/;vs.getzersdorf@noeschule.at;02782/82751;15.6942123;48.3285327;1;NOE;0
8;VS Gföhl;313181;Ernest Thum-Straße 4;3542;Gföhl;Österreich;http://vsgfoehl.ac.at/;vs.gfoehl@noeschule.at;02716/6388;15.4916148;48.5159425;1;NOE;0
8;VS Gloggnitz;318051;Schulgasse 1;2640;Gloggnitz;Österreich;http://www.vs-gloggnitz;vs.gloggnitz@noeschule.at;02662/42297;15.9342337;47.6748065;1;NOE;0
8;VS I Gmünd;309091;Volksheimgasse 4;3950;Gmünd;Österreich;http://vsgmuend1.ac.at;vs.gmuend-1@noeschule.at;02852/52465;14.9870958;48.7673315;1;NOE;0
8;VS II Gmünd;309101;Dr. Karl Renner-Straße 33;3950;Gmünd;Österreich;http://www.volksschule2.gmuend.at/;vs.gmuend-2@noeschule.at;02852/52455;14.970946;48.758597;1;NOE;0
8;VS Gnadendorf;316141;Nr. 106;2152;Gnadendorf;Österreich;http://www.vsgnadendorf.ac.at/;vs.gnadendorf@noeschule.at;02525/253;16.398529;48.6147373;1;NOE;0
8;VS Göllersdorf;310081;Schulgasse 405;2013;Göllersdorf;Österreich;http://www.vsgoellersdorf.ac.at;vs.goellersdorf@noeschule.at;02954/2391;16.1233544;48.4909;1;NOE;0
8;VS Göpfritz an der Wild;325111;Hauptstraße 48;3800;Göpfritz an der Wild;Österreich;http://www.vsgoepfritz-wild.ac.at;vs.goepfritz-wild@noeschule.at;02825/8241;15.4046284;48.7246518;1;NOE;0
8;VS Göstling an der Ybbs;320031;Nr. 12;3345;Göstling an der Ybbs;Österreich;http://www.vsgoestling.ac.at;vs.goestling@noeschule.at;07484/2227;14.9311978;47.8078755;1;NOE;0
8;VS Göttlesbrunn - Arbesthal;307061;Schulgasse 43;2464;Göttlesbrunn;Österreich;http://www.goettlesbrunn-arbesthal.gv.at/;vs.goettlesbrunn-arbesthal@noeschule.at;02162/8264;16.7417543;48.056261;1;NOE;0
8;VS Götzendorf an der Leitha;307071;Dr. Heidrichgasse 2;2434;Götzendorf an der Leitha;Österreich;http://vs-goetzendorf-leitha.at/;vs.goetzendorf@noeschule.at;02169/2661;16.5797513;48.0131399;1;NOE;0
8;VS Golling an der Erlauf;315121;Schulstraße 2;3381;Golling an der Erlauf;Österreich;http://www.vsgolling.ac.at;vs.golling@noeschule.at;02757/2635;15.1814662;48.2053152;1;NOE;0
8;VS Grabern;310091;Nr. 99;2020;Schöngrabern/Mittergrabern;Österreich;http://vsgrabern.ac.at/;vs.grabern@noeschule.at;02951/2282;16.0591064;48.6027523;1;NOE;0
8;VS Grafenschlag;325121;Nr. 100;3912;Grafenschlag;Österreich;http://www.vsgrafenschlag.ac.at/joomla/;vs.grafenschlag@noeschule.at;02875/8227;15.1642025;48.5003673;1;NOE;0
8;VS Grafenwörth;321091;Seebarner Straße 1;3484;Grafenwörth;Österreich;http://www.vsgrafenwoerth.ac.at;vs.grafenwoerth@noeschule.at;02738/2479;15.7813287;48.4098645;1;NOE;0
8;VS Gramatneusiedl;324051;Wiener Straße 2a;2440;Gramatneusiedl;Österreich;http://vsgramatneusiedl.ac.at;vs.gramatneusiedl@noeschule.at;02234/73303;16.4885098;48.0302364;1;NOE;0
8;VS Gresten;320041;Schulstraße 16;3264;Gresten;Österreich;http://vsgresten.jimdo.com/;vs.gresten@noeschule.at;07487/2279;15.0257272;47.9861109;1;NOE;0
8;VS Grimmenstein;318071;Schulgasse 1;2840;Grimmenstein;Österreich;http://www.grimmenstein.gv.at/;vs.grimmenstein@noeschule.at;02644/7272;16.1256747;47.6171808;1;NOE;0
8;VS Groß-Enzersdorf;308101;Kaiser Franz Josef-Straße 8;2301;Groß-Enzersdorf;Österreich;http://www.vsgrossenzersdorf.ac.at;vs.gross-enzersdorf@noeschule.at;02249/25 85;16.5468217;48.1992008;1;NOE;0
8;VS Groß Gerungs;325151;Arbesbacher Straße 67;3920;Groß Gerungs;Österreich;http://vsgrossgerungs.ac.at;vs.gross-gerungs@noeschule.at;02812/8363;14.957586;48.572505;1;NOE;0
8;VS Großschönau;309141;Harmannsteiner Straße 120;3922;Großschönau;Österreich;http://www.vsgross-schoenau.ac.at/;vs.gross-schoenau@noeschule.at;02815/6237;14.9398829;48.6528404;1;NOE;0
8;VS Groß-Schweinbarth;308121;Kirchenplatz 1;2221;Groß-Schweinbarth;Österreich;http://www.gross-schweinbarth.at/;vs.gross-schweinbarth@noeschule.at;02289/27019;16.6317956;48.4148296;1;NOE;0
8;VS Groß-Siegharts;322101;Schulgasse 1;3812;Groß-Siegharts;Österreich;http://www.vsgrosssiegharts.ac.at;vs.gross-siegharts@noeschule.at;02847/2437-11;15.4065642;48.7906476;1;NOE;0
8;VS Großdietmanns;309041;Hörmannser Straße 21;3950;Dietmanns;Österreich;http://www.vsgrossdietmanns.ac.at;vs.grossdietmanns@noeschule.at;02852/8217;14.9509219;48.7454836;1;NOE;0
8;VS Großebersdorf;316151;Am Sandgraben 1;2203;Großebersdorf;Österreich;http://www.grossebersdorf.at/;vs.grossebersdorf@noeschule.at;02245/3511;16.4712011;48.3626846;1;NOE;0
8;VS Groß-Engersdorf;316161;Bahngasse 14;2212;Groß-Engersdorf;Österreich; ;vs.grossengersdorf@noeschule.at;02245/88180;16.5689084;48.3557347;1;NOE;0
8;VS Großgöttfritz;325171;Nr. 60;3913;Großgöttfritz;Österreich;http://www.vs.grossgoettfritz.at/;vs.grossgoettfritz@noeschule.at;02875/8361;15.1889359;48.5397144;1;NOE;0
8;VS Großharras;316171;Nr. 52;2034;Großharras;Österreich;http://www.vsgrossharras.ac.at;vs.grossharras@noeschule.at;02526/7364;16.2445827;48.6600454;1;NOE;0
8;VS Großkrut;316181;Schulstraße 5;2143;Großkrut;Österreich;http://www.grosskrut.at/;vs.grosskrut@noeschule.at;02556/7264;16.7219776;48.6427753;1;NOE;0
8;VS Großmugl;312041;Kirchenplatz 135;2002;Großmugl;Österreich;http://vsgrossmugl.jimdo.com/;vs.grossmugl@noeschule.at;02268/6648;16.2309736;48.4991195;1;NOE;0
8;VS Großrußbach;312051;Schlossbergstraße 9;2114;Großrußbach;Österreich;http://www.vsgrossrussbach.ac.at/;vs.grossrussbach@noeschule.at;02263/6732;16.4207441;48.4753174;1;NOE;0
8;VS Großweikersdorf;321121;Dr. Johann Baumgartner-Straße 1;3701;Großweikersdorf;Österreich;http://www.vsgrossweikersdorf.ac.at;vs.grossweikersdorf@noeschule.at;02955/70266;15.9867019;48.4742996;1;NOE;0
8;VS Grünbach am Schneeberg;318081;Schulgasse 12;2733;Grünbach am Schneeberg;Österreich;http://volksschule.gruenbach.com/;vs.gruenbach-schneeberg@noeschule.at;02637/2269-10;15.9846788;47.7978233;1;NOE;0
8;VS Gumpoldskirchen;317071;Schulgasse 21;2352;Gumpoldskirchen;Österreich;http://www.vsgumpoldskirchen.ac.at;vs.gumpoldskirchen@noeschule.at;02252/62 9 75;16.2807077;48.0459101;1;NOE;0
8;VS Guntersdorf;310121;Schüttkastenweg 1;2042;Guntersdorf;Österreich;http://www.guntersdorf.at/;vs.guntersdorf@noeschule.at;0676/846422477;16.0460649;48.6474784;1;NOE;0
8;VS Guntramsdorf, Dr. Karl Renner-Straße;317091;Dr. Karl Renner-Straße 27;2353;Guntramsdorf;Österreich;http://www.vsguntramsdorf-rennerstr.ac.at/;vs.guntramsdorf-rennerstrasse@noeschule.at;02236/473 50;16.3212083;48.0628489;1;NOE;0
8;VS Gutenbrunn;325201;Jägerzeile 120;3665;Gutenbrunn;Österreich;http://nmsmartinsberg.jimdo.com/vs-gutenbrunn/informationen/;vs.gutenbrunn@noeschule.at;02874/7390;15.1195572;48.3666827;1;NOE;0
8;VS Gutenstein;323111;Markt 94;2770;Gutenstein;Österreich;http://www.vsgutenstein.ac.at;vs.gutenstein@noeschule.at;02634/7265;15.8868056;47.8751786;1;NOE;0
8;VS Haag;305431;Wiener Straße 2;3350;Haag;Österreich;http://www.vshaag.ac.at;vs.haag@noeschule.at;07434/43959;14.5679492;48.1110935;1;NOE;0
8;VS Hadersdorf - Kammern;313221;Landsknechtplatz 2;3493;Hadersdorf am Kamp;Österreich;http://www.hadersdorf-kammern.at/;vs.hadersdorf-kammern@noeschule.at;02735/5749-20;15.7192645;48.4579959;1;NOE;0
8;VS Hadres;310131;Nr. 2;2061;Hadres;Österreich;http://vshadres.ac.at/;vs.hadres@noeschule.at;02943/2479;16.1344257;48.7110366;1;NOE;0
8;VS Hafnerbach;319151;Museumstraße 43;3385;Hafnerbach;Österreich;http://www.hafnerbach.gv.at/;vs.hafnerbach@noeschule.at;02749/2212;15.4861643;48.2165328;1;NOE;0
8;VS Hagenbrunn;312061;Salzstraße 12;2102;Hagenbrunn;Österreich;http://www.vshagenbrunn.ac.at;vs.hagenbrunn@noeschule.at;02262/67 27 71;16.4089867;48.3339093;1;NOE;0
8;VS Haidershofen, Vestenthal;305171;Vestenthal 35;4431;Haidershofen;Österreich;http://www.vsvestenthal.ac.at;vs.haidershofen-vestenthal@noeschule.at;07434/42816;14.516629;48.0770895;1;NOE;0
8;VS Haidershofen;305161;Nr. 5;4431;Haidershofen;Österreich;http://www.vshaidershofen.ac.at;vs.haidershofen@noeschule.at;07252/37831;14.4589267;48.0765871;1;NOE;0
8;VS Hainburg an der Donau;307081;Alte Poststraße 24;2410;Hainburg an der Donau;Österreich;http://www.volksschule-hainburg.at/;vs.hainburg@noeschule.at;02165/62547;16.942255;48.1463033;1;NOE;0
8;VS Hainfeld;314041;Kirchengasse 10;3170;Hainfeld;Österreich;http://www.vshainfeld.ac.at;vs.hainfeld@noeschule.at;02764/2353 1;15.769657;48.0350292;1;NOE;0
8;VS Grafenegg, Haitzendorf;313231;Haitzendorf, Kirchenplatz 11;3485;Grafenegg;Österreich;http://vs-haitzendorf.schulweb.at/;vs.haitzendorf@noeschule.at;02735/5214;15.7398595;48.4236273;1;NOE;0
8;VS Hardegg;310261;Nr. 84;2083;Pleissing;Österreich;http://www.hardegg.gv.at/;vs.hardegg-pleissing@noeschule.at;02948/8450-33;15.865717;48.646129;1;NOE;0
8;VS Haringsee;308131;Hauptstraße 3;2286;Haringsee;Österreich;http://www.vsharingsee.ac.at/;vs.haringsee@noeschule.at;02214/84130;16.785028;48.1934073;1;NOE;0
8;VS Harmannsdorf;312071;Bahnstraße 1;2111;Harmannsdorf;Österreich;http://www.asn-noe.ac.at/schulen/vsharmannsdorf/;vs.harmannsdorf@noeschule.at;02264/6424;16.3751636;48.3909496;1;NOE;0
8;VS Haslau - Maria Ellend;307101;Bahnstraße 8;2402;Haslau;Österreich;http://www.vshaslau-mariaellend.ac.at;vs.haslau-maria-ellend@noeschule.at;02232/80220;16.7138278;48.1151477;1;NOE;0
8;VS Haugschlag;309181;Nr. 39;3874;Haugschlag;Österreich; ;vs.haugschlag@noeschule.at;02865/8202;15.0596773;48.9987098;1;NOE;0
8;VS Haugsdorf;310141;Auggenthal 156;2054;Haugsdorf;Österreich;http://www.vshaugsdorf.ac.at;vs.haugsdorf@noeschule.at;02944/2257;16.068861;48.7063452;1;NOE;0
8;VS Haunoldstein;319161;Schulstraße 1;3384;Groß Sierning;Österreich;http://www.haunoldstein.at/;vs.haunoldstein@noeschule.at;02749/2677;15.4600774;48.194475;1;NOE;0
8;VS Hausbrunn;316221;Hauptstraße 22;2145;Hausbrunn;Österreich; ;vs.hausbrunn@noeschule.at;02533/801690;16.8278608;48.6288098;1;NOE;0
8;VS Hauskirchen;308151;Schulgasse 106;2184;Hauskirchen;Österreich;http://www.hauskirchen.gv.at/;vs.hauskirchen@noeschule.at;02533/82 11;16.7610962;48.612102;1;NOE;0
8;VS Hausleiten;312081;Schulgasse 2;3464;Hausleiten;Österreich;http://www.vshausleiten.ac.at;vs.hausleiten@noeschule.at;02265/7402-11;16.0937119;48.3969459;1;NOE;0
8;VS Amstetten, Hausmening;305461;Hausmening, Josef Hiebl-Straße 12;3363;Ulmerfeld - Hausmening - Neufurth;Österreich;http://www.vs-hausmening.at/;vs.hausmening@noeschule.at;07475/52202;14.8180551;48.0783465;1;NOE;0
8;VS Heidenreichstein;309191;Schulgasse 2;3860;Heidenreichstein;Österreich;http://www.vsheidenreichstein.ac.at/;vs.heidenreichstein@noeschule.at;02862/52236;15.1219866;48.8660466;1;NOE;0
8;VS Heiligenkreuz;306191;Nr. 50;2532;Heiligenkreuz;Österreich;http://www.heiligenkreuz.at;vs.heiligenkreuz@noeschule.at;02258/8730;16.129758;48.056834;1;NOE;0
8;VS Hernstein, Grillenberg;306161;Schulgasse 6;2560;Grillenberg;Österreich;http://www.hernstein.gv.at/;vs.hernstein-grillenberg@noeschule.at;02672/87149;16.0859709;47.9274903;1;NOE;0
8;VS Herrnbaumgarten;316231;Hauptstraße 55;2171;Herrnbaumgarten;Österreich;http://vs-herrnbaumgarten.schulweb.at/;vs.herrnbaumgarten@noeschule.at;02555/2574;16.6830356;48.6970295;1;NOE;0
8;VS Herzogenburg;319171;Schulgasse 2;3130;Herzogenburg;Österreich;http://www.vs-herzogenburg.at;vs.herzogenburg@noeschule.at;02782/83120;15.6915521;48.2857265;1;NOE;0
8;VS Himberg;324061;Kirchenplatz 1;2325;Himberg;Österreich;http://www.vshimberg.ac.at;vs.himberg@noeschule.at;02235/87906 21;16.4369751;48.0810357;1;NOE;0
8;VS Hinterbrühl;317101;Beethovengasse 4;2371;Hinterbrühl;Österreich;http://www.vshinterbruehl.ac.at;vs.hinterbruehl@noeschule.at;02236/263 87;16.2471645;48.0861062;1;NOE;0
8;VS Hirschbach;309211;Nr. 66;3942;Hirschbach;Österreich;http://www.vshirschbach.ac.at;vs.hirschbach@noeschule.at;02854/6227;15.1110813;48.745561;1;NOE;0
8;VS Hirtenberg;306201;Feldgasse 1a;2552;Hirtenberg;Österreich;http://www.vs-hirtenberg.at;vs.hirtenberg@noeschule.at;02256/81130;16.1900457;47.9302654;1;NOE;0
8;VS Hochleithen;316581;Hauptstraße 63;2123;Traunfeld;Österreich;http://www.vshochleithen.ac.at;vs.hochleithen@noeschule.at;02245/89588;16.5247379;48.447461;1;NOE;0
8;VS Hochneukirchen - Gschaidt;323231;Schulgasse 1;2852;Hochneukirchen;Österreich;http://www.vshochneukirchen.ac.at;vs.hochneukirchen-gschaidt@noeschule.at;02648/245-20;16.2015719;47.4586696;1;NOE;0
8;VS Hochwolkersdorf;323131;Schulgasse 1;2802;Hochwolkersdorf;Österreich;http://www.vshochwolkersdorf.ac.at;vs.hochwolkersdorf@noeschule.at;02645/8500;16.2015719;47.4586696;1;NOE;0
8;VS Höflein an der Hohen Wand;318121;Ortsstraße 2;2732;Höflein an der Hohen Wand;Österreich;http://www.vs-hoeflein.at;vs.hoeflein-hohewand@noeschule.at;02620/2385;16.0350439;47.7952666;1;NOE;0
8;VS Höflein;307121;Am Limes 1;2465;Höflein;Österreich;http://www.vshoeflein.at;vs.hoeflein@noeschule.at;02162/63166;16.7925289;48.0651233;1;NOE;0
8;VS Hof am Leithaberge;307111;Schulgasse 5;2451;Hof am Leithaberge;Österreich;http://vshof.schulweb.at/;vs.hof-leithaberge@noeschule.at;02168/62715;16.5802318;47.9434725;1;NOE;0
8;VS Hofstetten - Grünau;319131;Kirchenplatz 5;3202;Hofstetten-Grünau;Österreich;http://www.vshofstetten-gruenau.ac.at;vs.hofstetten-gruenau@noeschule.at;02723/8218;15.5029477;48.0995148;1;NOE;0
8;VS Hohe Wand;323371;Hauptstraße 129;2724;Hohe Wand - Stollhof;Österreich;http://www.vshohewand.ac.at;vs.hohe-wand@noeschule.at;02638/88213;16.0741538;47.8295912;1;NOE;0
8;VS Hohenau an der March;308161;Hauptstraße 35;2273;Hohenau an der March;Österreich;http://www.vshohenau-march.ac.at;vs.hohenau@noeschule.at;02535/22 50;16.9090205;48.6100533;1;NOE;0
8;VS Hohenberg;314051;Obere Hauptstraße 5;3192;Hohenberg;Österreich;http://www.vshohenberg.ac.at/;vs.hohenberg@noeschule.at;02767/8264;15.619889;47.9066159;1;NOE;0
8;VS Hoheneich;309231;Schulgasse 156;3945;Hoheneich;Österreich;http://www.hoheneich.at/;vs.hoheneich@noeschule.at;02852/52344;15.0236096;48.7713816;1;NOE;0
8;VS Hohenruppersdorf;308181;Marktplatz 38;2223;Hohenruppersdorf;Österreich;http://www.hohenruppersdorf.gv.at/;vs.hohenruppersdorf@noeschule.at;02574/82 72;16.657186;48.4620018;1;NOE;0
8;VS Hohenwarth - Mühlbach am Manhartsberg;310151;Nr. 5;3473;Mühlbach;Österreich; ;vs.hohenwarth-muehlbach@noeschule.at;02957/433;15.7911053;48.518605;1;NOE;0
8;VS Hollabrunn, Breitenwaida;310031;Quergasse 267 /2;2014;Breitenwaida;Österreich;http://vsbreitenwaida.ac.at/;vs.hollabrunn-breitenwaida@noeschule.at;02954/2034;16.0687788;48.5157983;1;NOE;0
8;VS Hollabrunn, Kirchenplatz;310161;Kirchenplatz 4;2020;Hollabrunn;Österreich;http://www.vshollabrunn-1.ac.at;vs.hollabrunn-kirchenplatz@noeschule.at;02952/2759;16.0802764;48.5597916;1;NOE;0
8;VS Hollabrunn, Koliskoplatz;310171;Koliskoplatz 7;2020;Hollabrunn;Österreich;http://www.vs2-hollabrunn.eduhi.at;vs.hollabrunn-koliskoplatz@noeschule.at;02952/2646;16.0808614;48.5637365;1;NOE;0
8;VS Hollenstein an der Ybbs;305191;Dorf 31;3343;Hollenstein an der Ybbs;Österreich;http://volksschule-hollenstein-ybbs.webnode.at/;vs.hollenstein@noeschule.at;0664 83 39 237;14.7762902;47.8015084;1;NOE;0
8;VS Hollenthon;323141;Nr. 70;2812;Hollenthon;Österreich;http://www.vshollenthon.ac.at;vs.hollenthon@noeschule.at;02645/7222;16.2595082;47.5914286;1;NOE;0
8;VS Horn;311111;Ferdinand Kurz-Gasse 24;3580;Horn;Österreich;http://www.vshorn.ac.at;vs.horn@noeschule.at;02982/2370;15.6560991;48.671091;1;NOE;0
8;VS Hürm;315151;Nr. 15;3383;Hürm;Österreich;http://vshuerm.ac.at;vs.huerm@noeschule.at;02754/854220;15.4118933;48.1559056;1;NOE;0
8;VS Inzersdorf - Getzersdorf, Inzersdorf;319181;Dorfstraße 20;3131;Inzersdorf ob der Traisen;Österreich;http://www.inzersdorf-getzersdorf.at/;vs.inzersdorf@noeschule.at;02782/82267;15.6784928;48.3190661;1;NOE;0
8;VS Irnfritz;311121;Schulstraße 2;3754;Irnfritz;Österreich;http://www.irnfritz.at/;vs.irnfritz@noeschule.at;02986/6245;15.5376892;48.7458551;1;NOE;0
8;VS Japons;311131;Nr. 54;3763;Japons;Österreich;http://vs-japons.edv-kaindl.at/home.html;vs.japons@noeschule.at;02914/6226;15.5694788;48.7916196;1;NOE;0
8;VS Jedenspeigen;308191;Kirchenplatz 2;2264;Jedenspeigen;Österreich;http://vsjedenspeigen.schulweb.at/;vs.jedenspeigen@noeschule.at;02536/87 255;16.8701543;48.5000507;1;NOE;0
8;VS Judenau - Baumgarten;321151;Hauptstraße 28;3441;Baumgarten am Tullnerfeld;Österreich;http://www.vsjudenau-baumgarten.ac.at;vs.judenau-baumgarten@noeschule.at;02274/7271;16.0294245;48.2819395;1;NOE;0
8;VS Kaltenleutgeben;317111;Hauptstraße 76;2391;Kaltenleutgeben;Österreich;http://www.vskaltenleutgeben.ac.at;vs.kaltenleutgeben@noeschule.at;02238/77588 12;16.200386;48.1175904;1;NOE;0
8;VS Gerasdorf bei Wien, Kapellerfeld;324071;Kapellerfeld, Schillergasse 25;2201;Gerasdorf bei Wien;Österreich;http://www.vskapellerfeld.ac.at;vs.kapellerfeld@noeschule.at;02246/2940;16.4960927;48.3130332;1;NOE;0
8;VS Kapelln;319201;Kirchenplatz 2;3141;Kapelln;Österreich; ;vs.kapelln@noeschule.at;02784/2252;15.7547297;48.2586116;1;NOE;0
8;VS Karlstein an der Thaya;322141;Schillerstraße 1;3822;Karlstein an der Thaya;Österreich;http://www.vskarlstein.ac.at;vs.karlstein@noeschule.at;02844/241;15.4020061;48.8850461;1;NOE;0
8;VS Karlstetten;319211;Neidlinger Straße 6;3121;Karlstetten;Österreich;http://www.vskarlstetten.ac.at;vs.karlstetten@noeschule.at;02741/8329;15.5651325;48.2570733;1;NOE;0
8;VS Kasten bei Böheimkirchen;319221;Nr. 17;3072;Kasten bei Böheimkirchen;Österreich; ;vs.kasten@noeschule.at;02744/7533;15.7806985;48.1538435;1;NOE;0
8;VS Katzelsdorf;323151;Mühlgasse 4;2801;Katzelsdorf;Österreich;http://www.vskatzelsdorf.ac.at;vs.katzelsdorf@noeschule.at;02622/78264;16.2704031;47.7791942;1;NOE;0
8;VS Kaumberg;314061;Markt 150;2572;Kaumberg;Österreich;http://www.vs-kaumberg.at;vs.kaumberg@noeschule.at;0660 73 50 138;15.897214;48.0222645;1;NOE;0
8;VS Kautzen;322151;Waidhofner Straße 11;3851;Kautzen;Österreich;http://www.vskautzen.ac.at;vs.kautzen@noeschule.at;02864/2351;15.2418629;48.92851;1;NOE;0
8;VS Kematen an der Ybbs;305201;13. a Straße 3;3331;Kematen an der Ybbs;Österreich;http://www.vskematen.ac.at;vs.kematen@noeschule.at;07448/3617;14.7659719;48.0275732;1;NOE;0
8;VS Kilb;315171;St. Pöltner Straße 11;3233;Kilb;Österreich;http://www.vskilb.ac.at;vs.kilb@noeschule.at;02748/7827;15.4110682;48.101587;1;NOE;0
8;VS Kirchberg an der Pielach;319231;Schulgasse 6;3204;Kirchberg an der Pielach;Österreich;http://www.kirchberg-pielach.at;vs.kirchberg-pielach@noeschule.at;02722/7228;15.4318274;48.0262535;1;NOE;0
8;VS Kirchberg am Wagram;321161;Auf der Schanz 5;3470;Kirchberg am Wagram;Österreich;http://www.vs-kirchbergwagram.at/;vs.kirchberg-wagram@noeschule.at;02279/2305-1;15.9005131;48.4355334;1;NOE;0
8;VS Kirchberg am Walde;309261;Nr. 109;3932;Kirchberg am Walde;Österreich;http://www.kirchbergamwalde.at/;vs.kirchberg-walde@noeschule.at;02854/271;15.646298;48.348081;1;NOE;0
8;VS Kirchberg am Wechsel;318141;Markt 300;2880;Kirchberg am Wechsel;Österreich;http://www.vskirchberg-wechsel.at;vs.kirchberg-wechsel@noeschule.at;02641/2640;15.994548;47.6102665;1;NOE;0
8;VS Kirchschlag in der Buckligen Welt;323161;Stanger Straße 19;2860;Kirchschlag in der Buckligen Welt;Österreich;http://www.vskirchschlag.ac.at;vs.kirchschlag-bucklige-welt@noeschule.at;02646/2500;16.2981512;47.5068267;1;NOE;0
8;VS Kirchschlag;325261;Nr.  63;3631;Kirchschlag;Österreich;http://www.vskirchschlag.ac.at/;vs.kirchschlag@noeschule.at;02872/7518;15.220635;48.38993;1;NOE;0
8;VS Kirchstetten;319241;Totzenbach, Kirchenstr. 10;3062;Kirchstetten;Österreich; ;vs.kirchstetten@noeschule.at;02743/8237;15.8090435;48.204197;1;NOE;0
8;VS Kirnberg an der Mank;315181;Schulgasse 2;3241;Kirnberg an der Mank;Österreich;http://www.vskirnberg.at/;vs.kirnberg@noeschule.at;02755/4082;15.3260457;48.071597;1;NOE;0
8;VS Klausen - Leopoldsdorf;306221;Nr. 81;2533;Klausen - Leopoldsdorf;Österreich;http://www.vsklausen.at;vs.klausen-leopoldsdorf@noeschule.at;02257/273;16.013637;48.088254;1;NOE;0
8;VS Kleinneusiedl;324091;Fischamender Straße 10;2431;Kleinneusiedl;Österreich;http://www.klein-neusiedl.gv.at/;vs.kleinneusiedl@noeschule.at;02230/8455;16.6061778;48.0936394;1;NOE;0
8;VS Kleinpöchlarn;315191;Schulstraße 2;3660;Kleinpöchlarn;Österreich; ;vs.kleinpoechlarn@noeschule.at;07413/8227-11;15.2221307;48.21906;1;NOE;0
8;VS Kleinzell;314081;Nr. 112;3171;Kleinzell;Österreich; ;vs.kleinzell@noeschule.at;02766/246;15.7355649;47.9794941;1;NOE;0
8;VS Klosterneuburg, Anton-Bruckner-Gasse;324111;Anton Bruckner-Gasse 6;3400;Klosterneuburg;Österreich;http://www.brucknerschule.at;vs.klosterneuburg-brucknergasse@noeschule.at;02243/444-317;16.3285451;48.293901;1;NOE;0
8;VS Königsbrunn am Wagram;321181;Am Hausberg 6;3465;Königsbrunn am Wagram;Österreich;http://www.vskoenigsbrunn-wagram.ac.at;vs.koenigsbrunn-wagram@noeschule.at;02278/3191-11;15.9429478;48.4203302;1;NOE;0
8;VS Königstetten;321191;Johann Gruber-Promenade 31-35;3433;Königstetten;Österreich;http://www.volksschule.cc;vs.koenigstetten@noeschule.at;02273/2278;16.1440929;48.3030468;1;NOE;0
8;VS Waidhofen an der Ybbs, Konradsheim;303041;Konradsheim 47;3340;Waidhofen an der Ybbs;Österreich;http://konradsheim303041k.jimdo.com/;vs.konradsheim@noeschule.at;07442/53085-0;14.7181405;47.9576075;1;NOE;0
8;VS I Korneuburg;312091;Bankmannring 21;2100;Korneuburg;Österreich;http://www.asn-noe.ac.at/schulen/vskorneuburg-1/;vs.korneuburg-1@noeschule.at;02262/74511-472;16.3361835;48.3465402;1;NOE;0
8;VS II Korneuburg;312101;Bankmannring 21;2100;Korneuburg;Österreich;http://www.vskorneuburg-2.ac.at;vs.korneuburg-2@noeschule.at;02262/74511-473;16.3361835;48.3465402;1;NOE;0
8;VS Kottes - Purk;325281;Nr. 90;3623;Kottes;Österreich;http://www.vskottes-purk.ac.at;vs.kottes-purk@noeschule.at;02873/7380;15.305938;48.4187499;1;NOE;0
8;VS Kottingbrunn;306231;Franz Nagl-Gasse 20;2542;Kottingbrunn;Österreich;http://www.vskottingbrunn.at;vs.kottingbrunn@noeschule.at;02252/76107;16.2248366;47.9456719;1;NOE;0
8;VS Krems an der Donau, Egelsee;301091;Schulstraße 8;3500;Krems an der Donau - Egelsee;Österreich;http://www.vskrems-egelsee.ac.at;vs.krems-egelsee@noeschule.at;0273241560;15.5612753;48.4175284;1;NOE;0
8;VS Krems an der Donau, Hafnerplatz;301011;Hafnerplatz 1;3500;Krems an der Donau;Österreich;http://www.vskrems-hafnerplatz.ac.at;vs.krems-hafnerplatz@noeschule.at;02732/801-362;15.5990619;48.4097354;1;NOE;0
8;VS Krems an der Donau, Lerchenfeld;301051;Judenburger Straße 21;3502;Krems an der Donau - Lerchenfeld;Österreich;http://www.vskrems-lerchenfeld.ac.at;vs.krems-lerchenfeld@noeschule.at;02732/801-361;15.6400461;48.415816;1;NOE;0
8;VS Krems an der Donau, Rehberg;301041;Rehberger Hauptstraße 73;3503;Krems an der Donau - Rehberg;Österreich;http://vskrems-rehberg.schulweb.at/;vs.krems-rehberg@noeschule.at;02732/71744;15.5890707;48.4278365;1;NOE;0
8;VS Krems an der Donau, Stein;301061;Maria Grengg-Gasse 2;3504;Krems an der Donau - Stein;Österreich;http://www.vskrems-stein.ac.at;vs.krems-stein@noeschule.at;02732/801/363;15.5841959;48.4062377;1;NOE;0
8;VS Kreuttal;316521;Unterolberndorf, Kirchenplatz 2;2123;Kreuttal;Österreich;http://www.kreuttal.at/Bildung/VSKreuttal/index.html;vs.kreuttal@noeschule.at;02245/89308;16.4740832;48.4341873;1;NOE;0
8;VS Kreuzstetten;316291;Schulgasse 25;2124;Niederkreuzstetten;Österreich;http://volksschule.kreuzstetten.at;vs.kreuzstetten@noeschule.at;02263/8487;16.4676823;48.4825061;1;NOE;0
8;VS Krumau am Kamp;313261;Nr. 38;3543;Krumau am Kamp;Österreich;http://vskrumau.schulweb.at/;vs.krumau-kamp@noeschule.at;02731/8201;15.449297;48.590402;1;NOE;0
8;VS Krumbach;323171;Schulgasse 3;2851;Krumbach;Österreich;http://www.vskrumbach.ac.at;vs.krumbach@noeschule.at;02647/42345;16.1921788;47.5216208;1;NOE;0
8;VS Krummnussbaum;315201;Rathausstraße 10;3375;Krummnussbaum;Österreich;http://www.vskrummnussbaum.ac.at/;vs.krummnussbaum@noeschule.at;02757/8632;15.16591;48.2074879;1;NOE;0
8;VS St. Peter in der Au, Kürnberg;305241;Kürnberg 10;3352;St. Peter in der Au;Österreich;http://www.vs-stpeterau.com/;vs.kuernberg@noeschule.at;07252/30294;14.5456664;48.0073696;1;NOE;0
8;VS Laa an der Thaya;316301;Hubertusgasse 17;2136;Laa an der Thaya;Österreich;http://www.vslaa.ac.at;vs.laa-thaya@noeschule.at;02522/2338;16.3929061;48.7198738;1;NOE;0
8;VS Ladendorf;316311;Schulgasse 2;2126;Ladendorf;Österreich;http://www.school4you.at/2126/vsladendorf;vs.ladendorf@noeschule.at;02575/2373;16.4903886;48.5342399;1;NOE;0
8;VS Münichreith - Laimbach, Laimbach;315211;Nr. 102;3663;Laimbach am Ostrong;Österreich;http://www.muenichreith.at/;vs.laimbach@noeschule.at;02758/5250;15.1235265;48.3173433;1;NOE;0
8;VS Langau;311151;Hauptplatz 270;2091;Langau bei Geras;Österreich; ;vs.langau@noeschule.at;02912/40125;15.7158446;48.8308338;1;NOE;0
8;VS Tulln, Langenlebarn;321201;Wiener Strasse 3;3425;Langenlebarn;Österreich;http://www.vslangenlebarn.ac.at;vs.langenlebarn@noeschule.at;02272/64106;16.1155068;48.3331289;1;NOE;0
8;VS Langenlois;313281;Auböckallee 12;3550;Langenlois;Österreich;http://vs-langenlois.schulweb.at;vs.langenlois@noeschule.at;02734/2308;15.6786443;48.4723327;1;NOE;0
8;VS Langenrohr;321211;Schulstraße 5;3442;Langenrohr;Österreich;http://www.vslangenrohr.ac.at;vs.langenrohr@noeschule.at;02272/7370;15.6786443;48.4723327;1;NOE;0
8;VS Langenzersdorf;312111;Steyrer Gasse 22;2103;Langenzersdorf;Österreich;http://www.vslangenzersdorf.ac.at/;vs.langenzersdorf@noeschule.at;02244/2334;16.3584185;48.306701;1;NOE;0
8;VS Langschlag;325291;Nr. 115;3921;Langschlag;Österreich;http://www.vs.langschlag.at;vs.langschlag@noeschule.at;02814/7233;14.8843506;48.5734934;1;NOE;0
8;VS Lanzendorf;324141;Schulgasse 2;2326;Lanzendorf;Österreich;http://vs-lanzendorf.schulweb.at;vs.lanzendorf@noeschule.at;02235/47737;16.4280712;48.1027875;1;NOE;0
8;VS Lanzenkirchen;323181;Nr. 100;2821;Lanzenkirchen;Österreich;http://www.vslanzenkirchen.ac.at;vs.lanzenkirchen@noeschule.at;02627/45780;16.238149;47.744407;1;NOE;0
8;VS Lassee;308201;Stift Melk-Gasse 2;2291;Lassee;Österreich;http://www.vslassee.ac.at;vs.lassee@noeschule.at;02213/2250;16.8223222;48.2259299;1;NOE;0
8;VS Laxenburg;317131;Martin Ebner-Gasse 10;2361;Laxenburg;Österreich;http://www.vslaxenburg.ac.at;vs.laxenburg@noeschule.at;02236/71119;16.3510728;48.0683879;1;NOE;0
8;VS Leiben;315221;Hauptstraße 11;3652;Leiben;Österreich; ;vs.leiben@noeschule.at;02752/71064;15.2750854;48.2434161;1;NOE;0
8;VS Leitzersdorf;312121;Ernstbrunner Straße 15;2003;Leitzersdorf;Österreich;http://www.vsleitzersdorf.ac.at/;vs.leitzersdorf@noeschule.at;02266/63 488;16.2449137;48.4191738;1;NOE;0
8;VS Lengenfeld;313291;Kremser Straße 13;3552;Lengenfeld;Österreich; ;vs.lengenfeld@noeschule.at;02719/2429;15.5997731;48.4704383;1;NOE;0
8;VS Leobendorf;312131;Nussallee 2a;2100;Leobendorf;Österreich;http://www.vsleobendorf.at/;vs.leobendorf@noeschule.at;02262/66 131;16.3148762;48.3784241;1;NOE;0
8;VS Leobersdorf;306421;Rathausplatz 3;2544;Leobersdorf;Österreich;http://www.vsleobersdorf.at;vs.leobersdorf@noeschule.at;02256/62267;16.218258;47.9286774;1;NOE;0
8;VS Leopoldsdorf;324151;Hauptstraße 30;2333;Leopoldsdorf bei Wien;Österreich;http://www.vsleopoldsdorf-wien.ac.at;vs.leopoldsdorf-wien@noeschule.at;02235/47757;16.3969498;48.1074839;1;NOE;0
8;VS Leopoldsdorf im Marchfelde;308211;Kempfendorf 2a;2285;Leopoldsdorf im Marchfelde;Österreich;http://www.vsleopoldsdorf.ac.at;vs.leopoldsdorf@noeschule.at;02216/23 278;16.6969768;48.2269304;1;NOE;0
8;VS Lichtenau im Waldviertel;313301;Nr. 64;3522;Lichtenau;Österreich;http://www.vs-lichtenau.schulweb.at;vs.lichtenau@noeschule.at;02718/331;15.392242;48.4958858;1;NOE;0
8;VS Lichtenegg;323201;Schulstraße 10;2813;Lichtenegg;Österreich;http://www.vslichtenegg.ac.at;vs.lichtenegg@noeschule.at;02643/2382;16.200012;47.5986958;1;NOE;0
8;VS Lichtenwörth;323211;Kirchenplatz 4;2493;Lichtenwörth;Österreich;http://www.vslichtenwoerth.ac.at;vs.lichtenwoerth@noeschule.at;02622/75576;16.2945451;47.8324076;1;NOE;0
8;VS Lilienfeld;314101;Schulgasse 6;3180;Lilienfeld;Österreich;http://www.vslilienfeld.ac.at/;vs.lilienfeld@noeschule.at;02762/52137-1;15.5883081;48.0142068;1;NOE;0
8;VS Litschau;309301;Schulstraße 7-9;3874;Litschau;Österreich;http://www.vslitschau.ac.at;vs.litschau@noeschule.at;02865/390;15.0477924;48.9473433;1;NOE;0
8;VS Loich;319271;Loichgegend 9;3211;Loich;Österreich;http://www.loich.gv.at/;vs.loich@noeschule.at;02722/8216;15.4167527;47.9614464;1;NOE;0
8;VS Loosdorf;315231;Otto Glöckel-Straße 6-8;3382;Loosdorf;Österreich;http://www.vsloosdorf.at;vs.loosdorf@noeschule.at;02754/6401;15.3989971;48.1996332;1;NOE;0
8;VS Ludweis - Aigen;322011;Nr. 37;3814;Aigen bei Raabs;Österreich;http://aigen.schulweb.at;vs.ludweis-aigen@noeschule.at;02846/617;15.489874;48.8104548;1;NOE;0
8;VS Lunz am See;320081;Schulstraße 1;3293;Lunz am See;Österreich;http://www.vslunz.ac.at/;vs.lunz-see@noeschule.at;07486/20010-10;15.0287058;47.8614364;1;NOE;0
8;VS Maissau;310221;Kirchenplatz 5;3712;Maissau;Österreich;http://www.vsmaissau.jimdo.com;vs.maissau@noeschule.at;02958/82282;15.8255782;48.5711781;1;NOE;0
8;VS Mank;315241;Friedhofsweg 6;3240;Mank;Österreich;http://vsmank.blogspot.co.at/p/volksschule-mank.html;vs.mank@noeschule.at;02755/4013;15.342373;48.109979;1;NOE;0
8;VS Mannersdorf am Leithagebirge;307131;Hauptstraße 15;2452;Mannersdorf am Leithagebirge;Österreich;http://www.vs-mannersdorf.at/;vs.mannersdorf-leithagebirge@noeschule.at;02168/62471;16.5556371;47.9863893;1;NOE;0
8;VS Zwettl, Marbach am Walde;325311;Nr. 2;3911;Marbach am Walde;Österreich;http://www.zwettl.gv.at/;vs.marbach-walde@noeschule.at;02828/8324;15.0868772;48.5484397;1;NOE;0
8;VS Marbach an der Donau;315251;Prangerplatz 36;3671;Marbach an der Donau;Österreich;http://www.vsmarbach.ac.at;vs.marbach@noeschule.at;07413/374;15.2054909;48.2430734;1;NOE;0
8;VS Marchegg;308231;Fünfhaus 2;2293;Marchegg;Österreich;http://www.vs-marchegg.schulweb.at;vs.marchegg@noeschule.at;02285/8231;16.9078779;48.2653043;1;NOE;0
8;VS Maria Anzbach;319281;Schwabstraße 42;3034;Maria Anzbach;Österreich;http://www.vsmaria-anzbach.ac.at;vs.maria-anzbach@noeschule.at;02772/52192;15.9297638;48.1895456;1;NOE;0
8;VS Maria Enzersdorf, Schulplatz;317141;Schulplatz 2;2344;Maria Enzersdorf;Österreich;http://www.vsmaria-enzersdorf.ac.at/schulplatz;vs.maria-enzersdorf-schulplatz@noeschule.at;02236/24133;16.2797989;48.0981586;1;NOE;0
8;VS Maria Enzersdorf, Südstadt;317151;Theißplatz 2;2344;Maria Enzersdorf;Österreich;http://www.vssuedstadt.ac.at;vs.maria-enzersdorf-suedstadt@noeschule.at;02236/44169;16.3054012;48.095097;1;NOE;0
8;VS Maria Laach am Jauerling;313321;Nr. 70;3643;Maria Laach am Jauerling;Österreich;http://www.maria-laach.gv.at/;vs.maria-laach@noeschule.at;02712/82430;15.3450754;48.3016392;1;NOE;0
8;VS Maria Taferl;315261;Nr. 32;3672;Maria Taferl;Österreich;http://www.vsmariataferl.ac.at/;vs.maria-taferl@noeschule.at;07413/321;15.1566592;48.2253429;1;NOE;0
8;VS Markersdorf - Haindorf;319291;Prinzersdorfer Straße 7;3385;Markersdorf;Österreich;http://www.markersdorf-haindorf.at/;vs.markersdorf-haindorf@noeschule.at;02749/2330;15.5017916;48.1938948;1;NOE;0
8;VS Markgrafneusiedl;308241;Bischof Mayer-Platz 1;2282;Markgrafneusiedl;Österreich;http://www.vsmarkgrafneusiedl.ac.at;vs.markgrafneusiedl@noeschule.at;02248/22 85;16.6336161;48.26784;1;NOE;0
8;VS Markt Piesting;323241;Bahngasse 1;2753;Markt Piesting;Österreich;http://vs-marktpiesting.schulweb.at;vs.markt-piesting@noeschule.at;02633/42464;16.1260774;47.8747238;1;NOE;0
8;VS Martinsberg;325321;Nr. 24;3664;Martinsberg;Österreich;http://nmsmartinsberg.jimdo.com/vs-martinsberg/;vs.martinsberg@noeschule.at;02874/6282;15.1490278;48.3752057;1;NOE;0
8;VS Matzen - Raggendorf;308251;Josefsplatz 5;2243;Matzen;Österreich;http://www.vsmatzen-raggendorf.ac.at;vs.matzen-raggendorf@noeschule.at;02289/22 79;16.6957618;48.400432;1;NOE;0
8;VS Matzendorf - Hölles;323251;Kirchengasse 4;2751;Matzendorf - Hölles;Österreich;http://www.vsmatzendorf.ac.at/;vs.matzendorf-hoelles@noeschule.at;02628/62602;16.2131161;47.8913419;1;NOE;0
8;VS Mauerbach;324171;Hauptstraße 250;3001;Mauerbach;Österreich;http://www.vsmauerbach.ac.at;vs.mauerbach@noeschule.at;01/9792167;16.1669603;48.2481318;1;NOE;0
8;VS Mautern an der Donau;313331;Melker Straße 10;3512;Mautern an der Donau;Österreich;http://www.mautern.at;vs.mautern@noeschule.at;02732/83497;15.5752536;48.3931066;1;NOE;0
8;VS Melk;315291;Dr. Wilhelm Reich-Straße 7;3390;Melk;Österreich;http://www.vsmelk.ac.at;vs.melk@noeschule.at;02752/52610;15.338808;48.2255886;1;NOE;0
8;VS Michelbach;319311;Markt 10;3074;Michelbach;Österreich; ;vs.michelbach@noeschule.at;02744/8231;15.7587175;48.0998627;1;NOE;0
8;VS Michelhausen;321221;Schulgasse 2;3451;Michelhausen;Österreich;http://www.vsmichelhausen.ac.at;vs.michelhausen@noeschule.at;02275/5352;15.9391457;48.288024;1;NOE;0
8;VS I Mistelbach;316331;Bahnzeile 1;2130;Mistelbach;Österreich;http://www.vsmistelbach-1.ac.at;vs.mistelbach-1@noeschule.at;02572 2515-6110;16.5665927;48.5678897;1;NOE;0
8;VS II Mistelbach;316341;Bahnzeile 1;2130;Mistelbach;Österreich;http://www.vs2mistelbach.schulweb.at;vs.mistelbach-2@noeschule.at;2572 30/73;16.5665927;48.5678897;1;NOE;0
8;VS Mitterbach am Erlaufsee;314111;Hauptstraße 15;3224;Mitterbach am Erlaufsee;Österreich; ;vs.mitterbach@noeschule.at;03882/2472;15.29521;47.814735;1;NOE;0
8;VS Mitterndorf an der Fischa;306551;Hauptstraße 28;2441;Mitterndorf;Österreich;http://vsmitterndorf.schulweb.at/;vs.mitterndorf@noeschule.at;02234/78835;16.4723123;47.9970257;1;NOE;0
8;VS Mödling, Hyrtlplatz;317181;Hyrtlplatz 2;2340;Mödling;Österreich;http://www.vshyrtlplatz.at;vs.moedling-hyrtlplatz@noeschule.at;02236/23248-11;16.290649;48.0885822;1;NOE;0
8;VS Mödling, Lerchengasse;317171;Lerchengasse 35;2340;Mödling;Österreich;http://www.vslerchengasse.at/;vs.moedling-lerchengasse@noeschule.at;02236/22115;16.290649;48.0885822;1;NOE;0
8;VS Mödling, Pfandlbrunngasse;317281;Pfandlbrunngasse 2;2340;Mödling;Österreich;http://www.stinglvs.at/;vs.moedling-pfandlbrunngasse@noeschule.at;02236/42398- 30;16.293687;48.0788605;1;NOE;0
8;VS Traiskirchen, Möllersdorf;306251;Guntramsdorfer Straße 1-3;2514;Traiskirchen;Österreich;http://www.vsmoellersdorf.ac.at;vs.moellersdorf@noeschule.at;02252/52150 ;16.3046009;48.0264706;1;NOE;0
8;VS Mönichkirchen;318161;Nr. 82;2872;Mönichkirchen;Österreich;http://www.moenichkirchen.at/;vs.moenichkirchen@noeschule.at;02649/219;16.036176;47.512275;1;NOE;0
8;VS Moorbad Harbach;309161;Nr. 41;3970;Moorbad Harbach;Österreich;http://www.moorbad-harbach.gv.at/;vs.moorbad-harbach@noeschule.at;02858/5224;14.7980311;48.7105096;1;NOE;0
8;VS Moosbrunn;324181;Wiener Straße 7;2440;Moosbrunn;Österreich;http://vsmoosbrunn.schulweb.at/;vs.moosbrunn@noeschule.at;02234/72682;16.461528;48.0214402;1;NOE;0
8;VS Mühldorf;313361;Niederranna 14;3622;Mühldorf;Österreich;http://vsmuehldorf.ac.at/;vs.muehldorf@noeschule.at;02713/8224;15.3500456;48.3755868;1;NOE;0
8;VS Münchendorf;317191;Sportplatzstraße 5;2482;Münchendorf;Österreich;http://vsmuenchendorf.ac.at;vs.muenchendorf@noeschule.at;02259/2286;16.381138;48.0246862;1;NOE;0
8;VS Münichreith - Laimbach, Münichreith;315301;Nr. 44;3662;Münichreith am Ostrong;Österreich; ;vs.muenichreith@noeschule.at;07413/7800;15.1295079;48.2658383;1;NOE;0
8;VS Nappersdorf - Kammersdorf;310241;Nr. 152;2023;Nappersdorf;Österreich;http://www.nappersdorf.at/schule.htm;vs.nappersdorf-kammersdorf@noeschule.at;02953/2630;16.1934193;48.6276413;1;NOE;0
8;VS Neidling;319331;Schulstraße 4;3110;Neidling;Österreich;http://www.neidling.at/;vs.neidling@noeschule.at;02741/8605;15.5586626;48.2391929;1;NOE;0
8;VS Neudorf bei Staatz;316351;Nr. 174;2135;Neudorf bei Staatz;Österreich;http://www.vs-neudorf.schulweb.at;vs.neudorf-staatz@noeschule.at;02523/8386;16.491931;48.7206295;1;NOE;0
8;VS Neuhofen an der Ybbs;305251;Hauptstraße 23;3364;Neuhofen an der Ybbs;Österreich;http://www.vsneuhofen.ac.at;vs.neuhofen@noeschule.at;07475/52116;14.8506413;48.0560363;1;NOE;0
8;VS Neulengbach;319341;Josef Weinheber-Straße 126;3040;Neulengbach;Österreich;http://www.vsneulengbach.ac.at;vs.neulengbach@noeschule.at;02772/52317;15.9202349;48.1927119;1;NOE;0
8;VS Neumarkt an der Ybbs;315321;Schulstraße 7;3371;Neumarkt an der Ybbs;Österreich;http://www.vsneumarkt.ac.at;vs.neumarkt@noeschule.at;07412/58979;15.0566759;48.1385497;1;NOE;0
8;VS Neunkirchen, Mühlfeld;318181;Mühlfeldstraße 4;2620;Neunkirchen;Österreich;http://www.vsmuehlfeld.ac.at/;vs.neunkirchen-muehlfeld@noeschule.at;02635/62415;16.0841999;47.7174531;1;NOE;0
8;VS Neunkirchen, Peisching;318231;Peisching, Am Mühlbach 13;2620;Neunkirchen;Österreich;http://www.vspeisching.ac.at/;vs.neunkirchen-peisching@noeschule.at;02635/63182;16.1159238;47.7271237;1;NOE;0
8;VS Neunkirchen, Steinfeld;318191;Dittrichstraße 12;2620;Neunkirchen;Österreich;http://vssteinfeld.at;vs.neunkirchen-steinfeld@noeschule.at;02635/62768;16.0778985;47.7263054;1;NOE;0
8;VS Neusiedl an der Zaya;308261;Schulgasse 6;2183;Neusiedl an der Zaya;Österreich;http://www.neusiedl-zaya.gv.at/;vs.neusiedl-zaya@noeschule.at;02533/89 350;16.7884269;48.5990464;1;NOE;0
8;VS Neustadtl an der Donau;305261;Marktstraße 6;3323;Neustadtl an der Donau;Österreich;http://www.vsneustadtl.at/;vs.neustadtl@noeschule.at;07471/2217;14.9030101;48.1937043;1;NOE;0
8;VS Neustift - Innermanzing;319351;Neustift, Hauptstraße 11;3052;Innermanzing;Österreich;http://www.vsni.at;vs.neustift-innermanzing@noeschule.at;02774/2272;15.9060696;48.15235;1;NOE;0
8;VS Niederhollabrunn;312141;Schulplatz 1;2004;Bruderndorf;Österreich;http://www.vsleitzersdorf.ac.at/;vs.niederhollabrunn@noeschule.at;02269/2556;16.2974736;48.4631547;1;NOE;0
8;VS Niederleis;316371;Hauptstraße 153;2116;Niederleis;Österreich;http://www.vsniederleis.ac.at/;vs.niederleis@noeschule.at;02576/2228;16.3977711;48.5481671;1;NOE;0
8;VS Rußbach;312181;Schulgasse 7;3702;Niederrußbach;Österreich;http://www.vs-russbach.at;vs.niederrussbach@noeschule.at;02955/70432;16.040267;48.4508414;1;NOE;0
8;VS Nöchling;315331;Unterer Markt 12;3691;Nöchling;Österreich;http://www.noechling.at/;vs.noechling@noeschule.at;07414/7297;14.9826292;48.2235684;1;NOE;0
8;VS Nussdorf ob der Traisen;319361;Kirchenplatz 2;3134;Nußdorf ob der Traisen;Österreich;http://www.nussdorf-traisen.gv.at/;vs.nussdorf-traisen@noeschule.at;02783/8487;15.6943503;48.3551975;1;NOE;0
8;VS Ober-Grafendorf;319371;Schulstraße 6;3200;Ober-Grafendorf;Österreich;http://vsober-grafendorf.ac.at/;vs.ober-grafendorf@noeschule.at;02747/2351;15.5445565;48.1512875;1;NOE;0
8;VS Aspang-Markt, Oberaspang;318201;Schulgasse 26;2870;Aspang-Markt;Österreich;http://www.aspangmarkt.at/;vs.oberaspang@noeschule.at;02642/52450;16.0882527;47.5535448;1;NOE;0
8;VS Groß-Enzersdorf, Oberhausen;308111;Sonnleithnergasse 22;2301;Oberhausen;Österreich;http://www.vsoberhausen.ac.at;vs.oberhausen@noeschule.at;02215/22 47;16.5814305;48.1844782;1;NOE;0
8;VS Oberndorf an der Melk;320121;Schulstraße 7;3281;Oberndorf an der Melk;Österreich;http://www.vsoberndorf.ac.at;vs.oberndorf@noeschule.at;07483/7029;15.2226354;48.0633633;1;NOE;0
8;VS Obersiebenbrunn;308271;Hauptplatz 10;2283;Obersiebenbrunn;Österreich;http://www.vs-obersiebenbrunn.ac.at/;vs.obersiebenbrunn@noeschule.at;02286/ 27376;16.7067624;48.2652189;1;NOE;0
8;VS Oberwaltersdorf;306441;Badener Straße 26;2522;Oberwaltersdorf;Österreich;http://www.vs-oberwaltersdorf.at;vs.oberwaltersdorf@noeschule.at;02253/61000 - 215;16.3204131;47.9786712;1;NOE;0
8;VS Obritzberg - Rust;319121;Nr. 33;3123;Großrust;Österreich; ;vs.obritzberg-rust@noeschule.at;27 862 292 510;15.613329;48.2729141;1;NOE;0
8;VS Oed - Oed;305271;Nr. 50;3312;Oed bei Amstetten;Österreich;http://www.vsoed.ac.at;vs.oed@noeschule.at;07478/216;14.73849;48.120748;1;NOE;0
8;VS Oed - Öhling - Schule zum Glück;305281;Nr. 39;3362;Oehling;Österreich;http://vsoed.ac.at/;vs.oehling@noeschule.at;07475/53103;14.7983154;48.1008907;1;NOE;0
8;VS Opponitz;305291;Hauslehen 23;3342;Opponitz;Österreich;http://www.opponitz.gv.at/;vs.opponitz@noeschule.at;07444/7268;14.8230772;47.8773856;1;NOE;0
8;VS Orth an der Donau;308281;Am Markt 30;2304;Orth an der Donau;Österreich;http://vsorth.ac.at;vs.orth@noeschule.at;02212/28 03;16.7043288;48.1466002;1;NOE;0
8;VS Ottenschlag;325381;Michael Jank-Gasse 4;3631;Ottenschlag;Österreich; ;vs.ottenschlag@noeschule.at;02872/7380;15.2208643;48.4218481;1;NOE;0
8;VS Ottenthal;316391;Nr. 94;2163;Ottenthal;Österreich;http://vsottenthal.ac.at;vs.ottenthal@noeschule.at;02554/8135;16.5777494;48.761421;1;NOE;0
8;VS Otterthal;318211;Nr. 1;2880;Otterthal;Österreich;http://www.otterthal.gv.at/;vs.otterthal@noeschule.at;02641/8680;15.9485164;47.6234739;1;NOE;0
8;VS Palterndorf - Dobermannsdorf;308291;Dobermannsdorfer Straße 279;2182;Palterndorf;Österreich;http://vspalterndorf-dobermannsdorf.ac.at/joomla30/index.php;vs.palterndorf-dobermannsdorf@noeschule.at;02533/89 375;16.8179205;48.5921001;1;NOE;0
8;VS Paudorf;313391;Kremserstraße 63;3508;Paudorf;Österreich;http://vspaudorf.ac.at;vs.paudorf@noeschule.at;02736/7247;15.6203357;48.3522295;1;NOE;0
8;VS Payerbach;318221;Schulgasse 11b;2650;Payerbach;Österreich;http://www.payerbach.at/;vs.payerbach@noeschule.at;02666/52315;15.8676474;47.6943452;1;NOE;0
8;VS Perchtoldsdorf, Roseggergasse;317201;Roseggergasse 2-6;2380;Perchtoldsdorf;Österreich;http://www.vsperchtoldsdorf.ac.at;vs.perchtoldsdorf-roseggergasse@noeschule.at;01/8693528;16.2601461;48.120494;1;NOE;0
8;VS Pernegg;311181;Nr. 74;3753;Pernegg;Österreich;http://www.vspernegg.ac.at;vs.pernegg@noeschule.at;02913/256;15.626268;48.738362;1;NOE;0
8;VS Pernitz;323281;Muggendorfer Straße 15;2763;Pernitz;Österreich;http://vs-pernitz.schulweb.at;vs.pernitz@noeschule.at;02632/74177;15.9563067;47.8992196;1;NOE;0
8;VS Persenbeug - Gottsdorf;315341;Rollfährestraße 15;3680;Persenbeug;Österreich;http://www.vspersenbeug.ac.at;vs.persenbeug@noeschule.at;07412/52378;15.0851889;48.1856556;1;NOE;0
8;VS Petronell - Carnuntum;307151;Hauptstraße 55;2404;Petronell;Österreich;http://www.petronell-carnuntum.at/;vs.petronell-carnuntum@noeschule.at;02163/2829;16.8703126;48.1158265;1;NOE;0
8;VS Petzenkirchen;315351;Fritz Sedlazeck-Platz 5;3252;Petzenkirchen;Österreich;http://www.vspetzenkirchen.ac.at/;vs.petzenkirchen@noeschule.at;07416/52137;15.1532108;48.1474096;1;NOE;0
8;VS Pfaffenschlag;322181;Nr. 32;3834;Pfaffenschlag;Österreich;http://www.vspfaffenschlag.ac.at;vs.pfaffenschlag@noeschule.at;02848/6224;15.192976;48.8441051;1;NOE;0
8;VS Pfaffstätten;306271;Schulgasse 2;2511;Pfaffstätten;Österreich;http://volksschule.pfaffstaetten.at;vs.pfaffstaetten@noeschule.at;02252/43860;16.2640892;48.016935;1;NOE;0
8;VS Pillichsdorf;316421;Bahnstraße 3;2211;Pillichsdorf;Österreich;http://www.pillichsdorf.at/;vs.pillichsdorf@noeschule.at;02245/3139;16.5394746;48.3621114;1;NOE;0
8;VS Pitten;318251;Auf der Schmelz 62;2823;Pitten;Österreich;http://www.vspitten.ac.at;vs.pitten@noeschule.at;02627/85192;16.186438;47.7182357;1;NOE;0
8;VS Pöchlarn;315391;Gernotstraße 4;3380;Pöchlarn;Österreich;http://www.vspoechlarn.ac.at;vs.poechlarn@noeschule.at;02757/7687;15.2140044;48.2106416;1;NOE;0
8;VS Pöggstall;315401;Schulstraße 5;3650;Pöggstall;Österreich;http://www.volksschule.poeggstall.at;vs.poeggstall@noeschule.at;02758/4034;15.2065868;48.3182255;1;NOE;0
8;VS Pottendorf;306281;Johannes Heigl-Gasse 2;2486;Pottendorf;Österreich;http://www.vspottendorf.at;vs.pottendorf@noeschule.at;02623/72238-2;16.390175;47.9049603;1;NOE;0
8;VS Pottenstein;306461;Hainfelder Straße 24;2563;Pottenstein;Österreich;http://www.vspottenstein.com;vs.pottenstein@noeschule.at;02672/85170-10;16.094294;47.9611222;1;NOE;0
8;VS Prellenkirchen;307161;Grünaugasse 8;2472;Prellenkirchen;Österreich;vsprellenkirchen.com;vs.prellenkirchen@noeschule.at;02145/2238;16.9544723;48.0741009;1;NOE;0
8;VS Pressbaum;324191;Hauptstraße 77;3021;Pressbaum;Österreich;http://www.vspressbaum.at;vs.pressbaum@noeschule.at;02233/52461;16.0774551;48.1786364;1;NOE;0
8;VS Prottes;308311;Hauptstraße 3;2242;Prottes;Österreich;http://www.vsprottes.ac.at;vs.prottes@noeschule.at;02282/89 66;16.7398931;48.3859414;1;NOE;0
8;VS Puchberg am Schneeberg;318291;Burggasse 11;2734;Puchberg am Schneeberg;Österreich;http://www.vspuchberg.ac.at;vs.puchberg-schneeberg@noeschule.at;02636/3330;15.9139953;47.7860451;1;NOE;0
8;VS Puchenstuben;320131;Nr. 20;3214;Puchenstuben;Österreich;http://www.vspuchenstuben.ac.at;vs.puchenstuben@noeschule.at;02726/242;15.28652;47.928615;1;NOE;0
8;VS Pulkau;310271;Anton Reich-Straße 5;3741;Pulkau;Österreich;http://www.vspulkau.ac.at;vs.pulkau@noeschule.at;02946/2246;15.8667444;48.705109;1;NOE;0
8;VS Purgstall an der Erlauf;320141;Schulgasse 11;3251;Purgstall an der Erlauf;Österreich;http://www.vspurgstall.ac.at/;vs.purgstall@noeschule.at;07489/888013;15.134957;48.0591753;1;NOE;0
8;VS Purkersdorf;324201;Schwarzhubergasse 7;3002;Purkersdorf;Österreich;http://www.vspurkersdorf.ac.at;vs.purkersdorf@noeschule.at;02231/63366;16.1739938;48.2059901;1;NOE;0
8;VS Pyhra;319421;Wiedener Straße 9;3143;Pyhra;Österreich;http://www.vspyhra.ac.at;vs.pyhra@noeschule.at;02745/2346;15.6844847;48.1571399;1;NOE;0
8;VS Raabs an der Thaya;322201;Puchheimstraße 27;3820;Raabs an der Thaya;Österreich;http://www.vsraabs-thaya.ac.at;vs.raabs-thaya@noeschule.at;02846/262;15.4880575;48.8501511;1;NOE;0
8;VS Rabensburg;316441;Hauptstraße 73;2274;Rabensburg;Österreich;http://www.rabensburg.at/;vs.rabensburg@noeschule.at;02535/3543;16.9031425;48.644793;1;NOE;0
8;VS Rabenstein an der Pielach;319431;St. Pöltner Straße 14;3203;Rabenstein an der Pielach;Österreich;http://www.rabenstein.gv.at/;vs.rabenstein@noeschule.at;02723/2323;15.4694198;48.0656532;1;NOE;0
8;VS St. Veit an der Gölsen, Rainfeld;314121;Rainfelder Hauptstraße 44;3162;Rainfeld an der Gölsen;Österreich;http://www.st-veit-goelsen.gv.at/;vs.rainfeld@noeschule.at;02763/2216;15.7162868;48.0463376;1;NOE;0
8;VS Ramsau;314131;Oberdörfl 13;3172;Ramsau;Österreich;http://www.ramsau.at/volksschule/;vs.ramsau@noeschule.at;02764/8245;15.8063224;48.0028498;1;NOE;0
8;VS Randegg;320151;Taborweg 4;3263;Randegg;Österreich;http://www.vsrandegg.ac.at;vs.randegg@noeschule.at;07487/6216;14.9711492;48.0119445;1;NOE;0
8;VS Rappottenstein;325421;Nr. 10a;3911;Rappottenstein;Österreich;http://www.vs.rappottenstein.at/;vs.rappottenstein@noeschule.at;02828/8302;15.078792;48.520513;1;NOE;0
8;VS Rastenfeld;313421;Nr. 88;3532;Rastenfeld;Österreich;http://vsr.heim.at;vs.rastenfeld@noeschule.at;02826/305;15.3312625;48.571919;1;NOE;0
8;VS Ravelsbach;310281;Kremser Straße 7;3720;Ravelsbach;Österreich;http://www.ravelsbach.at/;vs.ravelsbach@noeschule.at;02958/82401;15.8519439;48.5504374;1;NOE;0
8;VS Raxendorf;315411;Nr. 28;3654;Raxendorf;Österreich; ;vs.raxendorf@noeschule.at;02758/7191;15.2772786;48.3407543;1;NOE;0
8;VS Reichenau an der Rax;318521;Schulgasse 23;2651;Reichenauan der Rax;Österreich;http://www.reichenau.at;vs.reichenau@noeschule.at;02666/52235;15.8378669;47.6961718;1;NOE;0
8;VS Reingers;309331;Nr. 43;3863;Reingers;Österreich;teacher.schule.at/vs.reingers;vs.reingers@noeschule.at;02863/8245;15.1485288;48.9670362;1;NOE;0
8;VS Reinsberg;320161;Adelheidweg Nr. 3;3264;Reinsberg;Österreich;http://www.vsreinsberg.ac.at;vs.reinsberg@noeschule.at;07487/2540;15.070067;47.984824;1;NOE;0
8;VS Reisenberg;306301;Kirchengasse 11;2440;Reisenberg;Österreich;http://www.reisenberg.gv.at/;vs.reisenberg@noeschule.at;02234/80566;16.5255939;48.0008733;1;NOE;0
8;VS Retz;310291;Kirchenstraße 1;2070;Retz;Österreich;http://www.vsretz.ac.at/;vs.retz@noeschule.at;02942/20820;15.9533858;48.7587377;1;NOE;0
8;VS Ringelsdorf - Niederabsdorf;308321;Schulstraße 375;2272;Niederabsdorf;Österreich;http://www.vsringelsdorf-niederabsdorf.ac.at/joomla/index.php;vs.ringelsdorf-niederabsdorf@noeschule.at;02536/7585;16.8597698;48.56099;1;NOE;0
8;VS Röhrenbach;311211;Eich Maria 2;3592;Röhrenbach;Österreich; ;vs.roehrenbach@noeschule.at;02989/8212;15.5057222;48.6625813;1;NOE;0
8;VS Röschitz;311221;Schulgasse 3;3743;Röschitz;Österreich; ;vs.roeschitz@noeschule.at;02984/2912;15.8835865;48.6648505;1;NOE;0
8;VS Rohr im Gebirge;323301;Nr. 10;2663;Rohr im Gebirge;Österreich;http://www.vsrohrimgebirge.ac.at;vs.rohr-gebirge@noeschule.at;02667/8249;15.7327064;47.8957971;1;NOE;0
8;VS Rohrau;307171;Obere Hauptstraße 1;2471;Rohrau;Österreich;http://www.vs-rohrau.schulweb.at;vs.rohrau@noeschule.at;02164/2239;16.8590225;48.0655141;1;NOE;0
8;VS Rohrbach an der Gölsen;314151;Schulstraße 10;3163;Rohrbach an der Gölsen;Österreich;http://vsrohrbach-goelsen.ac.at/;vs.rohrbach-goelsen@noeschule.at;02764/2337;15.7373921;48.0474676;1;NOE;0
8;VS Rohrendorf bei Krems;313431;Obere Hauptstraße  21;3495;Rohrendorf bei Krems;Österreich;http://vsrohrendorf.ac.at/;vs.rohrendorf@noeschule.at;02732/84490/14;15.6545738;48.4189847;1;NOE;0
8;VS Sonntagberg, Rosenau;305301;Schulstraße 9;3332;Rosenau, Sonntagberg;Österreich;http://www.vsrosenau.ac.at/;vs.rosenau@noeschule.at;07448/2295;14.737064;48.0046333;1;NOE;0
8;VS Rosenburg - Mold;311171;Nr. 16;3573;Rosenburg;Österreich; ;vs.rosenburg-mold@noeschule.at;02982/3216;15.6394267;48.6285892;1;NOE;0
8;VS Rossatz - Arnsdorf;313441;Hofarnsdorf 2;3621;Mitterarnsdorf;Österreich;http://vs-rossatz-arnsdorf.schulweb.at/;vs.rossatz-arnsdorf@noeschule.at;02714/8278;15.4281531;48.3647384;1;NOE;0
8;VS Ruprechtshofen;315441;Schulstraße 2;3244;Ruprechtshofen;Österreich;http://www.vs-ruprechtshofen.at/;vs.ruprechtshofen@noeschule.at;02756/2518;15.282618;48.1386266;1;NOE;0
8;VS Sallingberg;325451;Nr. 95;3525;Sallingberg;Österreich;http://www.vssallingberg.ac.at/;vs.sallingberg@noeschule.at;02877/8224;15.2301559;48.4658073;1;NOE;0
8;VS Scheibbs;320201;Schulgasse 7;3270;Scheibbs;Österreich;http://www.vsscheibbs.ac.at;vs.scheibbs@noeschule.at;07482/42483;15.1678758;48.0063413;1;NOE;0
8;VS Scheiblingkirchen - Thernberg, Scheiblingkirchen;318351;Schulgasse 100;2831;Scheiblingkirchen;Österreich;http://www.vsscheiblingkirchen.ac.at/;vs.scheiblingkirchen@noeschule.at;02629/3286;16.1322947;47.6561595;1;NOE;0
8;VS Langenlois, Schiltern;313471;Schulgasse 8;3553;Schiltern bei Langenlois;Österreich;http://www.langenlois.at/;vs.schiltern@noeschule.at;02734/8240;15.6209801;48.5167182;1;NOE;0
8;VS Schönau an der Triesting;306561;Friedhofstraße 9;2525;Schönau a.d. Triesting;Österreich;http://www.schoenautriesting.at/;vs.schoenau@noeschule.at;;16.2503415;47.930398;1;NOE;0
8;VS Schönbach;325481;Nr. 73;3633;Schönbach;Österreich;http://www.hsschoenbach.at/vs;vs.schoenbach@noeschule.at;02827/7115;15.0367334;48.4545619;1;NOE;0
8;VS Schönberg am Kamp;313481;Hauptstraße 37;3562;Schönberg am Kamp;Österreich;http://vs-schoenberg.schulweb.at/;vs.schoenberg-kamp@noeschule.at;02733/8295;15.6968369;48.519323;1;NOE;0
8;VS Schönbühel - Aggsbach;315011;Nr. 43;3642;Aggsbach Dorf;Österreich;http://www.aggsbach-dorf.at/daten/schule/schule.htm;vs.schoenbuehel-aggsbach@noeschule.at;02753/8004;15.4242579;48.2952889;1;NOE;0
8;VS Schönkirchen - Reyersdorf;308341;Schulstraße 6;2241;Schönkirchen;Österreich;http://vs-schoenkirchen-reyersdorf.ac.at/joomla-asn/index.php;vs.schoenkirchen-reyersdorf@noeschule.at;02282/22 68;16.6988521;48.3674961;1;NOE;0
8;VS Schottwien;318361;Nr. 90;2641;Schottwien;Österreich;http://www.schottwien.gv.at/;vs.schottwien@noeschule.at;02663/8648;15.8692099;47.6501977;1;NOE;0
8;VS Schrattenberg;316451;Schulgasse 1;2172;Schrattenberg;Österreich;http://www.vs-schrattenberg.schulweb.at/;vs.schrattenberg@noeschule.at;02555/24615;16.7207524;48.7244182;1;NOE;0
8;VS Schrems;309391;Stadtpark 1;3943;Schrems;Österreich;http://www.vsschrems.ac.at/;vs.schrems@noeschule.at;02853/77470;15.064488;48.7905491;1;NOE;0
8;VS Schwadorf;324231;Fischamender Straße 44;2432;Schwadorf bei Wien;Österreich;http://vs-schwadorf-schulweb.at;vs.schwadorf@noeschule.at;02230/2265;16.5884929;48.0729881;1;NOE;0
8;VS Schwarzau im Gebirge;318371;Markt 4;2662;Schwarzau im Gebirge;Österreich; ;vs.schwarzau-gebirge@noeschule.at;02667/214;15.7052928;47.8113166;1;NOE;0
8;VS Schwarzau am Steinfeld;318381;Pittener Straße 94;2625;Schwarzau am Steinfeld;Österreich;http://www.schwarzau-steinfeld.gv.at/;vs.schwarzau-steinfelde@noeschule.at;02627/82542;16.1724228;47.7276268;1;NOE;0
8;VS Schwarzenau;325491;Schulgasse 10;3900;Schwarzenau;Österreich;http://intra.3900.at/volksschule/;vs.schwarzenau@noeschule.at;02849/2242;15.2575363;48.7443879;1;NOE;0
8;VS Schwarzenbach;323321;Markt 45;2803;Schwarzenbach;Österreich;http://www.vsschwarzenbach.ac.at/;vs.schwarzenbach@noeschule.at;02645/520114;16.350274;47.63694;1;NOE;0
8;VS I Schwechat;324241;Ehrenbrunngasse 8;2320;Schwechat;Österreich;http://www.vs1-schwechat.com;vs.schwechat-1@noeschule.at;01/7071967;16.4785805;48.1394784;1;NOE;0
8;VS Schwechat, Mannswörth;324161;Mannswörther Straße 93;2323;Schwechat - Mannswörth;Österreich;http://www.vs-mannswoerth.at;vs.schwechat-mannswoerth@noeschule.at;01/7078470;16.5172;48.1467733;1;NOE;0
8;VS Schwechat, Rannersdorf;324211;Stankagasse 25;2320;Schwechat - Rannersdorf;Österreich;http://www.vs-rannersdorf.at/;vs.schwechat-rannersdorf@noeschule.at;01/7078452;16.4647854;48.1285335;1;NOE;0
8;VS Schweiggers;325501;Am Schulberg 4;3931;Schweiggers;Österreich;http://www.schweiggers.gv.at/;vs.schweiggers@noeschule.at;02829/8304;15.065323;48.6685184;1;NOE;0
8;VS Seebenstein;318391;Schulallee 106;2824;Seebenstein;Österreich;vsseebenstein.ac.at;vs.seebenstein@noeschule.at;02627/47042;16.1461912;47.7012332;1;NOE;0
8;VS Seefeld - Kadolz;310311;Großkadolz 114;2062;Seefeld - Großkadolz;Österreich;http://vsseefeld-kadolz.ac.at/;vs.seefeld-kadolz@noeschule.at;02943/2406;16.1820884;48.7133343;1;NOE;0
8;VS Seibersdorf an der Leitha;306121;Obere Hauptstraße 39;2443;Seibersdorf Deutsch-Brodersdorf;Österreich;http://www.marktgemeinde-seibersdorf.at/schule;vs.seibersdorf@noeschule.at;02255/6236;16.4728151;47.9384367;1;NOE;0
8;VS Seitenstetten;305411;Schulgasse 6;3353;Seitenstetten;Österreich;http://www.vsseitenstetten.ac.at;vs.seitenstetten@noeschule.at;07477/42273;14.650181;48.0349884;1;NOE;0
8;VS Senftenberg;313491;Hofgarten 5;3541;Senftenberg;Österreich;http://www.senftenberg.at/;vs.senftenberg@noeschule.at;02719/2347;15.5547547;48.4487413;1;NOE;0
8;VS Gerasdorf bei Wien, Seyring;324341;Seyring, Schloss Straße 13;2201;Gerasdorf bei Wien;Österreich;http://www.vs-seyring.at;vs.seyring@noeschule.at;02246/27656;16.4846943;48.3310165;1;NOE;0
8;VS Sieghartskirchen;321291;Tullner Straße 22;3443;Sieghartskirchen;Österreich;http://www.vssieghartskirchen.ac.at;vs.sieghartskirchen@noeschule.at;02274/2291;16.0103395;48.2588072;1;NOE;0
8;VS Sierndorf;312191;Schulstraße 5;2011;Sierndorf;Österreich;http://www.sierndorf.at/volksschule;vs.sierndorf@noeschule.at;02267/2539;16.1682335;48.4282462;1;NOE;0
8;VS Sigmundsherberg;311261;Bruggerstraße 7;3751;Sigmundsherberg;Österreich;http://311261.jimdo.com/;vs.sigmundsherberg@noeschule.at;02983/2449;15.7498386;48.6875556;1;NOE;0
8;VS Sitzenberg - Reidling;321271;Kirchengasse 8;3454;Reidling;Österreich;http://www.vssitzenberg-reidling.ac.at;vs.sitzenberg-reidling@noeschule.at;02276/2243;15.8203225;48.3183796;1;NOE;0
8;VS Sitzendorf an der Schmida;310321;Schulgasse 7;3714;Sitzendorf an der Schmida;Österreich;http://www.vssitzendorf.ac.at;vs.sitzendorf@noeschule.at;02959/2445;15.9438444;48.6005025;1;NOE;0
8;VS Sollenau;323341;Schulgasse 2;2601;Sollenau;Österreich;http://www.vs-sollenau.at/;vs.sollenau@noeschule.at;02628/47633;16.2496641;47.899155;1;NOE;0
8;VS Sommerein;307181;Schlossstraße 25;2453;Sommerein;Österreich;schulen.asn-noe.ac.at/vssommerein/;vs.sommerein@noeschule.at;02168/63654;16.6599392;47.9912877;1;NOE;0
8;VS Sooß;306331;Hauptstraße 29;2500;Sooß;Österreich;http://www.vssooss.at;vs.sooss@noeschule.at;02252/22592;16.2469583;48.002471;1;NOE;0
8;VS Spannberg;308351;Kirchengasse 22;2244;Spannberg;Österreich;http://www.spannberg.at/;vs.spannberg@noeschule.at;02538/85495;16.7427071;48.4653306;1;NOE;0
8;VS Spillern;312201;Kirchenplatz 2;2104;Spillern;Österreich;http://www.spillern.at/;vs.spillern@noeschule.at;02266/80200;16.2548423;48.3776552;1;NOE;0
8;VS Spitz an der Donau;313501;Rote Torgasse 3a;3620;Spitz an der Donau;Österreich;http://www.vsspitz.ac.t;vs.spitz@noeschule.at;02713/2324;15.4123135;48.367296;1;NOE;0
8;VS Staatz;316491;Schlossplatz 3;2134;Staatz-Kautendorf;Österreich;http://www.staatz.at/;vs.staatz@noeschule.at;02524/3530;16.4905141;48.6762002;1;NOE;0
8;VS St. Aegyd am Neuwalde;314161;Kirchenplatz 6;3193;St. Aegyd am Neuwalde;Österreich;http://www.vsstaegyd.ac.at;vs.staegyd@noeschule.at;02768/2221;15.562174;47.8527811;1;NOE;0
8;VS St. Andrä - Wördern;321281;Greifensteiner Straße 22;3423;St. Andrä - Wördern;Österreich;http://www.vsstaw.at;vs.standrae-woerdern@noeschule.at;02242 / 32304;16.2108191;48.3228247;1;NOE;0
8;VS Herzogenburg, St. Andrä an der Traisen;319621;St. Andrä, Berggasse 1;3130;Herzogenburg;Österreich;http://vsstandrae.ac.at/;vs.standrae@noeschule.at;02782/85038;15.7203898;48.299258;1;NOE;0
8;VS St. Anton an der Jeßnitz;320181;Nr. 4;3283;St. Anton an der Jeßnitz;Österreich;http://www.st-anton-jessnitz.gv.at;vs.stanton@noeschule.at;07482/48319;15.00327;48.196102;1;NOE;0
8;VS Statzendorf;319511;Hauptstraße 33;3125;Statzendorf;Österreich;http://www.statzendorf.at/;vs.statzendorf@noeschule.at;02786/2457;16.0129607;48.2401193;1;NOE;0
8;VS St. Bernhard - Frauenhofen;311271;Nr. 71;3580;Frauenhofen;Österreich;http://www.stbernhard.at/;vs.stbernhard-frauenhofen@noeschule.at;02982/38122;15.6301455;48.6730811;1;NOE;0
8;VS St. Egyden am Steinfeld;318321;Kirchenplatz 7;2731;St. Egyden am Steinfeld;Österreich;http://www.vsstegyden-steinfeld.ac.at;vs.stegyden-steinfeld@noeschule.at;02638/77807;16.1022636;47.7816031;1;NOE;0
8;VS Wöllersdorf - Steinabrückl, Steinabrückl;323361;Hauptstraße 5;2751;Steinabrückl;Österreich;http://www.vssteinabrueckl.ac.at;vs.steinabrueckl@noeschule.at;02622/43068;16.2032873;47.8680762;1;NOE;0
8;VS Steinakirchen am Forst;320211;Schulweg 2;3261;Steinakirchen am Forst;Österreich;http://www.vssteinakirchen.ac.at;vs.steinakirchen@noeschule.at;07488/71407;15.0473555;48.0678365;1;NOE;0
8;VS Stetten;312221;Schulgasse 2;2100;Stetten;Österreich;http://www.stetten.at/;vs.stetten@noeschule.at;02262/672113/20;16.3827152;48.3678343;1;NOE;0
8;VS Waidhofen an der Ybbs, St. Georgen in der Klaus;303051;Sankt Georgnerstraße 34;3340;Waidhofen an der Ybbs;Österreich;http://www.stgeorgenklaus.at/;vs.stgeorgen-klaus@noeschule.at;07442/58253;14.779967;47.9583049;1;NOE;0
8;VS St. Georgen an der Leys;320191;Schulweg 5;3282;St. Georgen an der Leys;Österreich;http://www.vsstgeorgen-leys.ac.at;vs.stgeorgen-leys@noeschule.at;07482/46204;15.2278265;48.0320873;1;NOE;0
8;VS St. Georgen am Reith;305321;Dorf 36;3344;St. Georgen am Reith;Österreich; ;vs.stgeorgen-reith@noeschule.at;07484/8226;14.8779337;47.8400147;1;NOE;0
8;VS St. Georgen am Ybbsfelde;305331;Marktplatz 2;3304;St. Georgen am Ybbsfelde;Österreich;http://www.vsstgeorgen-ybbsfelde@asn-noe.ac.at;vs.stgeorgen-ybbsfeld@noeschule.at;07473/2305;14.9544228;48.1306884;1;NOE;0
8;VS Weinzierl am Walde, St. Johann;313451;St. Johann 2;3611;Großheinrichschlag;Österreich;vsweinzierl.schulweb.at;vs.stjohann@noeschule.at;02876/88111;15.3845525;48.4237043;1;NOE;0
8;VS Waidhofen an der Ybbs, St. Leonhard am Walde;303031;St. Leonhard am Walde 98;3340;Waidhofen an der Ybbs;Österreich; ;vs.stleonhard-wald@noeschule.at;07442/7345;14.8718939;47.9959489;1;NOE;0
8;VS St. Leonhard am Hornerwald;313461;Nr. 61;3572;St. Leonhard am Hornerwald;Österreich;http://www.vs-stleonhard.schulweb.at/;vs.stleonhard@noeschule.at;02987/2237;15.5511256;48.6154912;1;NOE;0
8;VS St. Margarethen an der Sierning;319481;Schulstraße 2;3231;St. Margareten an der Sierning;Österreich;http://www.sankt-margarethen.at/;vs.stmargarethen-sierning@noeschule.at;02747/3550;15.4888449;48.159549;1;NOE;0
8;VS St. Martin - Karlsbach;315451;Lindenstraße 2;3376;St.Martin-Karlsbach;Österreich;http://vsstmartin-karlsbach.ac.at/;vs.stmartin-karlsbach@noeschule.at;07412/58901;15.0195888;48.1652238;1;NOE;0
8;VS St. Martin;309401;Nr. 15;3971;St. Martin;Österreich; ;vs.stmartin@noeschule.at;02857/2312;14.8400529;48.6637095;1;NOE;0
8;VS Stockerau - West;312241;Schulweg 3;2000;Stockerau;Österreich;http://www.vswest.at;vs.stockerau-west@noeschule.at;02266/62035-12;16.2118197;48.3886165;1;NOE;0
8;VS Stockerau - Josef Wondrak;312231;Schulweg 4;2000;Stockerau;Österreich;  ;vs.stockerau-wondrak@noeschule.at;02266/62020;16.2124342;48.3886989;1;NOE;0
8;VS Stössing;319541;Nr. 27;3073;Stössing;Österreich;http://vs-stoessing.jimdo.com/;vs.stoessing@noeschule.at;02744/5371;15.8105071;48.1155677;1;NOE;0
8;VS St. Oswald;315461;Nr. 59;3684;St. Oswald;Österreich;http://www.stoswald.com/;vs.stoswald@noeschule.at;07415/7472;15.0377943;48.2670199;1;NOE;0
8;VS St. Pantaleon - Erla;305371;Ringstraße 12;4303;St. Pantaleon;Österreich;http://www.st-pantaleon-erla.gv.at/gemeinde/volksschule.html;vs.stpantaleon-erla@noeschule.at;07435/7592;14.567329;48.2109798;1;NOE;0
8;VS St. Peter in der Au;305381;Haghofstraße 3;3352;St. Peter in der Au;Österreich;http://www.vsstpeter-au.ac.at;vs.stpeter-au@noeschule.at;07477/42317;14.6205567;48.0461093;1;NOE;0
8;VS Daniel Gran I mit musikalischem Schwerpunkt;302011;Kerensstraße 13;3100;St. Pölten;Österreich;http://www.vsstpoelten-danielgran-1.ac.at;vs.stpoelten-danielgran-1@noeschule.at;02742 / 323 23-11;15.6268116;48.2096148;1;NOE;0
8;Daniel Gran VS II St. Pölten;302021;Daniel Gran-Straße 49;3100;St. Pölten;Österreich;http://vsstpoelten-danielgran-2.ac.at/;vs.stpoelten-danielgran-2@noeschule.at;02742/3232320;15.6261641;48.2099819;1;NOE;0
8;Otto Glöckel VS St. Pölten;302171;Otto Glöckel-Straße 1;3100;St. Pölten;Österreich;http://www.vsstpoelten-gloeckel.ac.at;vs.stpoelten-gloeckel@noeschule.at;02742/323 29 10;15.6330684;48.2198397;1;NOE;0
8;Grillparzer VS I St. Pölten;302031;Grillparzerstraße 8;3100;St. Pölten;Österreich;http://www.vsstpoelten-grillparzer1.ac.at;vs.stpoelten-grillparzer-1@noeschule.at;02742/32322-11;15.6232995;48.1965766;1;NOE;0
8;Grillparzer VS II St. Pölten;302041;Grillparzerstraße 8;3100;St. Pölten;Österreich;http://www.vsstpoelten-grillparzer2.ac.at/;vs.stpoelten-grillparzer-2@noeschule.at;02742 - 32 322 21;15.6232995;48.1965766;1;NOE;0
8;VS St. Pölten, Harland;302051;Salcherstraße 41;3104;St. Pölten - Harland;Österreich;http://www.vsstpoelten-harland.ac.at;vs.stpoelten-harland@noeschule.at;02742/32317-11;15.6390366;48.1614691;1;NOE;0
8;Franz Jonas VS St. Pölten;302161;Franz Jonas-Straße 10;3100;St. Pölten;Österreich;http://www.vsstpoelten-jonas.ac.at;vs.stpoelten-jonas@noeschule.at;02742/ 3 23 24;15.6209106;48.1889311;1;NOE;0
8;VS St. Pölten, Pottenbrunn;302131;Weiglstraße 6;3140;Pottenbrunn;Österreich;http://www.vsstpoelten-pottenbrunn.ac.at;vs.stpoelten-pottenbrunn@noeschule.at;02742/32328-11;15.6911227;48.238556;1;NOE;0
8;VS St. Pölten, Radlberg;302061;Radlberger Hauptstraße 123;3105;St. Pölten - Radlberg;Österreich;http://www.vsstpoelten-radlberg.ac.at;vs.stpoelten-radlberg@noeschule.at;02742/323 26-11;15.6761838;48.2516452;1;NOE;0
8;VS St. Pölten, Spratzern;302071;Pestalozzistraße 28;3106;St. Pölten - Spratzern;Österreich;http://www.vsstpoelten-spratzern.ac.at;vs.stpoelten-spratzern@noeschule.at;02742/32325-10;15.6245977;48.1715774;1;NOE;0
8;VS St. Pölten, Stattersdorf;302081;Stattersdorfer Hauptstraße 109;3100;St. Pölten;Österreich;http://www.vsstpoelten-stattersdorf.ac.at;vs.stpoelten-stattersdorf@noeschule.at;02742/32321-11;15.6438235;48.182623;1;NOE;0
8;VS St. Pölten, St. Georgen am Steinfelde;302151;St. Georgener Hauptstraße 132;3151;St. Georgen am Steinfelde;Österreich;http://www.vsstgeorgen-steinfelde.ac.at;vs.stpoelten-stgeorgen@noeschule.at;02742/32315-10;15.6120197;48.1390207;1;NOE;0
8;VS St. Pölten, Viehofen;302091;Austinstraße 27;3107;St. Pölten - Traisenpark;Österreich;http://www.vsstpoelten-viehofen.ac.at;vs.stpoelten-viehofen@noeschule.at;02742/32311-11;15.6405068;48.2281684;1;NOE;0
8;VS St. Pölten, Wagram;302101;Unterwagramer Straße 49;3100;St. Pölten-Wagram;Österreich;http://www.vsstpoelten-wagram.ac.at;vs.stpoelten-wagram@noeschule.at;02742 323 16 10;15.650053;48.205451;1;NOE;0
8;VS Straning - Grafenberg;311291;Nr. 115;3722;Straning;Österreich;http://www.straning-grafenberg.at/;vs.straning-grafenberg@noeschule.at;02984/7239;15.8639695;48.6104205;1;NOE;0
8;VS Straß im Straßertale;313521;Nr. 32;3491;Straß im Straßertale;Österreich;http://vs-strass.schulweb.at/;vs.strass-strassertale@noeschule.at;02735/2331;15.735835;48.472162;1;NOE;0
8;VS Strasshof an der Nordbahn;308371;Schulstraße 19;2231;Strasshof an der Nordbahn;Österreich;http://www.vsstrasshof.ac.at/joomla/index.php;vs.strasshof@noeschule.at;02287/22 30;16.6401695;48.3152433;1;NOE;0
8;VS Strengberg;305451;Schulplatz 3;3314;Strengberg;Österreich;http://www.vsstrengberg.ac.at;vs.strengberg@noeschule.at;07432/2241;14.6496024;48.1435741;1;NOE;0
8;VS Stronsdorf;316501;Oberschoderlee 64;2153;Stronsdorf;Österreich;http://vs-stronsdorf.jimdo.com/;vs.stronsdorf@noeschule.at;02526/7290;16.3346848;48.6481158;1;NOE;0
8;VS Grafenbach - St. Valentin;318061;Schulstraße 13;2632;Grafenbach;Österreich;http://www.vsgrafenbach.ac.at;vs.stvalentin-grafenbach@noeschule.at;02630/37120;16.0151616;47.6866262;1;NOE;0
8;VS St. Valentin, Hauptplatz;305391;Hauptplatz 9;4300;St. Valentin;Österreich;http://www.vsstvalentin-hauptplatz.ac.at;vs.stvalentin-hauptplatz@noeschule.at;07435/521610;14.5335049;48.1739796;1;NOE;0
8;VS St. Valentin, Werkstraße;305401;Werkstraße 22;4300;St. Valentin;Österreich;http://www.vsstvalentin-werkstrasse.ac.at;vs.stvalentin-werkstrasse@noeschule.at;07435/52235;14.5133286;48.1689;1;NOE;0
8;VS St. Veit an der Gölsen;314171;Bahnstraße 3;3161;St. Veit an der Gölsen;Österreich;vsstveit-goelsen.ac.at;vs.stveit-goelsen@noeschule.at;02763/2334;15.6684163;48.0442062;1;NOE;0
8;VS Sulz im Weinviertel;308381;Kirchenberg 217;2224;Obersulz;Österreich;http://www.sulz-weinviertel.gv.at/;vs.sulz@noeschule.at;02534/236;16.7067624;48.2652189;1;NOE;0
8;VS Teesdorf;306451;Alfred Schedewy-Straße 10;2524;Teesdorf;Österreich;http://www.teesdorf.at;vs.teesdorf@noeschule.at;02253/81660;16.2779366;47.9489824;1;NOE;0
8;VS Ternitz, Kreuzäckergasse;318531;Kreuzäckergasse 9;2630;Ternitz;Österreich;http://www.vsternitz-kreuzaeckergasse.at;vs.ternitz-kreuzaeckergasse@noeschule.at;02630/20468;16.0195548;47.7087631;1;NOE;0
8;VS Ternitz, Pottschach;318261;Pottschach, Franz Samwald-Straße 27;2630;Ternitz;Österreich;http://www.musik-vs-pottschach.ternitz.at;vs.ternitz-pottschach@noeschule.at;02630/38334;16.0106061;47.7004987;1;NOE;0
8;VS Ternitz, Stapfgasse;318421;Stapfgasse 1;2630;Ternitz;Österreich;http://www.vs-stapfgasse.ternitz.at;vs.ternitz-stapfgasse@noeschule.at;02630/37502;16.0408098;47.7167631;1;NOE;0
8;VS Ternitz, St. Lorenzen;318331;St. Lorenzen, Liechtingergasse 2;2620;Ternitz;Österreich;http://www.ternitz.gv.at/;vs.ternitz-stlorenzen@noeschule.at;02630/37593;16.0374476;47.7392021;1;NOE;0
8;VS Ternitz, Triester Straße;318431;Triester Straße 20;2630;Ternitz;Österreich;http://www.vsternitz-triesterstrasse.ac.at;vs.ternitz-triesterstrasse@noeschule.at;02630/38401;16.0472704;47.7106149;1;NOE;0
8;VS Texingtal, Texing;315491;Nr. 19;3242;Texing;Österreich;http://www.vstexing.ac.at;vs.texing@noeschule.at;02755/7256;15.3224382;48.0446735;1;NOE;0
8;VS Thaya;322211;Hauptstraße 8;3842;Thaya;Österreich;http://www.vsthaya.ac.at;vs.thaya@noeschule.at;02842/52349;15.2899696;48.8549072;1;NOE;0
8;VS Theresienfeld;323381;Roseggerstraße 6;2604;Theresienfeld;Österreich;http://www.vs-theresienfeld.schulweb.at;vs.theresienfeld@noeschule.at;02622/71323;16.2499337;47.8615567;1;NOE;0
8;VS Scheiblingkirchen - Thernberg, Thernberg;318441;Markt 5;2832;Thernberg;Österreich;http://www.thernberg.at/schule.htm;vs.thernberg@noeschule.at;02629/3588;16.1766717;47.6612756;1;NOE;0
8;VS Rabenstein an der Pielach, Tradigist;319561;Tradigist  62;3203;Rabenstein an der Pielach;Österreich;http://www.rabenstein.gv.at/;vs.tradigist@noeschule.at;02722/7675;15.5248272;48.0134677;1;NOE;0
8;VS Traisen;314191;Ebnerstraße 6;3160;Traisen;Österreich;vstraisen.ac.at;vs.traisen@noeschule.at;02762/62572;15.6230575;48.0469898;1;NOE;0
8;VS Traiskirchen;306351;Karl Hilber-Straße 1;2514;Traiskirchen;Österreich;http://www.vstraiskirchen.ac.at;vs.traiskirchen@noeschule.at;02252/52386;16.2894212;48.0157927;1;NOE;0
8;VS Traismauer;319571;Alter Schulweg 2;3133;Traismauer;Österreich;http://www.traismauer.at/;vs.traismauer@noeschule.at;02783/6328;15.7441828;48.3487057;1;NOE;0
8;VS Trattenbach;318451;Nr. 76;2881;Trattenbach;Österreich;http://www.bildungshaus-trattenbach.at/;vs.trattenbach@noeschule.at;02641/8730;15.89239;47.60286;1;NOE;0
8;VS Trautmannsdorf an der Leitha;307191;Hauptstraße 42;2454;Trautmannsdorf an der Leitha;Österreich;http://www.vstrautmannsdorf.ac.at;vs.trautmannsdorf@noeschule.at;02169/2690;16.6440796;48.0223533;1;NOE;0
8;VS Traiskirchen, Tribuswinkel;306361;Josef Lichtenecker-Gasse 5;2512;Tribuswinkel;Österreich;http://vstribuswinkel.ac.at/joomla-asn1517/index.php;vs.tribuswinkel@noeschule.at;02252/85078;16.2681383;48.0019624;1;NOE;0
8;VS Trumau;306371;Kirchengasse 5;2521;Trumau;Österreich;http://www.vs-trumau.at/;vs.trumau@noeschule.at;02253/6500;16.3407643;47.9957798;1;NOE;0
8;VS Türnitz;314201;Unterer Markt 16;3184;Türnitz;Österreich;http://www.tuernitz-noe.at/;vs.tuernitz@noeschule.at;02769/8232;15.4944748;47.9335749;1;NOE;0
8;VS Tulbing;321301;Hauptstraße 3;3434;Tulbing;Österreich;http://www.vstulbing.ac.at;vs.tulbing@noeschule.at;02273/2221;16.1228582;48.2901723;1;NOE;0
8;VS I Tulln;321311;Kirchengasse 30;3430;Tulln;Österreich;http://www.vstulln1.ac.at;vs.tulln-1@noeschule.at;02272/62667;16.057188;48.3309642;1;NOE;0
8;VS II Tulln;321351;Frauentorgasse 68;3430;Tulln;Österreich;http://www.vstulln-2.ac.at;vs.tulln-2@noeschule.at;02272/62922;16.0559191;48.3204959;1;NOE;0
8;VS Tullnerbach;324371;Norbertinumstraße 9;3013;Tullnerbach;Österreich;vstullnerbach.at;vs.tullnerbach@noeschule.at;02233/53732;16.1069799;48.1892333;1;NOE;0
8;VS Ulrichskirchen - Schleinbach;316511;Neue Schule 1;2122;Ulrichskirchen;Österreich;http://www.millenniumsschule.at;vs.ulrichskirchen-schleinbach@noeschule.at;02245/83018;16.4941011;48.4128101;1;NOE;0
8;VS Unserfrau - Altweitra;309441;Nr. 67;3970;Unserfrau;Österreich;http://www.unserfrau-altweitra.at/;vs.unserfrau-altweitra@noeschule.at;02856/2960;14.8971302;48.7256447;1;NOE;0
8;VS Aspang-Markt, Unteraspang;318461;Neugasse 2;2870;Aspang-Markt;Österreich;http://vs-unter-aspang.schulweb.at/;vs.unteraspang@noeschule.at;02642/52395;16.1003349;47.5701141;1;NOE;0
8;VS Untersiebenbrunn;308391;Hauptstraße 12;2284;Untersiebenbrunn;Österreich; ;vs.untersiebenbrunn@noeschule.at;02286/22 94;16.7454461;48.2556829;1;NOE;0
8;VS Ebreichsdorf, Unterwaltersdorf;306381;Pflanzsteig 9;2442;Unterwaltersdorf;Österreich;http://www.vs-unterwaltersdorf.schulweb.at;vs.unterwaltersdorf@noeschule.at;02254/73930;16.4306861;47.9634554;1;NOE;0
8;VS Viehdorf;305471;Nr. 112;3322;Viehdorf;Österreich;http://www.vsviehdorf.ac.at;vs.viehdorf@noeschule.at;07472/64192;14.8904308;48.1497226;1;NOE;0
8;VS Vitis;322221;Zwettler Straße 5;3902;Vitis;Österreich;http://www.vsvitis.ac.at;vs.vitis@noeschule.at;02841/8303;15.18677;48.7569226;1;NOE;0
8;VS Vösendorf;317231;Kirchenplatz 2;2331;Vösendorf;Österreich;http://www.vsvoesendorf.ac.at;vs.voesendorf@noeschule.at;01/699 15 85;16.3386491;48.1230183;1;NOE;0
8;VS Waidhofen an der Thaya;322231;Gymnasiumstraße 6;3830;Waidhofen an der Thaya;Österreich;http://www.vswaidhofen-thaya.ac.at;vs.waidhofen-thaya@noeschule.at;02842/52451;15.2811864;48.8127577;1;NOE;0
8;VS Waidhofen an der Ybbs, Plenkerstraße;303011;Plenkerstraße 8a;3340;Waidhofen an der Ybbs;Österreich;http://www.vswaidhofen.at;vs.waidhofen-ybbs-plenkerstrasse@noeschule.at;07442/52476-523;14.7781915;47.9570709;1;NOE;0
8;VS Waldegg;323411;Nr. 21;2754;Waldegg an der Piesting;Österreich;http://www.vswaldegg.ac.at;vs.waldegg@noeschule.at;02633/4228531;16.047663;47.86905;1;NOE;0
8;VS Waldenstein;309451;Nr. 62;3961;Waldenstein;Österreich;http://www.waldenstein.at/;vs.waldenstein@noeschule.at;02855/202;15.01949;48.7269512;1;NOE;0
8;VS Waldhausen;325561;Nr. 54;3914;Waldhausen;Österreich; ;vs.waldhausen@noeschule.at;02877/7370;15.260999;48.520805;1;NOE;0
8;VS Waldkirchen an der Thaya;322241;Nr. 50;3844;Waldkirchen an der Thaya;Österreich;http://www.vswaldkirchen.ac.at;vs.waldkirchen-thaya@noeschule.at;02843/2318;15.3540279;48.9379477;1;NOE;0
8;VS Wallsee - Sindelburg;305501;St. Severinstraße 17;3313;Wallsee;Österreich;http://www.vswallsee.ac.at/;vs.wallsee-sindelburg@noeschule.at;07433/2239;14.7158654;48.1631591;1;NOE;0
8;VS Walpersbach;323421;Nr. 64;2822;Walpersbach;Österreich;http://www.vs-walpersbach.schulweb.at/;vs.walpersbach@noeschule.at;02627/48354;16.232944;47.7211839;1;NOE;0
8;VS Wang;320231;Unterer Markt 16;3262;Wang;Österreich;http://www.vswang.ac.at/;vs.wang@noeschule.at;07488/71 509;15.0267702;48.0479433;1;NOE;0
8;VS Wartmannstetten;318471;Hafninger Straße 16;2620;Wartmannstetten;Österreich;http://vswartmannstetten.schulweb.at/;vs.wartmannstetten@noeschule.at;02635/63193;16.0751751;47.6870639;1;NOE;0
8;VS Ebreichsdorf, Weigelsdorf;306401;Hauptstraße 32;2484;Weigelsdorf;Österreich;http://www.ebreichsdorf.at/;vs.weigelsdorf@noeschule.at;02254/73700;16.4050195;47.9487537;1;NOE;0
8;VS Weikendorf;308411;Franz Mair-Weg 3;2253;Weikendorf;Österreich; ;vs.weikendorf@noeschule.at;02282/36 55;16.7624343;48.3437612;1;NOE;0
8;VS Weikersdorf am Steinfelde;323431;Blätterstraße 62;2722;Weikersdorf am Steinfelde;Österreich;http://www.vs-weikersdorf.schulweb.at/;vs.weikersdorf-steinfelde@noeschule.at;02638/22808;16.1431059;47.80447;1;NOE;0
8;VS Weinburg;319591;Kirchenstraße 21;3200;Weinburg;Österreich;http://www.vsweinburg.ac.at/;vs.weinburg@noeschule.at;02747/2634;15.5293739;48.1143777;1;NOE;0
8;VS Weissenbach an der Triesting;306411;Hauptstraße 16;2564;Weissenbach an der Triesting;Österreich;http://www.school4you.at/2564/vs-weissenbach;vs.weissenbach@noeschule.at;02674/89389;16.0402455;47.9813397;1;NOE;0
8;VS Weißenkirchen an der Perschling;319601;Obere Hauptstr. 9;3142;Murstetten;Österreich;http://schule.weissenkirchen-perschling.at;vs.weissenkirchen-perschling@noeschule.at;02784/30093;15.8310506;48.2381578;1;NOE;0
8;VS Weißenkirchen;313581;Nr. 169;3610;Weißenkirchen in der Wachau;Österreich;http://www.weissenkircheninderwachau.at/;vs.weissenkirchen@noeschule.at;02715/2331;15.474798;48.398726;1;NOE;0
8;VS Weistrach;305511;Dorf 50;3351;Weistrach;Österreich;http://www.weistrach.gv.at/;vs.weistrach@noeschule.at;07477/42398;14.5850067;48.0552617;1;NOE;0
8;VS Weiten;315501;Schulstraße 122;3653;Weiten;Österreich;http://www.vs.weiten.at;vs.weiten@noeschule.at;02758/8010;15.266131;48.2891984;1;NOE;0
8;VS Weitersfeld;311311;Nr. 268;2084;Weitersfeld;Österreich;http://www.vsweitersfeld.ac.at/joomla-asn/index.php;vs.weitersfeld@noeschule.at;02948/8452;15.8112616;48.7837542;1;NOE;0
8;VS Weitra;309461;Schubertstraße 209;3970;Weitra;Österreich;http://www.vsweitra.ac.at/;vs.weitra@noeschule.at;02856/2422;14.8938224;48.704414;1;NOE;0
8;VS Wienerwald, Sittendorf;317211;Gaadner Straße 24;2393;Sittendorf bei Wien;Österreich;http://www.vswienerwald.ac.at;vs.wienerwald-sittendorf@noeschule.at;02237/7639-1;16.1622355;48.0735271;1;NOE;0
8;VS Wieselburg;320241;Karl-Hager-Platz 1;3250;Wieselburg an der Erlauf;Österreich;http://www.vswieselburg.ac.at;vs.wieselburg@noeschule.at;07416/52311;15.135893;48.1253347;1;NOE;0
8;VS Wiesmath;323441;Schulstraße 22;2811;Wiesmath;Österreich;http://www.vswiesmath.ac.at;vs.wiesmath@noeschule.at;02645/2345;16.292221;47.6164432;1;NOE;0
8;VS Wildendürnbach;316561;Nr. 183;2164;Wildendürnbach;Österreich;vs-wildenduernbach.jimdo.com/;vs.wildenduernbach@noeschule.at;02523/825240;16.504143;48.7559643;1;NOE;0
8;VS Wilfersdorf;316571;Sportplatzstraße 49;2193;Wilfersdorf;Österreich;http://vs-wilfersdorf.jimdo.com/;vs.wilfersdorf@noeschule.at;02573/2309;16.6394658;48.5897368;1;NOE;0
8;VS Wilhelmsburg, Nord;319611;Penknergasse 3;3150;Wilhelmsburg;Österreich;vs.wilhelmsburg-nord.polygonstudio.at;vs.wilhelmsburg-nord@noeschule.at;02746/2552-21;15.6031496;48.104871;1;NOE;0
8;VS Wilhelmsburg, Süd;319111;Kurzenkirchnerstraße 18;3150;Wilhelmsburg;Österreich;http://www.vs-wilhelmsburg-sued.com/;vs.wilhelmsburg-sued@noeschule.at;02746/4323;15.5962852;48.0988064;1;NOE;0
8;VS Wimpassing;318481;Bundesstraße 36;2632;Wimpassing;Österreich;http://www.volksschule.wimpassing.at/;vs.wimpassing@noeschule.at;02630/38719;16.0273325;47.7003813;1;NOE;0
8;VS Waidhofen an der Ybbs, Windhag;303021;Windhag 5;3340;Waidhofen an der Ybbs;Österreich;http://www.vswaidhofen.at/;vs.windhag@noeschule.at;07442/54276;14.8025966;47.9797324;1;NOE;0
8;VS Windigsteig;322261;Schulstraße 3;3841;Windigsteig;Österreich;http://www.vswindigsteig.ac.at;vs.windigsteig@noeschule.at;02849/2941;15.2892522;48.7651429;1;NOE;0
8;VS Winklarn;305531;Hauptstraße 13;3300;Winklarn;Österreich; ;vs.winklarn@noeschule.at;07472/6431930;14.8476615;48.0912869;1;NOE;0
8;VS Winzendorf - Muthmannsdorf;323451;Frauenbachgasse 366;2722;Winzendorf;Österreich;http://www.vswinzendorf.ac.at;vs.winzendorf-muthmannsdorf@noeschule.at;02638/22233;16.11213;47.8076908;1;NOE;0
8;VS Wölbling;319381;Oberer Markt 15;3124;Oberwölbling;Österreich;http://vswoelbling.ac.at/;vs.woelbling@noeschule.at;02786/2217;15.5907531;48.3200708;1;NOE;0
8;VS Wöllersdorf - Steinabrückl, Wöllersdorf;323461;Schulgasse 6;2752;Wöllersdorf;Österreich;http://www.vs.woellersdorf.schulweb.at;vs.woellersdorf@noeschule.at;02633/43955;16.1700016;47.8653865;1;NOE;0
8;VS Wolfsbach;305541;Schulstraße 2;3354;Wolfsbach;Österreich;http://www.vswolfsbach.ac.at;vs.wolfsbach@noeschule.at;07477/820411;14.670443;48.0769873;1;NOE;0
8;VS Wolfsthal;307201;Hauptstraße 42;2412;Wolfsthal;Österreich; ;vs.wolfsthal@noeschule.at;02165/62676-20;17.0095129;48.1357004;1;NOE;0
8;VS Wolkersdorf im Weinviertel;316591;Obersdorf, Kirschenallee 2;2120;Wolkersdorf im Weinviertel;Österreich;http://www.vswolkersdorf.ac.at;vs.wolkersdorf@noeschule.at;02245/2481;16.5216417;48.3774763;1;NOE;0
8;VS Wiener Neudorf;317241;Europaplatz 6;2351;Wiener Neudorf;Österreich;http://www.vswr-neudorf.ac.at;vs.wr-neudorf@noeschule.at;02236/61122;16.31876;48.0878246;1;NOE;0
8;Bürgermeister Hans Barwitzius-VS Wiener Neustadt;304071;Hubertusgasse 25b;2700;Wiener Neustadt;Österreich;http://www.vs-barwitzius.at;vs.wr-neustadt-barwitzius@noeschule.at;0676 88 373 2 390;16.2300169;47.7959874;1;NOE;0
8;VS Wiener Neustadt, Baumkirchnerring West;304021;Baumkirchnerring 18;2700;Wiener Neustadt;Österreich;http://www.vs-bkr.at;vs.wr-neustadt-bkr-west@noeschule.at;0676/88 373 2396;16.2406143;47.8174268;1;NOE;0
8;Otto Glöckel VS Wiener Neustadt;304031;Pottendorfer Straße 100;2700;Wiener Neustadt;Österreich;vs-otto-gloeckel.schulweb.at/;vs.wr-neustadt-gloeckel@noeschule.at;0676/883732388;16.2608979;47.829567;1;NOE;0
8;VS Wiener Neustadt, Herzog Leopold Straße;304061;Herzog Leopold-Straße 21;2700;Wiener Neustadt;Österreich;http://www.musikvolksschule.schulweb.at/;vs.wr-neustadt-herzogleopold@noeschule.at;0676 883732398;16.2405883;47.8133175;1;NOE;0
8;VS Wiener Neustadt, In der Josefstadt;304101;Sonnleitnergasse 1;2700;Wiener Neustadt;Österreich;bsrwn.lsr-noe.gv.at;vs.wr-neustadt-josefstadt@noeschule.at;676 883 732 393;16.2406437;47.8255983;1;NOE;0
8;Pestalozzi VS Nord Wiener Neustadt;304091;Schneeberggasse 41-43;2700;Wiener Neustadt;Österreich;http://www.vswr-neustadt-bilingual.ac.at;vs.wr-neustadt-pestalozzi-nord@noeschule.at;0043/676/88373/2385;16.2250906;47.8111726;1;NOE;0
8;VS Wiener Neustadt, Im Ungarviertel;304121;Grünbeckgasse 1;2700;Wiener Neustadt;Österreich;bsrwn.lsr-noe.gv.at;vs.wr-neustadt-ungarviertel@noeschule.at;0676/88373 2 383;16.2565721;47.816129;1;NOE;0
8;Rudolf Wehrl VS Nord Wiener Neustadt;304041;Wöllersdorfer Straße 7;2700;Wiener Neustadt;Österreich;http://www.vs-rudolfwehrl.at;vs.wr-neustadt-wehrl-nord@noeschule.at;0676/883732380;16.2342913;47.8312597;1;NOE;0
8;VS Würflach;318501;Neunkirchner Straße 76;2732;Würflach;Österreich;http://www.vs-wuerflach.at;vs.wuerflach@noeschule.at;02620/2456;16.0545497;47.7747784;1;NOE;0
8;VS Wuermla;321321;Kirchenplatz 3;3042;Wuermla;Österreich;http://www.vswuermla.ac.at;vs.wuermla@noeschule.at;02275/8229;15.8591968;48.2548105;1;NOE;0
8;VS Wullersdorf;310361;Nr. 256;2041;Wullersdorf;Österreich;http://www.vswullersdorf.ac.at;vs.wullersdorf@noeschule.at;02951/8423;16.09644;48.627179;1;NOE;0
8;VS Laa an der Thaya, Wulzeshofen;316601;Nr. 53;2064;Wulzeshofen;Österreich;http://www.wulzeshofen.at;vs.wulzeshofen@noeschule.at;02527/273;16.3028879;48.7182831;1;NOE;0
8;VS Ybbs an der Donau;315511;Prof. Wirtinger Gasse 1;3370;Ybbs an der Donau;Österreich;http://www.vsybbs.ac.at/;vs.ybbs@noeschule.at;07412/52409;15.0816589;48.1786346;1;NOE;0
8;VS Ybbsitz;305551;Schulgasse 1;3341;Ybbsitz;Österreich;http://www.vsybbsitz.ac.at;vs.ybbsitz@noeschule.at;07443/86386;14.8971596;47.9466151;1;NOE;0
8;VS Yspertal;315021;Pisching 14;3683;Yspertal;Österreich;http://www.vsyspertal.ac.at;vs.yspertal@noeschule.at;07415/7367;15.02923;48.34254;1;NOE;0
8;VS Zeillern;305561;Schulstraße 14;3311;Zeillern;Österreich; ;vs.zeillern@noeschule.at;07472/64402;14.8075246;48.1298623;1;NOE;0
8;VS Zeiselmauer - Wolfpassing;321331;Kirchenplatz 4;3424;Zeiselmauer;Österreich;http://www.vszeiselmauer.ac.at;vs.zeiselmauer-wolfpassing@noeschule.at;02242/70474;16.176685;48.3285518;1;NOE;0
8;VS Zelking - Matzleinsdorf;315521;Pöchlarner Straße 9;3393;Zelking;Österreich; ;vs.zelking-matzleinsdorf@noeschule.at;02752/52010;15.2563147;48.1843274;1;NOE;0
8;VS Waidhofen an der Ybbs, Zell;303061;Zell, Hauptplatz 17;3340;Waidhofen an der Ybbs;Österreich;http://www.vszell.ac.at;vs.zell@noeschule.at;07442/90517;14.779967;47.9583049;1;NOE;0
8;VS Zellerndorf;310371;Nr. 269;2051;Zellerndorf;Österreich;http://vs-zellerndorf.schulweb.at/;vs.zellerndorf@noeschule.at;02945/2500;15.961558;48.6950199;1;NOE;0
8;VS Ziersdorf;310381;Erlenaugasse 10;3710;Ziersdorf;Österreich;http://www.vsziersdorf.ac.at;vs.ziersdorf@noeschule.at;02956/2736;15.9313014;48.5272229;1;NOE;0
8;VS Zillingdorf;323481;Rathausstraße 7;2492;Zillingdorf;Österreich;http://www.vszillingdorf.ac.at;vs.zillingdorf@noeschule.at;02622/73710;16.3275909;47.8532403;1;NOE;0
8;VS Zistersdorf;308421;Schlossplatz 5;2225;Zistersdorf;Österreich;http://www.vszistersdorf.ac.at;vs.zistersdorf@noeschule.at;02532/24 43;16.7612652;48.5436099;1;NOE;0
8;VS Zöbern;318511;Schulstraße 1;2871;Zöbern;Österreich;http://www.zoebern.at/;vs.zoebern@noeschule.at;02642/8200;16.1294493;47.5136941;1;NOE;0
8;VS Zwentendorf;321341;Goetheplatz 2;3435;Zwentendorf;Österreich;http://www.vszwentendorf.ac.at;vs.zwentendorf@noeschule.at;02277/2278-11;15.9112555;48.3448889;1;NOE;0
8;VS Zwettl, Friedersbach;325101;Nr. 86;3533;Friedersbach;Österreich;http://www.volksschule-friedersbach.at/;vs.zwettl-friedersbach@noeschule.at;02826/295;15.2738579;48.5855219;1;NOE;0
8;VS Zwettl, Großglobnitz;325161;Nr. 50;3910;Großglobnitz;Österreich; ;vs.zwettl-grossglobnitz@noeschule.at;02823/256;15.171894;48.674808;1;NOE;0
8;VS Zwettl, Hammerweg;325591;Hammerweg 2;3910;Zwettl;Österreich;http://www.vs-zwettl.at;vs.zwettl-hammerweg@noeschule.at;02822/52734;15.1619794;48.6071974;1;NOE;0
8;VS Zwettl, Jagenbach;325211;Nr. 63;3923;Jagenbach;Österreich; ;vs.zwettl-jagenbach@noeschule.at;02829/8671;15.0298322;48.6399577;1;NOE;0
8;VS Zwettl, Jahrings;325221;Jahrings 45;3910;Zwettl;Österreich;;vs.zwettl-jahrings@noeschule.at;02822/53699;15.0983536;48.5887796;1;NOE;0
8;VS Zwettl, Oberstrahlbach;325371;Oberstrahlbach 51;3910;Zwettl;Österreich;http://www.zwettl.at/;vs.zwettl-oberstrahlbach@noeschule.at;02822/54441;15.1160898;48.6331727;1;NOE;0
8;VS Zwettl, Rieggers;325431;Nr. 51;3931;Rieggers;Österreich;http://www.vszwettl.ac.at/;vs.zwettl-rieggers@noeschule.at;02829/7443;15.0710991;48.6327856;1;NOE;0
8;VS Zwettl, Rosenau Schloss;325471;Nr. 9;3924;Schloß Rosenau;Österreich;http://www.zwettl.gv.at/;vs.zwettl-rosenau@noeschule.at;02822/58216;15.0555875;48.6035605;1;NOE;0
8;VS Zwölfaxing;324291;Raiffeisenstraße 27-29;2320;Zwölfaxing;Österreich;http://www.volksschule-zwoelfaxing.at/;vs.zwoelfaxing@noeschule.at;01/7076123;16.465432;48.110598;1;NOE;0
8;PVS Elusch Hollerbusch - Schule für ganzheitliches Lernen;308141;Halbgasse 7;2244;Spannberg;Österreich;http://www.elusch.org/schule_text_2.htm;wengraf@aon.at;02538/89895;16.7372923;48.4660213;1;NOE;0
8;PVS Marchschule-Montessorihaus;308401;Friedhofgasse 21;2293;Marchegg;Österreich;http://www.montessori-campus.at/;office@montessori-campus.at;0699/12 51 90 66;16.9119339;48.2733563;1;NOE;0
8;VS DaVinci Schule am Gut;323501;Wr. Neustädter Straße 12;2721;Bad Fischau-Brunn;Österreich;http://www.davincischule.at;davincischule.hartberg@diakonie-delatour.at;03332 61265 ;16.167563;47.8310886;1;NOE;0
